name,street,housenumber,postcode,city,opening_hours,brand,type,payment_credit_card,payment_debit_cards,payment_cash,payment_contactless,wheelchair,internet_access,layer,phone,email,website,latitude,longitude,source
Netto Marken-Discount,Alte Jakobstraße,83,10179,Berlin,Mo-Sa 07:00-24:00; Su off,Netto Marken-Discount,,,,,,no,no,,,,https://www.netto-online.de/filialen/Berlin-Mitte/Alte-Jakobstr-83/7714/,52.5098189,13.4073729,
Ledo,Quäkerstraße,2,13403,Berlin,Mo-Sa 09:00-20:00,,,,,,,yes,,,,,https://www.ledo-supermarkt.de/,52.5724174,13.3085471,
kiezmarkt,,,,,"Mo-Fr 08:00-20:00, Sa 08:00-19:00",Nahkauf,,,,,,yes,,,,,,52.5716761,13.3124756,
nah & gut,Scharnweberstraße,100,13405,Berlin,Mo-Sa 07:00-22:00,EDEKA,,,,,,yes,,,+49 30 41199655,,,52.5664033,13.3169308,
Nahkauf,Meller Bogen,2,13403,Berlin,Mo-Sa 07:00-20:00,Nahkauf,,,,yes,yes,limited,,2,030-346491610,,https://www.nahkauf.de/maerkte/berlin-42613025-oeztuerk-gbr-meller-bogen-2,52.5704861,13.321144,
nah und gut,Güntzelstraße,40,10717,Berlin,Mo-Fr 08:00-20:00; Sa 08:00-16:00,Edeka,delicatessen,,,yes,,yes,,,,,http://www.delikatessendiscounter.de/,52.4913971,13.3228827,
NORMA,,,,,Mo-Sa 07:00-20:00,NORMA,,,,,,yes,,,,,,52.5265407,13.5403083,
Netto Marken-Discount,,,13435,,Mo-Sa 07:00-20:00,Netto Marken-Discount,,,,,,yes,,,,,https://www.netto-online.de/filialen/Berlin-Reinickendorf/Wilhelmsruher-Damm-242/7630/,52.5958262,13.3335139,
Aldi,Müllerstraße,128,13349,Berlin,Mo-Sa 07:00-22:00,Aldi Nord,,,,,,yes,,,,,,52.5524232,13.3480665,
Netto Marken-Discount,,,,,Mo-Sa 07:00-22:00,Netto Marken-Discount,,,,,,yes,,,,,https://www.netto-online.de/filialen/Berlin/Marzahner-Promenade-30/5633/,52.5439135,13.5486135,
Edeka Leher,Fürstenwalder Allee,314,12589,Berlin,Mo-Sa 08:00-20:00,EDEKA,,,,,,yes,,,+49 30 64169454,,,52.4315738,13.7149761,
PENNY,Pankower Allee,47-49,,,Mo-Sa 07:00-21:00,Penny,,,,,,yes,,,,,,52.565038,13.3706441,
Netto,,,,,Mo-Sa 07:00-20:00,Netto,,,,,,yes,,,,,,52.5515059,13.4550894,
EDEKA Thaut,,,,,Mo-Sa 06:55-22:00,Edeka,,,,,,yes,,,,,https://www.edeka.de/eh/minden-hannover/edeka-thaut-jessnerstr.-47-55/index.jsp,52.510061,13.4709585,
Öz-Gida,Hauptstraße,16,10827,Berlin,Mo-Sa 08:00-20:00,,,,,,,yes,,,,,,52.4873144,13.3570728,
EDEKA,,,,,Mo-Sa 07:00-21:00,EDEKA,,,,,,yes,no,,,,,52.4701156,13.4621306,
Lidl,Neuendorfer Straße,30,13585,Berlin,"Mo-Sa 07:00-21:00; Su,PH off",Lidl,,,,,,yes,,,,,,52.5476038,13.2100323,
Lidl,Falkenseer Damm,19,13585,Berlin,Mo-Sa 07:00-21:00,Lidl,,,,,,yes,,,,,,52.5428752,13.1965568,
Aldi,Theodor-Heuss-Platz,7,14052,Berlin,Mo-Sa 07:00-22:00,Aldi Nord,,,,,,yes,,,,,,52.5085368,13.2716801,
REWE,Turmstraße,60,10551,Berlin,Mo-Sa 06:30-23:00,Rewe,,yes,,yes,yes,yes,wlan,,,,https://www.rewe.de/marktseite/berlin-tiergarten/565308/rewe-city-turmstr-60/,52.5276119,13.3291604,
Kaufland,Schnellerstraße,21,12439,Berlin,Mo-Sa 07:00-22:00,Kaufland,,,,,,yes,wlan,,,,http://www.kaufland.de,52.457312,13.5078518,
EDEKA,Frankfurter Allee,35 - 37,10247,Berlin,Mo-Sa 08:00-21:00,Edeka,,,,,,yes,wlan,,,,https://www.edeka.de/eh/minden-hannover/edeka-reske-frankfurter-allee-35-37/index.jsp,52.515615,13.4623106,
REWE,Oberweißbacher Straße,2-4,12687,Berlin,Mo-Sa 06:00-22:00,REWE,,,,,,yes,,,,,,52.5565629,13.5714829,
REWE City,Südwestkorso,36,14197,Berlin,Mo-Sa 07:00-21:00,Rewe,,,,,,yes,,,+493083222208,,https://www.rewe.de/marktseite/berlin/1931154/rewe-markt-suedwestkorso-36/,52.4686357,13.3117953,
REWE City,Otto-Suhr-Allee,141,10585,Berlin,Mo-Sa 06:00-22:00,Rewe,,,,,,yes,,,,,,52.5190008,13.3007843,
Lidl,Berliner Straße,27-28,13189,Berlin,Mo-Sa 07:00-21:00,Lidl,,,,,,yes,,,,,https://www.lidl.de/,52.563584,13.412146,
E-Center,,,,,Mo-Sa 07:00-20:00,Edeka,,,,,,yes,,,,,,52.6082579,13.2353863,
Nah und gut,,,,,Mo-Fr 07:00-19:00; Sa 07:00-16:00,Edeka,,,,,,limited,,,,,,52.6097415,13.248277,
Kaufland,Rudower Chaussee,12,12489,Berlin,Mo-Sa 07:00-22:00; Su off,Kaufland,,yes,yes,yes,,yes,wlan,,,,,52.432822,13.5351004,
Edeka Ungefroren,Fischerinsel,12,10179,Berlin,Mo-Sa 07:00-21:00,Edeka,,,,,,yes,,,,,,52.513684,13.4060088,
Aldi,,,,,Mo-Sa 08:00-20:00,ALDI Nord,,,,,,yes,,,,,https://www.aldi-nord.de/filialen-und-oeffnungszeiten.html/l/berlin/furstenwalder-allee-314/3181563,52.4313775,13.7147356,
EDEKA,Fischerhüttenstraße,68,14163,Berlin,Mo-Sa 07:00-22:00,Edeka,,,,yes,,yes,,,,,,52.4422611,13.2404658,
EDEKA,Potsdamer Chaussee,80,14129,Berlin,Mo-Sa 07:00-22:00,EDEKA,,,,,,yes,,,+49 30 80586790,,https://www.edeka.de/eh/minden-hannover/edeka-potsdamer-chaussee-potsdamer-chaussee-80/index.jsp,52.4268546,13.2159158,
EDEKA,Markt,11,13597,Berlin,"Mo-Sa 07:00-22:00; Su, PH off",Edeka,,,,,,yes,,,+49 30 35302393,,https://www.edeka.de/eh/minden-hannover/edeka-markt-11-markt-11/index.jsp,52.5374036,13.2047062,
Penny,Britzer Damm,73,12347,Berlin,Mo-Sa 07:00-22:00,Penny,,,,,,yes,,,,,,52.4560576,13.4374685,
Edeka,Britzer Damm,55-59,12347,Berlin,Mo-Sa 07:00-22:00,EDEKA,,yes,yes,yes,,yes,,,+49 30 60902190,,https://www.edeka.de/,52.4574201,13.4373312,
Netto Marken-Discount,,,,,Mo-Sa 07:00-22:00,Netto Marken-Discount,,,,,,yes,,,,,https://www.netto-online.de/filialen/Berlin-Steglitz/Bismarckstr-3/7757/,52.4630725,13.3388468,
REWE,Sömmeringstraße,24-26,10589,Berlin,Mo-Sa 07:00-23:30,Rewe,,,,,,yes,,,,,,52.523423,13.3065606,
REWE City,Pichelsdorfer Straße,110,13595,Berlin,"Mo-Sa 06:00-22:00; Su,PH off",REWE,,,,,,yes,,,,,,52.5246216,13.1977106,
EDEKA Yilmaz,Baumschulenstraße,31,12437,Berlin,Mo-Fr 07:00-24:00; Sa 07:00-23:30,EDEKA,,,yes,yes,,yes,,,+49 30 67814520,,https://www.edeka.de/eh/minden-hannover/edeka-yilmaz-baumschulenstr.-31/index.jsp,52.4638746,13.4858575,
Norma,Heinrich-Grüber-Straße,86,12621,Berlin,Mo-Sa 07:00-21:00; PH off,Norma,,,,,,yes,,,,,,52.5194368,13.5973616,
EDEKA,Sonnenallee,330,12057,Berlin,,EDEKA,,,,,,yes,,,+49 306851058,,http://www.marktjagd.de/geschaeft/EDEKA-Berlin-Neukoelln-Sonnenallee:205443,52.4639513,13.4731548,
Aldi,,,,,Mo-Sa 07:00-21:00,ALDI Nord,,,,,,yes,no,,,,https://www.aldi-nord.de/,52.4702479,13.4617637,
PENNY,Wilhelminenhofstraße,89A,12459,Berlin,Mo-Sa 07:00-21:00,Penny,,,,,,yes,,,,,https://www.penny.de/,52.4622262,13.5129345,
Lidl,Oranienplatz,4,10999,,Mo-Sa 07:00-21:00,Lidl,,yes,yes,yes,,yes,,,,,,52.5021,13.4144676,
EDEKA Y.Reichelt,Levetzowstraße,10-10a,10555,Berlin,Mo-Fr 07:00-21:00; Sa 07:00-21:00,Edeka,,yes,yes,,,yes,,,,,,52.5208001,13.3343449,
Denns BioMarkt,Boxhagener Straße,103,10245,Berlin,Mo-Sa 08:00-21:00,Denns BioMarkt,,,,,,yes,,,,,,52.5126115,13.4597619,
Edeka Wittenbergplatz,Wittenbergplatz,4,10789,Berlin,"Mo-Fr 07:00-24:00; Sa 07:00-23:30; Su,PH off",Edeka,,,,,,yes,wlan,,+49 30 21473420,,,52.5026043,13.3436334,
Kaufland,Weißenhöher Straße,88 - 108,12683,Berlin,Mo-Sa 07:00-22:00,Kaufland,,,,,,yes,wlan,,+49 30 6341160,,http://www.kaufland.de,52.5068475,13.5578938,
EDEKA,Franz-Jacob-Straße,4,10369,Berlin,Mo-Sa 07:00-22:00,Edeka,,,,,,yes,,,,,,52.5254295,13.4657308,
REWE,,,,,Mo-Sa 07:00-21:45,REWE,,,,,,limited,,,,,https://www.rewe.de/marktseite/berlin/4040098/rewe-markt-lausanner-strasse-goerzallee-82/,52.4262609,13.3024814,
Aldi,,,,,Mo-Sa 07:00-20:00,ALDI Nord,,,,,,yes,,,,,https://www.aldi-nord.de/filialen-und-oeffnungszeiten.html/l/berlin/lausanner-strasse-83/3181454,52.4269688,13.3036734,
REWE,,,,,Mo-Sa 07:00-22:00,Rewe,,,,,,yes,,,,,,52.6183865,13.4863459,
EDEKA Lindenberg,Markstraße,32-34,13409,Berlin,Mo-Sa 07:00-21:00,Edeka,,yes,yes,yes,,yes,wlan,,+49 30 49905390,,,52.560815,13.3654858,
EDEKA Iden,Wilhelmsruher Damm,231,13435,Berlin,Mo 07:00-24:00; Tu-Fr 00:00-24:00; Sa 00:00-23:00,Edeka,,,,,,yes,,,+49 30 40999680,,https://www.edeka.de/,52.5947516,13.3352782,
Netto Marken-Discount,Kochhannstraße,34,10249,Berlin,Mo-Sa 07:00-21:00; PH off,Netto Marken-Discount,,,,,,limited,,,,,https://www.netto-online.de/filialen/Berlin-Friedrichshain/Kochhannstr-40/7667/,52.5239186,13.4467143,
Aldi,Lankwitzer Straße,19,12209,Berlin,Mo-Sa 08:00-20:00,Aldi Nord,,,,,,yes,,,,,https://www.aldi-nord.de/filialen-und-oeffnungszeiten.html/l/berlin/lankwitzer-strasse-20-24/3180933,52.4297351,13.330048,
Nahkauf,Drakestraße,33a,12205,Berlin,Mo-Sa 07:00-22:00,Nahkauf,,,,,,yes,,,,,,52.4433223,13.2968177,
Penny,Grunewaldstraße,36-37,10823,Berlin,Mo-Sa 07:00-22:00,Penny,,,,yes,,yes,,,,,,52.4893173,13.3458969,
Lidl,,,,,Mo-Sa 07:00-21:00,Lidl,,yes,,yes,,yes,,,,,,52.5652376,13.3788276,
Lidl,Malteserstraße,162/164,12277,Berlin,Mo-Sa 07:00-21:00,Lidl,,,,,,yes,,,,,,52.4173898,13.3620284,
REWE,Heerstraße,560,13591,Berlin,Mo-Sa 07:00-22:00,REWE,,,,,,yes,,,,,,52.5250164,13.1414723,
REWE,Havemannstraße,12a,12689,Berlin,Mo-Sa 07:00-22:00,REWE,,,,,,yes,,,,,,52.5687154,13.5684842,
REWE,Alfred-Kowalke-Straße,2,10315,Berlin,Mo-Sa 07:00-22:00,Rewe,,,,,,yes,,,,,,52.5048235,13.5150175,
Netto Marken-Discount,Kaiser-Wilhelm-Straße,11,12247,Berlin,Mo-Sa 07:00-21:00,Netto Marken-Discount,,,,,,yes,,,,,https://www.netto-online.de/filialen/Berlin-Lankwitz/Kaiser-Wilhelm-Str-11/7750/,52.4300567,13.3349701,
Edeka Neue Kantstraße,Neue Kantstraße,29-30,14057,Berlin,Mo-Sa 07:00-22:00,Edeka,,,,,,yes,,,,,,52.5065505,13.2930747,
Netto Marken-Discount,Landsberger Allee,,,Berlin,Mo-Sa 07:00-22:00; PH off,Netto Marken-Discount,,,,,,yes,,,,,https://www.netto-online.de/filialen/Berlin-Friedrichshain/Landsberger-Allee-62-b/7507/,52.5251872,13.4446299,
REWE City,Landsberger Allee,68D,10249,Berlin,Mo-Fr 07:00-24:00; Sa 07:00-23:30,Rewe,,,,,,yes,,,,,,52.5258345,13.4469831,
HIT Ullrich,Schloßstraße,110,12163,Berlin,Mo-Sa 08:00-22:00,HIT,,,,,,yes,,,,,,52.4610364,13.3251331,
Lidl,,,,,Mo-Sa 07:00-21:00,Lidl,,,,,,yes,,,,,https://www.lidl.de,52.5567323,13.4373178,
EDEKA Martin-Luther-Straße,Martin-Luther-Straße,52-54,10779,Berlin,Mo-Sa 07:00-22:00,Edeka,,yes,yes,,,yes,,,,,,52.4920032,13.3447835,
Edeka,Berliner Straße,96,13507,Berlin,Mo-Sa 07:00-22:00; PH off,Edeka,,,,,,yes,,,,,,52.5890882,13.284848,
Bio Company,,,,,Mo-Sa 08:00-21:00,Bio Company,,,,,,yes,,,,,,52.5047239,13.3074695,
EDEKA Kelz,Straße der Pariser Kommune,38,10243,Berlin,"Mo-Sa 08:00-20:00; Su,PH off",Edeka,,,,,,yes,,,+49 30 29492760,,https://www.edeka.de/,52.5160549,13.4406783,
REWE,Schönhauser Allee,10-11,10119,Berlin,Mo-Sa 07:00-23:30,Rewe,,yes,yes,,,yes,wlan,,,,,52.5305826,13.4121544,
Netto Marken-Discount,Torstraße,33,,,Mo-Sa 07:00-22:00,Netto Marken-Discount,,,,,,limited,,,,,https://www.netto-online.de/filialen/Berlin-Mitte/Torstrasse-33/7629/,52.5282208,13.4127819,
Lidl,Friedenstraße,94a,10249,Berlin,Mo-Sa 07:00-22:00,Lidl,,,,,,yes,,,,,,52.5223299,13.4351805,
REWE,Siemensdamm,43-44,13629,Berlin,Mo-Sa 06:00-22:00,Rewe,,,,,,yes,,,,,,52.5363802,13.2746944,
EDEKA,,,,,Mo-Sa 07:00-21:00,Edeka,,,,,,yes,,,,,,52.52261,13.4284778,
Lidl,Choriner Straße,64/64a,10435,Berlin,Mo-Sa 08:00-21:00,Lidl,,yes,yes,yes,,yes,,,,,,52.5345191,13.4079979,
EDEKA,Herrfurthplatz,12,12049,,Mo-Sa 07:00-21:00,Edeka,,,,,,yes,,,,,https://www.edeka.de/eh/minden-hannover/edeka-herrfurthplatz-herrfurthplatz-12/index.jsp,52.4770848,13.4230134,
Bio Company,Friesenstraße,1,10965,,Mo-Sa 08:00-21:00,Bio Company,,,,,,limited,,,+49 30 284724740,,https://www.biocompany.de,52.4888756,13.3942017,
Kaufland,Breite Straße,20,13187,Berlin,Mo-Sa 07:00-22:00,Kaufland,,yes,yes,yes,,yes,,,,,https://filiale.kaufland.de/service/filiale/berlin-pankow-3650.html,52.5704705,13.4036206,
Alnatura Super Natur Markt,Schönhauser Allee,108,10439,Berlin,Mo-Sa 08:00-21:00,Alnatura,,,,,,yes,,,,,https://www.alnatura.de/de-de/maerkte/marktseiten/berlin/berlin-alnatura-super-natur-markt-b060/,52.5517136,13.4136956,
REWE,Lankwitzer Straße,19,12209,Berlin,Mo-Sa 07:00-22:00,Rewe,,,,,,yes,,,,,,52.4294636,13.3302464,
REWE,Invalidenstraße,158,10115,Berlin,Mo-Sa 07:00-23:00,Rewe,,yes,yes,yes,,yes,,,+49 30 28390336,,https://www.rewe.de/marktseite/rewe-markt-berlin-invalidenstra%C3%9Fe-158/,52.5319807,13.3970838,
Edeka Siegler,Richard-von-Weizsäcker-Platz,1-2,10827,Berlin,Mo-Sa 08:00-20:00,Edeka,,,yes,yes,,yes,,,,,,52.4856563,13.3568344,
Aldi,Richard-von-Weizsäcker-Platz,2,10827,Berlin,Mo-Sa 08:00-21:00,Aldi Nord,,,,,,yes,,,,,https://www.11880.com/branchenbuch/berlin/071211191B101638739/aldi-gmbh-co-kommanditgesellschaft.html,52.4857584,13.3574343,
REWE,Schönwalder Straße,32,13585,Berlin,"Mo-Th 06:00-22:00; Fr,Sa 06:00-23:00; Su,PH off",Rewe,,,,,,yes,,,+49 30 35503704,,,52.5488799,13.2010419,
REWE,Clayallee,336,14169,Berlin,"Mo-Sa 06:00-22:00; Su,PH off",Rewe,,yes,yes,yes,,yes,wlan,,+49 30 81295890,,https://www.rewe.de/marktseite/berlin/1931138/rewe-markt-clayallee-336/,52.437065,13.2622014,
Istanbul Supermarkt,Dominicusstraße,29,10827,Berlin,,,,,,,,yes,,,+49303938672,,,52.4818248,13.3489273,
Aldi,Prerower Platz,1,13051,Berlin,Mo-Sa 08:00-20:00,Aldi Nord,,,,,,yes,,,,,,52.56393,13.5053553,
Edeka,Ferdinandstraße,34,12209,Berlin,Mo-Sa 08:00-20:00,Edeka,,,,,,yes,,,,,,52.4278951,13.3284544,
PENNY,Kottbusser Damm,66,10967,Berlin,Mo-Sa 07:00-22:00,Penny,,,,yes,,yes,,,,,,52.4888458,13.4249997,
EDEKA,Wiclefstraße,60-62,10551,Berlin,Mo-Sa 08:00-20:00,Edeka,,,,,,yes,,,,,,52.5301247,13.3373959,
REWE City,Schönhauser Allee,130,10437,Berlin,Mo-Sa 06:00-23:30; PH off,Rewe,,,,,,yes,no,,,,,52.5453707,13.4123763,
Lidl,Wilhelminenhofstraße,83-85,12459,Berlin,Mo-Sa 07:00-21:00,Lidl,,,,,,yes,,,,,https://www.lidl.de,52.4611526,13.5164664,
PENNY,Heerstraße,378-382,13593,Berlin,Mo-Sa 07:00-22:00,Penny,,,,,,limited,,,,,,52.518976,13.1707459,
REWE,,,10997,Berlin,Mo-Fr 07:00-24:00; Sa 07:00-23:30,Rewe,,,,,,yes,,,,,,52.4984121,13.4420092,
Netto Marken-Discount,Sterndamm,33,12487,Berlin,Mo-Sa 07:00-22:00,Netto Marken-Discount,,,,,,yes,,,,,https://www.netto-online.de/filialen/Berlin-Johannisthal/Sterndamm-33/7758/,52.4512743,13.5087505,
Aldi,Kiefholzstraße,49,12435,Berlin,Mo-Sa 08:00-21:00,Aldi Nord,,,,,,yes,,,,,https://www.aldi-nord.de/,52.4859875,13.4571207,
REWE,Kiefholzstraße,50,12435,Berlin,Mo-Sa 07:00-22:00,Rewe,,,,,,yes,wlan,,,,,52.4855808,13.4568606,
Rewe,Sakrower Landstraße,1 A,14089,Berlin,Mo-Sa 07:00-22:00,Rewe,,,,,,yes,,,,,,52.4528593,13.1430094,
PENNY,,,,,Mo-Sa 07:00-22:00,Penny,,,,,,yes,,,022120199959,,https://www.penny.de/markt/berlin-west/4030323/penny-an-der-schaubuehne-kurfuerstendamm-156,52.4985137,13.3035063,
PENNY,,,,,Mo-Sa 07:00-21:00,Penny,,,,,,yes,,,,,,52.5499503,13.577706,
PENNY,Oberweißbacher Straße,2-4,12687,Berlin,Mo-Sa 07:00-21:00,Penny,,,,,,yes,,,,,,52.5568679,13.5715607,
Netto,,,,,Mo-Sa 07:00-21:00,Netto,,,,,,yes,,,,,,52.6173677,13.4863442,
REWE,Bruno-Taut-Straße,1,12524,Berlin,Mo-Sa 07:00-22:00; PH off,Rewe,,,,,,yes,wlan,,,,,52.4123748,13.5717456,
REWE,Bahnhofstraße,33-38,12555,Berlin,Mo-Sa 07:00-22:00,Rewe,,,,,,yes,wlan,,+493065070763,,,52.4586902,13.5772772,
EDEKA,Pistoriusstraße,112-114,13086,Berlin,Mo-Sa 07:00-21:00,EDEKA,,,,,,yes,,,+49 30 92094019,,https://edeka-schlender.de/,52.5533011,13.4459428,
Edeka Peth,Berliner Allee,100,13088,Berlin,Mo-Sa 07:00-20:00,Edeka,,,,,,limited,,,,,,52.5498309,13.4588499,
Edeka Ostseestraße,Ostseestraße,107-109,10409,Berlin,Mo-Sa 07:00-21:00,Edeka,,,,,,yes,,,,,,52.546533,13.4429678,
Netto Marken-Discount,Storkower Straße,128b,10407,Berlin,"Mo-Sa 07:00-21:00; Su,PH off",Netto Marken-Discount,,,,,,yes,,,,,,52.533316,13.4522613,
Edeka Nah und Gut,,,,,Mo-Sa 07:30-23:00,Edeka,,,,,,limited,,,,,,52.5420785,13.4198029,
nah und gut,,,,,"Mo-Th 08:00-23:00; Fr,Sa 08:00-22:00",Edeka,,,,,,limited,,,,,,52.5426683,13.4183617,
Lidl,Badstraße,60,13357,Berlin,Mo-Sa 07:00-21:00,Lidl,,,,,,yes,wlan,,,,https://www.lidl.de/,52.5511375,13.3833679,
REWE,Badstraße,57-58,13357,Berlin,Mo-Fr 07:00-24:00; Sa 07:00-23:30,Rewe,,,,,,yes,,,+49 30 46067706,,https://www.rewe.de/,52.5513946,13.3828975,
LPG BioMarkt,Reichenberger Straße,37,10999,Berlin,Mo-Sa 08:00-21:00,LPG BioMarkt,,,,,,limited,,,,,,52.4971196,13.4240914,
Punjab Supermarkt,Drontheimer Straße,32-32a,13359,Berlin,Mo-Sa 08:00-21:00,,,,,,,yes,,,+49 30 49301241,,,52.5586866,13.3749078,
PENNY,,,,,Mo-Sa 07:00-21:00,Penny,,,,,,yes,,,022120199959,,https://www.penny.de/markt/berlin-west/4030265/penny-stephanstrasse-stephanstr-30,52.5330951,13.3454332,
Netto Marken-Discount,Rathausstraße,5,10178,Berlin,Mo-Sa 07:00-22:00,Netto Marken-Discount,,,,,,limited,,,+49 30 20089463,,https://www.netto-online.de/filialen/Berlin-Mitte/Rathausstr5/7641/,52.5189624,13.409903,
Netto,Mecklenburgische Straße,27,14197,Berlin,Mo-Sa 07:00-20:00,Netto,,,,,,,,,,,,52.4787864,13.3084451,
Kraut & Rüben,Oranienstraße,15,10999,Berlin,Mo-Fr 09:00-19:00; Sa 09:00-16:00,,,,,,,no,,,,krautis@kraut-und-rüben-berlin.de,,52.5006163,13.4231403,
Brandenburger Landwaren,Oranienstraße,47a,10969,Berlin,Mo-Fr 09:00-19:00; Sa 08:30-18:00,,,,,,,limited,,,,,,52.5029466,13.4136849,
PENNY,Turmstraße,,10551,Berlin,Mo-Sa 07:00-22:00,Penny,,,yes,yes,yes,yes,,,,,,52.5267978,13.3317124,
Lidl,Hermannstraße,55,12049,,Mo-Sa 07:00-22:00,Lidl,,,,,,yes,,,,,https://www.lidl.de/filialen/berlin-neukoelln/neukoelln-hermannstr-55.html,52.4769707,13.4261428,
Aldi,Hermannstraße,72,12049,Berlin,Mo-Sa 07:00-21:00,Aldi Nord,,yes,yes,yes,,yes,,,,,https://www.aldi-nord.de/filialen-und-oeffnungszeiten.html/l/berlin/hermannstrasse-72/3181934,52.4741639,13.4274479,
Lidl,Flughafenstraße,1,12053,,"Mo-Sa 07:00-21:00; Su,PH off",Lidl,,yes,yes,yes,,no,,,,,,52.4816182,13.4334593,
Baraka,Karl-Marx-Straße,100,12043,Berlin,Mo-Sa 08:00-22:00,,,,,,,no,,,,,,52.4794566,13.4369238,
Taste Hellas,Tempelhofer Damm,218,12099,Berlin,Mo-Fr 10:00-20:00; Sa 10:00-18:00,,,,,,,no,,,,info@tadioaderfia.de,,52.4565369,13.3834395,
Netto Marken-Discount,Mariendorfer Damm,19,12109,Berlin,Mo-Sa 07:00-21:00,Netto Marken-Discount,,,,,,yes,,,,,https://www.netto-online.de/filialen/Berlin-Mariendorf/Mariendorfer-Damm-19-21/5341/,52.4510775,13.3852947,
Edeka Prang,Mariendorfer Damm,81,12109,Berlin,Mo-Sa 08:00-22:00,EDEKA,,,,,,yes,,,,,http://mein.edeka.de/eh/de/minden_hannover/6608/,52.4453501,13.386125,
NORMA,,,,,Mo-Sa 08:00-20:00,NORMA,,,,,,yes,,,,,,52.4425881,13.4319561,
REWE,Rauchstraße,56,13587,Berlin,"Mo-Sa 07:00-22:00; Su,PH off",Rewe,,,,,,yes,,,+49 30 33308114,,https://www.rewe.de/,52.5615636,13.2138439,
Norma,Tiroler Straße,28,13187,Berlin,Mo-Sa 08:00-21:00,Norma,,,,,,no,,,+49 1805 911102,,http://norma-online.de,52.5591073,13.4062472,
EDEKA,Barnimstraße,18,10249,Berlin,Mo-Sa 07:00-22:00,Edeka,,,,,,yes,,,+49 30 24729176,,,52.5260753,13.422959,
EDEKA,Albrechtstraße,3,12165,Berlin,"Mo-Fr 08:00-24:00; Sa 08:00-23:30; PH,Su off",EDEKA,,,,,,yes,,,,,,52.4564251,13.3217052,
nah und gut Brabanski,Alt-Tempelhof,31-33,12103,Berlin,Mo-Sa 08:00-20:00,Edeka,,,,,,limited,,,,,,52.4653103,13.3831859,
Netto Marken-Discount,,,,,Mo-Sa 07:00-21:00,Netto Marken-Discount,,,,,,yes,,,,,https://www.netto-online.de/filialen/Berlin-Buch/Wiltbergstr-35/5016/,52.6369381,13.4914504,
Netto,,,,,Mo-Sa 07:00-21:00,,,,,,,yes,,,,,,52.6367349,13.4911121,
REWE City,Leipziger Straße,100,10117,Berlin,Mo-Sa 07:00-23:30; Su off,Rewe,,,,,,yes,wlan,,+49 30 20165770,,,52.5105082,13.3907436,
Kaufland,Karl-Marx-Straße,66,12043,Berlin,Mo-Sa 07:00-22:00,Kaufland,,yes,yes,yes,,yes,wlan,,+49306273070,,https://filiale.kaufland.de/service/filiale.storeName=DE7300.html,52.4822154,13.4316168,
Netto Marken-Discount,Sonnenallee,57,12045,Berlin,Mo-Sa 07:00-22:00,Netto Marken-Discount,,,,,,yes,,,,,https://www.netto-online.de/filialen/Berlin-Neukoelln/Sonnenallee-57/7429/,52.4850931,13.4337327,
PENNY,Wilmersdorfer Straße,32-33,10585,Berlin,Mo-Sa 07:00-22:00,Penny,,,,,,yes,,,+49 221 20199959,,https://www.penny.de/,52.5125087,13.3048648,
Aldi,Johannisthaler Chaussee,200,12351,Berlin,Mo-Sa 07:00-21:00,Aldi Nord,,,,,,yes,,,,,https://www.aldi-nord.de/filialen-und-oeffnungszeiten.html/l/berlin/johannisthaler-chaussee-300/3181502,52.4308875,13.4561386,
EDEKA,Buntzelstraße,14,12526,Berlin,Mo-Sa 07:00-21:00,Edeka,,,,,,yes,,,+49-30-67804706,,,52.4088869,13.5719986,
Kaufland,Marktstraße,6,10317,,Mo-Sa 07:00-22:00,Kaufland,,,,,,yes,,,+49 30 5549650,,https://filiale.kaufland.de/,52.504154,13.4729988,
PENNY,Prinzenallee,55-56,13359,Berlin,Mo-Sa 07:00-22:00,Penny,,,,,,yes,,,,,,52.5585627,13.3858039,
Lidl,Kottbusser Straße,16a,10999,Berlin,Mo-Sa 07:00-22:00,Lidl,,,,,,yes,,,,,,52.4968269,13.419876,
Aldi,Königstraße,56/57,14109,Berlin,Mo-Sa 07:00-20:00,Aldi Nord,,,,,,yes,,,+49 201 8593,,https://www.aldi-nord.de/,52.4189357,13.1575422,
Edeka,Barbarossastraße,69,10781,Berlin,Mo-Sa 07:00-21:00,Edeka,,,,,,yes,,,+49 30 2162940,,http://mein.edeka.de/eh/de/minden_hannover/481/m2000,52.4917705,13.3547337,
Lidl,,,,,Mo-Sa 07:00-21:00,Lidl,,,,,,yes,,,,,,52.5619496,13.3656789,
Lidl,Rothenburgstraße,38a,12163,Berlin,Mo-Sa 07:00-21:00,Lidl,,,,,,yes,,,,,,52.458523,13.318817,
Aldi,Mecklenburgische Straße,23A,14197,Berlin,Mo-Sa 07:00-21:00,Aldi Nord,,,yes,yes,,yes,,,,,https://www.aldi-nord.de/,52.4794954,13.3106567,
Kaufland,Brunnenstraße,105-109,13355,Berlin,Mo-Fr 07:00-24:00; Sa 07:00-23:30,Kaufland,,,,,,yes,,,,,https://www.kaufland.de/,52.547982,13.3916155,
EDEKA Heppner,Schloßstraße,98,12163,Berlin,"Mo-Sa 08:00-21:00; Su,PH off",EDEKA,,,,,,yes,,,,,https://www.edeka.de/eh/minden-hannover/edeka-heppner-schlo%C3%9Fstr.-98/index.jsp,52.459073,13.3232009,
Asia-Mexiko Supermarkt,Karl-Marx-Straße,242,12057,Berlin,Mo-Sa 11:00-19:30,,,yes,yes,yes,,no,,,+49 (0)30 684 3186,,,52.4674859,13.4418357,
REWE M. Görlitz-Krüger,Schlangenbader Straße,25,14197,Berlin,Mo-Sa 06:00-22:00,REWE,,,,,,yes,wlan,,+49 30 89702280,,https://www.rewe.de/marktseite/berlin-wilmersdorf/440972/rewe-markt-schlangenbader-str-25/,52.4728082,13.3077983,
REWE City,,,,,Sa 06:00-23:30; Mo-Fr 06:00-24:00,Rewe,,,,,,yes,,,,,,52.4931501,13.3830186,
EDEKA,Yorckstraße,14,,,Mo-Sa 07:00-22:00,Edeka,,,,yes,,limited,,,,,,52.4939285,13.3839687,
Netto Marken-Discount,Frankfurter Allee,57-59,10247,Berlin,Mo-Sa 07:00-22:00,Netto Marken-Discount,,,,,,yes,,,+498002000015,,https://www.netto-online.de/filialen/Berlin-Friedrichshain/Frankfurter-Allee-57-59/4896/,52.5148066,13.4658757,
Lidl,Clayallee,278,14169,Berlin,Mo-Sa 07:00-21:00,Lidl,,,,yes,,yes,wlan,,+49 800 4353361,,https://www.lidl.de,52.4416994,13.2667886,
Denns BioMarkt,Greifswalder Straße,31,10405,Berlin,Mo-Sa 08:00-21:00,Denns BioMarkt,,yes,yes,,,yes,,,,,,52.5325693,13.429371,
,Siemensdamm,43,13629,Berlin,,,,,,,,,,,,,,52.5363843,13.2754091,
EDEKA Brabanski,Fregestraße,6,12159,Berlin,Mo-Sa 07:00-20:00,EDEKA,,yes,yes,,,limited,,,+49 30 8511139,,https://www.edeka.de/eh/minden-hannover/edeka-brabanski-fregestr.-6/index.jsp,52.4713349,13.3371272,
Kaufland,,,,,Mo-Sa 07:00-22:00,Kaufland,,,,,,yes,,,,,https://www.kaufland.de/Home/index.jsp,52.4093176,13.3810307,
Nah & Frisch,Hohenzollerndamm,50a,14199,Berlin,Mo-Sa 08:00-20:00,Nah & Frisch,,,,,,yes,,,,,,52.4876067,13.2990759,
Netto Marken-Discount,,,,,"Mo-Sa 07:00-20:00; Su, PH off",Netto Marken-Discount,,,,,,,,,,,https://www.netto-online.de/filialen/berlin-charlottenburg/halemweg-21-23/5941,52.5374678,13.2864647,
Netto Marken-Discount,Lauterstraße,17,12159,Berlin,Mo-Sa 07:00-22:00,Netto Marken-Discount,,,,,,yes,wlan,,+49 800 2000015,,https://www.netto-online.de/filialen/Berlin-Schoeneberg/Lauterstr-17/7763/,52.4716365,13.3350372,
PENNY,,,,,Mo-Sa 08:00-22:00,Penny,,,,,,yes,,,,,,52.480678,13.4265489,
Aldi,Hauptstraße,9,13055,Berlin,Mo-Sa 07:00-21:00,Aldi Nord,,,,,,yes,,,,,https://www.aldi-nord.de/filialen-und-oeffnungszeiten.html/l/berlin/hauptstrasse-9/3181354,52.5483391,13.5039694,
Aldi,Frankfurter Allee,113-117,10365,Berlin,Mo-Sa 08:00-21:00; PH off,Aldi Nord,,,,,,yes,,,,,,52.5144968,13.4762399,
Kaufland,Frankfurter Allee,113-117,10365,Berlin,Mo-Sa 07:00-22:00; PH off,Kaufland,,,,,,yes,,,,,https://filiale.kaufland.de/service/filiale/berlin-lichtenberg-4033.html,52.5144363,13.4772128,
REWE,Eschengraben,47,13189,Berlin,Mo-Sa 07:00-22:00,Rewe,,,,,,yes,,,,,,52.5565324,13.4245088,
Netto,,,,,Mo-Sa 07:00-21:00,Netto,,,,,,yes,,,,,,52.5565272,13.4241319,
Edeka,Bernauer Straße,69-73,13507,Berlin,Mo-Sa 07:00-22:00,Edeka,,yes,yes,yes,yes,yes,,,+493043743980,,https://www.edeka.de/eh/minden-hannover/edeka-ulrich-bernauer-str.-69-73/index.jsp,52.5752904,13.2837641,
Edeka Center Tempelhof,Tempelhofer Damm,227,12099,Berlin,Mo-Sa 08:00-21:00,EDEKA,,,,,,yes,,,,ecenter.tempelhof@minden.edeka.de,,52.4559449,13.3871535,
REWE City,Wundtstraße,26,14059,Berlin,Mo-Sa 07:00-23:00; PH off,Rewe,,,,,,limited,,,,,,52.5108607,13.2918001,
Bio Company,Dircksenstraße,145-147,10178,Berlin,Mo-Sa 08:00-21:00,Bio Company,,,,,,limited,,,,,,52.523162,13.4041367,
Bolu,Badstraße,59,13357,Berlin,Mo-Sa 08:00-19:45,,,,,,,yes,,,+49 30 46906455,,,52.5507087,13.38406,
Denns BioMarkt,Templiner Straße,12,10119,Berlin,Mo-Sa 08:00-21:00,Denns BioMarkt,,yes,yes,yes,,yes,,,,,,52.5318707,13.4076249,
Eminem Supermarkt,,,,,,,,,,,,yes,,,,,,52.4191394,13.3683653,
Netto Marken-Discount,Rothenbachstraße,2,13089,Berlin,Mo-Sa 07:00-21:00,Netto Marken-Discount,,,,,,yes,,,,,https://www.netto-online.de/filialen/Berlin-Weissensee/Rothenbachstr-28/7627/,52.5693143,13.4372904,
Netto,,,,,Mo-Th 08:00-21:00; Fr-Sa 08:00-22:00,Netto,,,,,,limited,,,,,https://www.netto.de/internet/nettod/stores.nsf/va_lookupforr/06338000,52.5397947,13.2963562,
EDEKA,Heckerdamm,225,13627,Berlin,Mo-Sa 08:00-22:00,EDEKA,,yes,yes,,,yes,,,,,,52.5392837,13.3001834,
Asia Choice,Berliner Allee,51,13088,Berlin,Mo-Sa 09:00-21:00,,,,,,,,,,,,,52.548914,13.4529436,
Netto,,,,,Mo-Sa 07:00-21:00,Netto,,,,,,yes,,,,,,52.6076495,13.43059,
Netto Marken-Discount,Triftstraße,20,13127,Berlin,Mo-Sa 07:00-21:00,Netto Marken-Discount,,,,,,yes,wlan,,,,,52.6106315,13.4313872,
REWE,Ribnitzer Straße,26,13051,Berlin,Mo-Sa 07:00-22:00,Rewe,,,,,,yes,,,+49 30 96204060,,https://www.rewe.de/,52.5696053,13.4948001,
Norma,John-Locke-Straße,,12305,Berlin,Mo-Sa 08:00-21:00,Norma,,,,,,yes,,,,,,52.392013,13.4028107,
Aldi,,,,Berlin,Mo-Sa 07:00-21:00,Aldi Nord,,,,,,yes,,,,,https://www.aldi-nord.de/filialen-und-oeffnungszeiten.html/l/berlin/hasenheide-108/3181808,52.4858985,13.4213275,
Lidl,Wilmersdorfer Straße,126,10627,Berlin,"Mo-Sa 08:00-22:00; Su,PH off",Lidl,,,,,,no,,,,,,52.5096958,13.3059948,
PENNY,Seddiner Straße,8,10315,Berlin,Mo-Sa 07:00-21:00,Penny,,,,,,yes,,,,,,52.5134646,13.5222835,
Lidl,,,,,Mo-Sa 07:00-22:00,Lidl,,,,,,yes,,,,,,52.4809259,13.4387009,
Russia,,,,,Mo-Fr 08:00-19:00; Sa 08:00-17:00,,,,,,,yes,,,,,,52.4379589,13.4468721,
Lidl,Charlottenstraße,1,10969,Berlin,Mo-Sa 07:00-21:00,Lidl,,,,,,yes,,,,,,52.5054126,13.3930804,
EDEKA,Jenaer Straße,27,10717,Berlin,Mo-Sa 07:00-22:00,Edeka,,,,,,limited,,,,,,52.4908116,13.3356896,
Eurogida,Badstraße,9,13357,Berlin,Mo-Sa 08:00-20:00,,,,,,,limited,,,,,http://www.eurogida.de/filialen/#wedding1,52.5501398,13.3859287,
Kaufland,Sewanstraße,4-6,10319,Berlin,Mo-Fr 07:00-24:00; Sa 07:00-23:30,Kaufland,,,,,,yes,,,+49 30 2520000,,https://filiale.kaufland.de/service/filiale/berlin-friedrichsfelde-6740.html,52.4991529,13.4969962,
EDEKA,,,,,Mo-Sa 07:00-20:30,Edeka,,,,,,yes,,,,,https://www.edeka.de/eh/minden-hannover/edeka-berkaer-stra%C3%9Fe-berkaer-str.-1/startseite.jsp,52.4759438,13.2901303,
REWE,Volkradstraße,32,10319,Berlin,"Mo-Sa 07:00-22:00; Su,PH off",Rewe,,,,,,yes,,,+49 30 50018685,,,52.4997073,13.5074501,
Aldi,,,13357,,Mo-Sa 08:00-20:00,Aldi Nord,,,,,,yes,,,,,https://www.aldi-nord.de/,52.5495294,13.3883773,
...nah und gut,,,,,Mo-Sa 08:00-20:00,Edeka,,,,,,limited,,,,,,52.4243206,13.4363341,
EDEKA,Ritterstraße,38-40,10969,Berlin,Mo-Sa 07:00-22:00,Edeka,,,,,,limited,,,,,https://www.edeka.de,52.5035654,13.4036492,
Netto,Greifswalder Straße,90,10409,Berlin,Mo-Sa 08:00-21:00,Netto,,,,,,yes,,,,,https://www.netto.de/,52.5433967,13.4428789,
REWE,Kaiserin-Augusta-Straße,57,12103,Berlin,"Mo-Sa 07:00-22:00; Su,PH off",Rewe,,,,,,yes,,,,,,52.4599635,13.3754022,
Lidl,Warschauer Platz,14,10245,Berlin,"Mo-Sa 07:00-21:00; PH,Su off",Lidl,,,,,,yes,,,,,,52.5049044,13.4499188,
Netto Marken-Discount,Hubertusdamm,64-65,13125,Berlin,Mo-Sa 07:00-22:00; Su off,Netto Marken-Discount,,,,,,yes,,,,,https://www.netto-online.de/filialen/Berlin-Karow/Hubertusdamm-64-65/5052/,52.615282,13.470382,
Kaufland,Hermann-Blankenstein-Straße,38,10249,Berlin,Mo-Fr 07:00-24:00; Sa 07:00-23:30,Kaufland,,yes,yes,yes,,yes,,,,,,52.5236849,13.4616186,
Edeka Reichsstraße,Reichsstraße,94,14052,Berlin,Mo-Sa 07:00-22:00,Edeka,,,,,,yes,,,,,https://www.edeka.de,52.5129578,13.2656846,
Bio Company,Reichsstraße,10,14052,Berlin,"Mo-Sa 08:00-20:00,07:30-20:00 open ""backshop""",Bio Company,,,,,,yes,,,+4930810332620,,https://www.biocompany.de,52.5125406,13.2675793,
Edeka,,,,,Mo-Sa 07:00-20:00,Edeka,,,,,,yes,,,,,,52.5185318,13.2571181,
Edeka Laurman,Steubenplatz,4,14050,Berlin,Mo-Sa 07:00-22:00,Edeka,,,,,,yes,,,,,,52.5169689,13.2615696,
Kaufland,Friedrichshagener Straße,38,12555,Berlin,Mo-Sa 07:00-22:00,Kaufland,,,,,,yes,wlan,,,,https://filiale.kaufland.de/service/filiale/berlin-koepenick-3580.html,52.4529155,13.5867384,
Aldi,Wilskistraße,47b,14169,Berlin,Mo-Sa 07:00-20:00,ALDI Nord,,,,,,yes,,,,,,52.449774,13.2532595,
Nahkauf,Ladenstraße,38-49,14169,Berlin,Mo-Sa 07:00-20:00; Su 08:00-13:00,Nahkauf,,,,,,limited,,,+49 30 88400673,,,52.449943,13.2528091,
Nahkauf,Badensche Straße,56,10825,,Mo-Sa 07:00-22:00,Nahkauf,,,,,,yes,,,,,,52.4854706,13.3408169,
Kaufland,Märkische Allee,"166, 168, 172",12681,Berlin,Mo-Sa 07:00-22:00,Kaufland,,,,,,yes,,,,,,52.5335687,13.5384595,
Netto,,,,,"Mo-Sa 07:00-22:00; Su,PH off",Netto,,,,,,yes,,,,,,52.4910381,13.3170755,
Bulgarische Lebensmittel,,,,,,,,,,,,yes,,,,,,52.5473474,13.2013286,
EDEKA,,,,,Mo-Sa 07:00-22:00,Edeka,,,,,,yes,,,,,,52.5339033,13.195608,
Netto Marken-Discount,Kaulsdorfer Straße,140,12555,Berlin,Mo-Sa 07:00-21:00; PH off,Netto Marken-Discount,,,,,,yes,wlan,,+49 800 2000015,,https://www.netto-online.de/filialen/Berlin-Koepenick/Kaulsdorfer-Str-140/7767/,52.4698833,13.5723599,
Netto Marken-Discount,Oudenarder Straße,14,13347,Berlin,Mo-Sa 07:00-22:00,Netto Marken-Discount,,,,,,yes,,,,,https://www.netto-online.de/filialen/Berlin-Wedding/Oudenarder-Str-14/7625/,52.5536061,13.3607274,
PENNY,,,,,Mo-Sa 07:00-22:00,Penny,,,,,,no,,,,,,52.517743,13.2926291,
REWE,Rheinstraße,14,12159,Berlin,Mo-Sa 06:00-23:30,REWE,,,,,,yes,,,,,https://www.rewe.de/angebote/berlin-friedenau/4040239/rewe-markt-rheinstr-14/,52.469774,13.3330975,
Netto City,Albrecht-Achilles-Straße,52-53,10709,Berlin,Mo-Sa 07:00-21:00,Netto City,,,,,,yes,,,,,https://www.netto-online.de/filialen/Berlin-Wilmersdorf/Albrecht-Achilles-Str-52/5671/,52.4945436,13.3035449,
Edeka,Salzbrunner Straße,18-20,14193,Berlin,Mo-Sa 07:00-21:00,EDEKA,,yes,yes,yes,,yes,,,,,,52.4891517,13.2941908,
Nahkauf,,,,,Mo-Sa 07:00-22:00,Nahkauf,,,,,,limited,,,,,,52.4038231,13.5064629,
REWE,Alt-Rudow,64,12355,,Mo-Sa 06:00-22:00,Rewe,,,,,,yes,,,,,https://www.rewe.de,52.4170906,13.4957148,
Ariston,Meraner Straße,19,10825,Berlin,Mo-Fr 09:00-18:30; Sa 09:00-15:00,,,,yes,yes,,yes,,,,info@ariston-berlin.de,,52.4858428,13.3389328,
Bio Company,Bundesallee,201,10717,Berlin,Mo-Sa 08:00-21:00,Bio Company,,,,,,yes,,,,,,52.4933745,13.3313064,
Nahkauf,Fritschestraße,45-46,10627,Berlin,Mo-Fr 08:00-20:00; Sa 08:00-16:00,Nahkauf,,,,yes,,limited,no,,+49 30 31807325,,,52.5075213,13.3002506,
Bolu,Reinickendorfer Straße,108,13347,Berlin,Mo-Fr 07:00-20:00; Sa 07:00-18:00,,,,,,,limited,,,,,http://www.bolu-berlin.de/,52.545392,13.3690748,
Alezz Market,Reinickendorfer Straße,24,13347,Berlin,,,,,,,,yes,,,,,,52.546125,13.3696247,
Lidl,Reinickendorfer Straße,41,13347,Berlin,Mo-Sa 07:00-21:00; Su off,Lidl,,,,,,yes,,,,,https://www.lidl.de/filialen/berlin-mitte/gesundbrunnen-reinickendorfer-str-41-wiesenstr.html,52.5492959,13.3697076,
EDEKA,,,,,Mo-Sa 06:30-22:00,Edeka,,,,,,yes,,,,,,52.493546,13.3324318,
Edeka Gäth,Steglitzer Damm,24,12169,Berlin,Mo-Sa 07:00-20:00,EDEKA,,,,,,yes,,,+49 30 79744490,,,52.4506573,13.3399913,
Penny Leibnizstraße,Leibnizstraße,23,10625,Berlin,Mo-Sa 07:00-22:00,Penny,,,,,,yes,,,,,,52.5095171,13.3146146,
nah und gut,Leonhardtstraße,22,14057,Berlin,,Edeka,,,,,,limited,,,,,,52.5049147,13.2974596,
Nah und gut,,,,,Mo-Sa 08:00-20:00,Edeka,,,,,,,,,,,,52.5062441,13.2840108,
Netto Marken-Discount,Prenzlauer Promenade,,13089,Berlin,Mo-Sa 07:00-21:00,Netto Marken-Discount,,,,,,yes,,,,,https://www.netto-online.de/filialen/Berlin-Weissensee/Prenzlauer-Promenade-43/7446/,52.5604742,13.4293916,
Bio Company,Rüdesheimer Straße,3,14197,Berlin,Mo-Sa 08:00-20:00,Bio Company,,,,,,yes,,,,,,52.4735715,13.3148363,
nah und gut,Geisbergstraße,22,10777,Berlin,Mo-Sa 08:00-20:00,Edeka,,,,,,yes,,,,,,52.4979503,13.3350954,
Grüner Laden,Bundesratufer,5,10555,Berlin,Mo-Fr 10:00-19:00; Sa 09:00-14:00,,,yes,yes,,,yes,,,,,,52.523,13.3400151,
Tariq Supermarkt,,,,,Mo-Sa 09:30-20:30,,,,,,,no,,,,,,52.5518382,13.382004,
Spice Junction,Bülowstraße,44,10783,Berlin,Mo-Sa 08:00-20:00,,,,,,,yes,,,+49 176 76890523,,,52.4954998,13.3656826,
Rewe,Oberfeldstraße,138,12683,Berlin,Mo-Fr 07:00-24:00; Sa 07:00-23:30; Su off,REWE,,,,,,yes,,,,,,52.5248576,13.5581174,
Edeka Am Brunsi,Brunsbütteler Damm,196,13581,Berlin,"Mo-Sa 07:00-22:00; Su,PH off",Edeka,,,,,,yes,,,,,,52.5338138,13.1676748,
PENNY,Brunsbütteler Damm,196,13581,Berlin,"Mo-Sa 07:00-22:00; Su,PH off",Penny,,,,,,yes,,,,,,52.5340022,13.1677315,
REWE,,,,,Mo-Sa 07:00-22:00,REWE,,,,,,yes,,,+49 30 41727676,,https://www.rewe.de,52.5629309,13.3291819,
REWE,,,,,Mo-Sa 08:00-21:30; Su off; PH off,Rewe,,,,,,yes,,,,,https://www.rewe.de/marktseite/rewe-markt-berlin-alte-potsdamer-str.-7/,52.5064837,13.3737784,
EDEKA Siebert,Hasenheide,57,10967,Berlin,Mo-Sa 07:00-22:00,EDEKA,,yes,yes,yes,,yes,no,,+49 30 69001182,,https://www.edeka.de/eh/minden-hannover/edeka-siebert-hasenheide-57/index.jsp,52.4891694,13.4091957,
EDEKA,Rheinsteinstraße,4-12,10318,Berlin,Mo-Sa 07:00-23:00,Edeka,,,,,,yes,,,,,,52.4827099,13.5274287,
Denns BioMarkt,Oranienstraße,140-142,10969,Berlin,Mo-Sa 08:00-21:00,Denns BioMarkt,,yes,yes,yes,,yes,,,,,,52.5039556,13.4091375,
International Supermarket,Oranienstraße,71,10969,Berlin,Mo-Su 07:00-20:00,,,,,,,limited,,,,,,52.5050124,13.4076816,
Lidl,Schloßstraße,1,12163,Berlin,Mo-Sa 08:00-21:00,Lidl,,,,,,yes,,,,,,52.4649386,13.3258786,
Nahkauf,Celsiusstraße,66,12207,Berlin,Mo-Fr 08:00-20:00; Sa 08:00-17:00,Nahkauf,,,,,,limited,,,,,,52.4115726,13.3121233,
PENNY,Welsestraße,56-58,13057,Berlin,Mo-Sa 07:00-22:00,Penny,,,,,,yes,,,,,,52.5647175,13.5236193,
REWE,Randowstraße,3,13057,Berlin,Mo-Sa 07:00-23:00,Rewe,,,,,,yes,,,+493092377138,,https://www.rewe.de/marktseite/berlin-hohenschoenhausen/4040419/rewe-markt-randowstr-3/,52.5671017,13.5281012,
Netto Marken-Discount,Randowstraße,3,13057,Berlin,Mo-Sa 07:00-22:00,Netto Marken-Discount,,,,,,yes,,,,,https://www.netto-online.de/filialen/Berlin/Randowstr-3/5450/,52.5666263,13.5274422,
REWE,Welsestraße,56-58,13057,Berlin,Mo-Sa 07:00-22:00,Rewe,,,,,,yes,,,,,,52.5649453,13.5233157,
EDEKA P. Erler,Ludolfingerplatz,6,13465,,Mo-Sa 07:00-20:00,Edeka,,,,,,yes,,,,,,52.6328875,13.287041,
EDEKA Colombino,Zeltinger Platz,8,13465,,Mo-Sa 08:00-20:00,Edeka,,,,,,yes,,,,,,52.6329513,13.2907953,
Aldi,Schloßstraße,4-5,12163,Berlin,Mo-Sa 07:00-21:00,Aldi Nord,,,,,,yes,,,,,https://www.aldi-nord.de/filialen-und-oeffnungszeiten.html/l/berlin/schlossstrasse-4-5/3180513,52.4641156,13.3267808,
PENNY,Volkradstraße,32,10319,Berlin,"Mo-Sa 07:00-21:00; Su,PH off",Penny,,,,,,yes,,,,,,52.4996502,13.5077655,
Bioquell,,,,,"Mo,We-Fr 09:00-19:00; Sa 09:00-13:00; Tu 13:00-19:00",,,,,,,no,,,,,,52.5653928,13.4032278,
Bolu,Hermannstraße,201-202,12049,Berlin,Mo-Fr 07:00-20:00; Sa 07:00-18:00,,,yes,yes,yes,,limited,,,+49 (0)30 62728914,,,52.4757954,13.4272973,
PENNY,Reinickendorfer Straße,83,13347,Berlin,Mo-Sa 07:00-22:00,Penny,,yes,yes,yes,,yes,,,,,https://www.penny.de/,52.5497058,13.368043,
Kral Discount,,,,,,,,,,,,yes,,,,,,52.5522643,13.3665842,
REWE,Walther-Schreiber-Platz,1,12161,Berlin,Mo-Sa 08:00-21:00,Rewe,,,,,,yes,,,+49 30 81486745,,https://www.rewe.de/marktseite/berlin-friedenau/4040229/rewe-markt-walther-schreiber-platz-1/,52.4659019,13.3277211,
Kutzner & Kutzner,Schönhauser Allee,65,10437,Berlin,Mo-Sa 08:00-20:00,,,,,,,limited,,,+493044653070,,https://kutzner-kutzner.de/,52.5463248,13.4134748,
Eurogida,Skalitzer Straße,129,10999,Berlin,Mo-Sa 08:00-20:00,,,,,,,,,,+49 30 20097750,,https://www.eurogida.de/filialen/#kreuzberg2,52.4992926,13.4206736,
REWE,Pablo-Neruda-Straße,2-4,12559,Berlin,Mo-Sa 07:00-22:00; PH off,Rewe,,,,,,yes,,,,,,52.4418161,13.5872323,
Bio Company,Bölschestraße,2,12587,Berlin,Mo-Sa 08:00-20:00,Bio Company,,,,,,yes,,,+493032590332,,https://www.biocompany.de/,52.4470689,13.6245399,
NORMA,Quedlinburger Straße,31,12627,Berlin,Mo-Sa 07:00-22:00; PH off,NORMA,,yes,,yes,yes,yes,,,+49 911 23734733,,http://www.norma-online.de/,52.540119,13.6100206,
Alnatura Super Natur Markt,,,,,Mo-Sa 08:00-20:00,Alnatura,,,,,,yes,,,,,,52.5428018,13.4413712,
Asia Markt,Dircksenstraße,102,10178,Berlin,Mo-Sa 09:00-20:00,,,yes,yes,yes,,limited,,,+49-30-8471 2697,,,52.5191809,13.4147953,
PENNY,Grellstraße,75,10409,Berlin,Mo-Sa 07:00-22:00,Penny,,,,,,limited,,,,,https://www.penny.de/,52.5456563,13.4297494,
REWE,Grellstraße,75,10409,Berlin,Mo-Fr 07:00-24:00; Sa 07:00-23:30,Rewe,,,,,,limited,,,,,,52.5452959,13.43009,
NG Markt,Naunynstraße,11,10997,Berlin,Mo-Sa 07:00-20:00,,,yes,yes,yes,,yes,,,,,https://ngmarkt.de/,52.5012843,13.4240213,
Lidl,Kniprodestraße,26a,10407,Berlin,Mo-Sa 07:00-21:00,Lidl,,,,,,yes,,,,,,52.5343355,13.4456503,
Netto Marken-Discount,,,,,Mo-Sa 07:00-21:00,Netto Marken-Discount,,,,,,yes,,,,,https://www.netto-online.de/filialen/Berlin-Blankenburg/Bahnhofstrasse-31-a/5115/,52.5909543,13.4453656,
EDEKA,Hasenheide,107-108,10967,Berlin,Mo-Sa 08:00-21:00,Edeka,,,,,,yes,,,,,,52.4864287,13.4214953,
Bio Company,Chausseestraße,19,10115,Berlin,Mo-Sa 08:00-21:00,Bio Company,,yes,,,,yes,wlan,,,,,52.5301762,13.3838213,
EDEKA,,,,,Mo-Sa 08:00-20:00,EDEKA,,,,,,yes,,,+49 30 7453073,,,52.3928926,13.4203811,
Mein Markt,Karl-Marx-Allee,116,10243,Berlin,"Mo-We, Fr 08:00-20:00; Th, Sa 08:00-18:00",Nahkauf,,,,,,no,,,,,,52.516203,13.4469923,
Netto,Sophie-Charlotten-Straße,25,14059,Berlin,Mo-Sa 07:00-20:00,Netto,,,,,,yes,,,,,,52.5166668,13.2859135,
Netto Marken-Discount,Urbanstraße,122,10967,Berlin,Mo-Sa 07:00-21:00,Netto Marken-Discount,,,,,,yes,,,,,https://www.netto-online.de/filialen/Berlin-Kreuzberg/Urbanstr-122/7764/,52.491318,13.4177006,
Lidl,Leipziger Straße,42,10117,Berlin,Mo-Sa 07:00-22:00,Lidl,,,,,,yes,wlan,,+498004353361,,https://www.lidl.de/filialen/berlin-mitte/mitte-leipziger-str-45b.html,52.5104276,13.3950162,
Asia-Mekong,Henriette-Herz-Platz,1,10178,Berlin,"Mo-Sa 10:00-20:00; Su,PH off",,,yes,yes,,,limited,,,,,http://www.asia-mekong.de/,52.5220546,13.4011035,
Aldi,Streitstraße,5-19,13587,Berlin,"Mo-Sa 07:00-21:00; Su,PH off",Aldi Nord,,,,,,yes,,,,,https://www.aldi-nord.de/,52.5575599,13.209115,
Lidl,Mühlenstraße,2,14167,Berlin,"Mo-Sa 07:00-21:00; PH,Su off",Lidl,,,,,,yes,,,,,,52.4294767,13.2603047,
Aldi,Karl-Marx-Straße,,12055,Berlin,Mo-Sa 07:00-21:00,Aldi Nord,,,,,,yes,,,,,https://www.aldi-nord.de/,52.4687326,13.4444074,
Edeka,Stephanstraße,37-43,10559,Berlin,Mo-Sa 07:00-22:00,Edeka,,,,,,yes,wlan,,,,https://www.edeka.de/,52.5319137,13.3444505,
Lidl,,,,,Mo-Sa 07:00-21:00,Lidl,,,,,,yes,,,,,,52.5525558,13.4214016,
Kiezmarkt,Weidenweg,56,10247,Berlin,Mo-Sa 08:00-22:00,,,,,,,limited,,,+49 30 42016707,,,52.5188322,13.4543654,
Timi Asia Supermarkt,Kieler Straße,4,12163,Berlin,Mo-Fr 09:00-20:00; Sa 09:00-20:00,,asian,,,,,no,,,,,,52.4584693,13.3238971,
EDEKA,,,,,,Edeka,,,,,,yes,,,,,,52.5469822,13.1862505,
Aldi,Hildburghauser Straße,3,12279,,Mo-Sa 07:00-20:00,ALDI Nord,,,,,,yes,,,,,https://www.aldi-nord.de/filialen-und-oeffnungszeiten.html/l/berlin/hildburghauser-strasse-3/3180755,52.4123187,13.3606387,
Aldi,Landsberger Allee,277,13055,Berlin,Mo-Sa 07:00-20:00,Aldi Nord,,,,,,yes,,,,,,52.534814,13.4968487,
Netto Marken-Discount,,,10967,,Mo-Sa 07:00-22:00,Netto Marken-Discount,,,,,,yes,,,,,https://www.netto-online.de/filialen/Berlin-Kreuzberg/Kottbusser-Damm-1/7761/,52.4954436,13.4199628,
nah und gut,Kreuznacher Straße,68,14197,Berlin,Mo-Sa 08:00-20:00,Edeka,,,,,,yes,,,,,,52.4673513,13.3109506,
Netto Marken-Discount,,,,,Mo-Sa 07:00-22:00,Netto Marken-Discount,,,,,,yes,,,,,https://www.netto-online.de/filialen/Berlin-Hohenschoenhausen/Landsberger-Allee-217-k/7546/,52.5344474,13.4879509,
Kaufland,Am Juliusturm,42-46,13599,Berlin,Mo-Fr 07:00-24:00; Sa 07:00-23:30,Kaufland,,,,,,yes,,,,,,52.5377219,13.2186317,
Nahkauf,Dessauerstraße,64,12249,Berlin,"Mo-Sa 07:00-20:00; PH,Su off",Nahkauf,,,,,,yes,,,,,,52.4292607,13.346614,
Bio Company,Teltower Damm,13,14169,Berlin,"Mo-Sa 08:00-20:00; PH,Su off",Bio Company,,,,,,yes,,,,,,52.4336816,13.2600711,
REWE,Helene-Weigel-Platz,1,12681,Berlin,Mo-Sa 07:00-22:00; PH off,REWE,,,,,,yes,,,,,https://www.rewe.de/,52.5274856,13.5383825,
EDEKA,Frankfurter Allee,105,10247,Berlin,Mo-Sa 08:00-21:00; PH off,Edeka,,,,,,yes,,,,,,52.5144935,13.4737376,
REWE,Chausseestraße,118-120,10115,Berlin,Mo-Sa 07:00-23:00,Rewe,,,,,,yes,wlan,,,,https://www.rewe.de/marktseite/berlin-mitte/1350032/rewe-markt-chausseestr-118-120/,52.5295638,13.3839754,
Denns BioMarkt,Schliemannstraße,48,10437,Berlin,Mo-Sa 08:00-21:00,Denns BioMarkt,,yes,yes,yes,,yes,,,,,,52.5407418,13.4163913,
REWE,Rollbergstraße,59,12053,Berlin,Mo-Fr 06:00-24:00; Sa 06:00-23:30; PH off,Rewe,,,,,,yes,,,,,,52.4785578,13.4297779,
PENNY,,,,,Mo-Sa 07:00-22:00,Penny,,,,,,yes,,,,,,52.5813965,13.4017946,
Netto Marken-Discount,Schönhauser Allee,78,10439,Berlin,Mo-Sa 08:00-22:00,Netto Marken-Discount,,,,,,yes,,,,,https://www.netto-online.de/filialen/Berlin-Prenzlauer-Berg/Schoenhauser-Allee-78/7513/,52.5498396,13.414376,
REWE City,Greifswalder Straße,155A,,,Mo-Sa 06:00-22:00,Rewe,,yes,yes,yes,,yes,wlan,,,,,52.5436744,13.4412596,
Aldi,,,,,closed,Aldi Nord,,,,,,yes,no,,,,,52.5643169,13.3668064,
Nah und Gut,Werner-Voß-Damm,37,12101,Berlin,Mo-Fr 07:00-20:00; Sa 07:00-16:00,EDEKA,,,,,,no,,,,,,52.4743292,13.3716214,
Denns BioMarkt,Grolmanstraße,48,10623,Berlin,Mo-Sa 08:00-21:00,Denns BioMarkt,,,,,,yes,,,+49 30 30831710,,,52.5050178,13.3233806,
EDEKA Yaras,Mariendorfer Damm,186,12107,Berlin,"Mo-Sa 07:00-22:00; PH,Su off",Edeka,,,,,,yes,,,,,,52.4349946,13.3891249,
Lidl,Luisenstraße,52,10117,Berlin,Mo-Sa 07:00-21:00,Lidl,,,,,,yes,,,,,https://www.lidl.de/filialen/berlin-mitte/mitte-luisenstr-52.html,52.5244433,13.3795237,
Phung,,,,,Mo-Fr 07:30-19:00; Sa 07:30-16:00,,,,,,,limited,,,,,,52.4913551,13.3494294,
Mini Spar,,,,,Mo-Sa 08:00-21:00,,,,,,,no,,,,,,52.4937046,13.4371652,
REWE,Buckower Damm,50,12349,Berlin,"Mo-Fr 07:00-24:00; Sa 07:00-23:30; Su,PH off",REWE,,,,,,yes,,,,,,52.4399784,13.4341127,
Denns BioMarkt,,,,,Mo-Sa 08:00-21:00,Denns BioMarkt,,,,,,yes,,,,,,52.4857356,13.4214749,
REWE,Otto-Suhr-Allee,80-82,10585,Berlin,"Mo-Sa 07:00-22:00; Su,PH off",Rewe,,,,,,yes,,,,,,52.5166007,13.3101619,
SuperCoop,Oudenarder Straße,16,13347,Berlin,Mo-Sa 09:00-20:00,,,,yes,,,yes,wlan,,,,,52.5533553,13.358475,
PENNY,Müllerstraße,40,13353,Berlin,Mo-Sa 08:00-21:00,Penny,,,,,,yes,,,,,https://www.penny.de/,52.5500887,13.3533095,
Eurogida,Albrechtstraße,19,12167,Berlin,Mo-Sa 08:00-20:00,,,,,,,yes,,,+49 30 70 09 64 10,,https://www.eurogida.de/filialen,52.4544826,13.3273923,
REWE,,,,,Mo-Sa 07:00-22:00,Rewe,,,,,,yes,,,,,,52.5844268,13.2852155,
LPG BioMarkt,Kollwitzstraße,17,10405,Berlin,Mo-Sa 08:00-21:00,LPG BioMarkt,,,,,,yes,no,,+49 30 322971400,,,52.5327995,13.4137041,
Asia Supermarkt,,,,,Mo-Sa 08:00-20:00,,,,,,,yes,,,,,,52.5065392,13.2926335,
Nazar Market,Wilmersdorfer Straße,132,10627,Berlin,,,,no,no,,,no,,,,,,52.510727,13.3056473,
Bio Company,Bundesallee,104–105,12161,Berlin,Mo-Sa 08:00-20:00; PH off,Bio Company,,,,yes,,yes,,,,,https://www.biocompany.de/bio-company-markt-finden/l/berlin/bundesallee-104-105/2941675,52.4655619,13.3286246,
Radhaa,,,,,Mo-Sa 10:00-20:00,,african; asian; indian,,,,,limited,,,,,,52.4872439,13.427558,
Bereket Market,Hermannstraße,166,12051,Berlin,Mo-Sa 08:00-19:30,,,,,,,yes,,,+49 30 622883,,http://bereketmarket-berlin.de,52.4696138,13.4303727,
Bio Company,Voigtstraße,38,10247,Berlin,Mo-Sa 08:00-21:00,Bio Company,,,,,,yes,,,,,,52.5160394,13.4679239,
City Supermarkt,Krausenstraße,11,10117,Berlin,Mo-Fr 08:00-23:00; Sa 10:00-23:00,,,yes,yes,,,limited,,,,,,52.5094113,13.391561,
Eurogida,,,,,Mo-Sa 07:00-20:00,,,,,,,yes,,,,,,52.5383903,13.2072817,
REWE,Skalitzer Straße,134,10999,Berlin,Mo-Fr 07:00-00:00; Sa 07:00-23:30,Rewe,,,,,,yes,wlan,,+493061709073,,https://www.rewe.de/marktseite/berlin-kreuzberg/1931140/rewe-markt-skalitzer-str-134/,52.4994272,13.4187092,
Go Asia,,,,,Mo-Su 09:00-22:00,Go Asia,,yes,yes,yes,,yes,,,+ 49 30 76887575,,https://goasia.net/de/store_list/berlin-friedrichstrasse,52.5214186,13.387769,
REWE City,Friedrichstraße,100,10117,Berlin,Mo-Sa 07:00-23:30,Rewe,,yes,yes,yes,,yes,,,,,,52.5205382,13.3886757,
LPG BioMarkt,Hauptstraße,78,12159,Berlin,Mo-Sa 08:00-21:00,LPG BioMarkt,,,,,,yes,,,+49 30 55651008,,http://www.lpg-naturkost.de,52.4731384,13.3368295,
Netto,Wittenberger Straße,76-80,12689,Berlin,Mo-Sa 08:00-20:00,Netto,,,,,,yes,,,,,,52.5651696,13.5710175,
Edeka Fromm,Müllerstraße,127,13349,Berlin,Mo-Sa 08:00-22:00,Edeka,,,,,,yes,,,,,,52.5526675,13.3476614,
Centro Italia,Großbeerenstraße,171,,Berlin,Mo-Fr 09:00-18:30; Sa 09:00-14:00,,,yes,yes,yes,,yes,,,+49 30 7411018,,https://centro-italia.de/supermaerkte-italienische-lebensmittel/,52.4283842,13.3773195,
Netto,,,,,"Mo-We 08:00-20:00, Th-Sa 08:00-21:00",Netto,,,,,,yes,,,,,,52.5664899,13.3461341,
nahcity Duong,Greifswalder Straße,119,10405,Berlin,"Mo-Fr 08:00-20:00; Sa 08:00-20:30; Su, PH off",Nahkauf,,,,,,yes,,,,,,52.536064,13.4324034,
Kauf Markt,Torstraße,169-171,,,24/7,,,yes,yes,,,limited,,,,,,52.5290342,13.3952307,
REWE,Schloßstraße,34-36 / Grunewaldstraße 1-3,12163,Berlin,"Mo-Sa 08:00-20:00; PH,Su off",REWE,,,,,,yes,,,,,,52.4576732,13.3208595,
nah und gut,Rohrdamm,,13629,Berlin,,Edeka,,,,,,yes,,,,,,52.5414602,13.2618045,
Afghan Zamin Supermarkt,Hauptstraße,114-115,10827,Berlin,,,,,,,,yes,,,,,,52.482083,13.3491516,
Nahkauf,,,,,Mo-Fr 07:00-21:00; Sa 08:00-21:00,Nahkauf,,,,,,yes,,,,,,52.4979408,13.4438854,
EDEKA Kiemarkt,Torstraße,206,10115,Berlin,Mo-Sa 08:00-22:00,Edeka,,,,,,limited,,,,,,52.5278268,13.3917759,
...nah und gut,Ehrenfelder Platz,3,12524,Berlin,Mo-Fr 08:00-20:00; Sa 08:00-16:00,Edeka,,,,,,yes,,,+49 30 67909300,,,52.4018551,13.54297,
PENNY,,,,,Mo-Sa 07:00-22:00,Penny,,,,,,yes,,,,,,52.4951473,13.4284148,
Denns BioMarkt,Hermann-Hesse-Straße,4,13156,Berlin,Mo-Sa 08:00-21:00,Denns BioMarkt,,,,,,yes,,,,,,52.5809357,13.4027152,
Wurzelwerk Bioladen,Oderstraße,10,10247,Berlin,Sa 09:00-15:00; Mo-Fr 09:00-19:30,,,,,,,yes,,,,,,52.5113295,13.4680466,
Wurzelwerk Bioladen,Kaskelstraße,16,10317,Berlin,Mo-Fr 09:30-19:30; Sa 09:30-14:30,,,no,no,,,limited,,,,,,52.5047115,13.477134,
REWE City,Rheinstraße,30,12161,Berlin,Mo-Sa 06:00-22:00,Rewe,,,,,,yes,,,,,,52.467044,13.3299032,
Bio Company,Boxhagener Straße,73,10245,Berlin,"Mo-Sa 08:00-21:00; Su,PH off",Bio Company,,yes,yes,yes,,yes,,,,,,52.5069507,13.468918,
REWE,Hauptstraße,70,13127,Berlin,Mo-Sa 07:00-22:00,REWE,,,,,,yes,,,,,,52.6039283,13.4324718,
REWE,Karl-Marx-Straße,92-98,12043,Berlin,Mo-Fr 07:00-24:00; Sa 07:00-23:30,Rewe,,,,,,yes,,,,,,52.4798626,13.4357683,
Aldi,Karl-Marx-Straße,92-98,12043,Berlin,Mo-Sa 07:00-21:00,Aldi Nord,,,,,,yes,,,,,,52.4797665,13.4362242,
Lidl,Märkische Allee,140A,12681,Berlin,Mo-Sa 07:00-21:00,Lidl,,,,,,yes,,,,,,52.5309093,13.5372987,
EDEKA Friedrich,Hellersdorfer Straße,83,12619,Berlin,Mo-Sa 07:00-21:00; PH off,EDEKA,,,,,,yes,,,+49 30 56292930,,https://www.edeka.de/eh/minden-hannover/edeka-friedrich-hellersdorfer-str.-83/index.jsp,52.5232644,13.5867296,
miniladen,,,,,Mo-Fr 08:00-19:30; Sa 08:30-17:30,,,,,,,no,,,,,,52.5488448,13.4092108,
Natur Pur,Frankfurter Allee,231,10365,Berlin,Mo-Fr 10:00-18:00; Sa 09:30-14:00,,,,,,,no,,,,,https://naturpurberlin.de/,52.5122262,13.495272,
REWE,,,10439,,Mo-Sa 08:00-22:00,Rewe,,yes,yes,yes,,yes,,,+49 30 346494100,,https://www.rewe.de/marktseite/berlin/8547534/rewe-markt-schoenhauser-allee-80,52.5493785,13.4161791,
HIT,Anton-Wilhelm-Amo-Straße,69,10117,Berlin,Mo-Fr 08:00-22:00; Sa 07:30-22:00,HIT,,yes,,,,yes,wlan,,,,,52.5117711,13.3839109,
Grüne Geiß,Allee der Kosmonauten,151,12685,Berlin,,,,,,,,yes,,,,,http://gruenegeiss.com,52.5345492,13.5513842,
Biomarkt Viverte,Glarner Straße,62,12205,Berlin,Mo-Sa 08:00-20:00,,,,,,,limited,,,,,,52.4271339,13.3027848,
Penny,Steglitzer Damm,20,12169,Berlin,Mo-Sa 07:00-22:00,Penny,,,,,,yes,,,,,,52.4507291,13.3393904,
EDEKA,,,12629,,Mo-Sa 07:00-21:00; PH off,EDEKA,,,,,,yes,,,,,,52.5383977,13.5901733,
Bio Company,,,,,Mo-Sa 08:00-21:00,Bio Company,,,,,,yes,,,,,,52.4935036,13.4220871,
Aldi,,,,,Mo-Sa 07:00-21:00,Aldi Nord,,,,,,yes,,,,,,52.4732677,13.290462,
Eurogida,,,,,Mo-Sa 07:00-20:00,,,,,,,yes,,,,,,52.5482851,13.3563325,
Aldi,Alexander-Meißner-Straße,1,12526,Berlin,Mo-Sa 07:00-21:00,Aldi Nord,,,,,,yes,,,+49 800 7234870,,https://www.aldi-nord.de/filialen-und-oeffnungszeiten.html/l/berlin/alexander-meissner-strasse-1/3182801,52.3972377,13.5415199,
Denns BioMarkt,,,,,Mo-Sa 08:00-20:00,Denns BioMarkt,,,,,,yes,,,,,,52.6110395,13.3179908,
REWE City,Bismarckstraße,68-69,12157,Berlin,Mo-Sa 06:00-22:00,REWE,,yes,,yes,,yes,,,+49 30 79785494,,https://www.rewe.de/marktseite/berlin-steglitz/4040012/rewe-markt-bismarckstr-68-69/,52.4617585,13.3396427,
Bio Company,,,,,Mo-Sa 08:00-21:00,Bio Company,,,,,,yes,,,,,,52.484614,13.433672,
Baskent,Föhrer Straße,13,,,,,,,,,,,,,,,,52.5417248,13.3496751,
Netto Marken-Discount,Alemannenstraße,40,14129,Berlin,Mo-Sa 07:00-21:00,Netto Marken-Discount,,,yes,yes,,yes,,,,,https://www.netto-online.de/filialen/Berlin-Nikolassee/Alemannenstr-40/5308/,52.4296195,13.1930625,
EDEKA Stadie,Flankenschanze,32,13585,Berlin,Mo-Sa 07:00-21:00,Edeka,,,,,,yes,,,,,,52.5425148,13.197201,
Nahkauf,,,,,Mo-Sa 07:00-22:00,Nahkauf,,,,,,,,,,,,52.5768477,13.2781392,
Nahkauf,,,,,Mo-Fr 08:00-20:00; Sa 08:00-16:00,Nahkauf,,,,,,yes,,,+493070093672,,https://www.nahkauf.de/maerkte/berlin-42612416-thi-thanh-thao-nguyen-gersdorfer-str-40,52.4466275,13.371653,
Netto Marken-Discount,Hermannstraße,158a,12051,Berlin,Mo-Sa 08:00-22:00,Netto Marken-Discount,,,,,,yes,,,,,,52.4674769,13.4331094,
Ledo,Heerstraße,,14052,Berlin,Mo-Sa 09:00-20:00,,,,,,,yes,,,,,https://www.ledo-supermarkt.de/,52.5095102,13.2704127,
Intermarkt,Kienhorststraße,156,13403,Berlin,Mo-Sa 08:00-20:00,,,,,,,,,,,,,52.5747487,13.3146512,
Bio Company,Prenzlauer Allee,180,10405,Berlin,Mo-Sa 08:00-21:00,Bio Company,,,,,,yes,,,,,,52.5440207,13.4265698,
Netto City,Kurfürstenstraße,75,10787,Berlin,Mo-Fr 07:00-21:00; Mo-Sa 07:00-21:00,Netto City,,,,,,limited,,,,,https://www.netto-online.de/filialen/Berlin-Tiergarten/Kurfuerstenstr-75/7788/,52.503656,13.348668,
Edeka M. Fiebig,Kottbusser Damm,80,10967,Berlin,Mo-Sa 08:00-20:00,Edeka,,,,,,yes,,,+49306937139,,https://www.edeka.de/eh/minden-hannover/edeka-fiebig-kottbusser-damm-80/,52.4916049,13.4232761,
Rewe City,John-Schehr-Straße,20-24,10407,Berlin,Mo-Sa 07:00-22:00,Rewe,,,,,,yes,,,,,,52.5363423,13.4366983,
REWE,Hermannstraße,158a,12051,Berlin,Sa 08:00-23:30; Mo-Fr 08:00-00:00,Rewe,,,,,,yes,,,,,,52.4674138,13.4330094,
PENNY,Prenzlauer Allee,181,10405,Berlin,Mo-Sa 07:00-22:00,Penny,,,,,,no,,,,,,52.5437308,13.4264854,
EDEKA,Gartenfelder Straße,86,13599,Berlin,Mo-Sa 07:00-22:00,Edeka,,yes,,yes,,yes,,,,,,52.5434199,13.2406593,
Aldi,Heinrich-Heine-Platz,8-12,10179,Berlin,Mo-Sa 07:00-21:00,Aldi Nord,,,,,,yes,,,,,https://www.aldi-nord.de/filialen-und-oeffnungszeiten.html/l/berlin/heinrich-heine-platz-8-12/3181472,52.5065406,13.4162889,
Denns BioMarkt,Annenstraße,48,10179,Berlin,Mo-Sa 08:00-21:00,Denns BioMarkt,,yes,yes,yes,,yes,,,,,,52.5076492,13.4144581,
Go Asia,Alexanderplatz,8,10178,Berlin,Mo-Sa 09:00-22:00,Go Asia,,,,yes,,yes,,,+49 30 394 805 77,,https://goasia.net/de/store_list/berlin-alexanderplatz,52.5227661,13.4123665,
Nahkauf,Görresstraße,3,12161,Berlin,Mo-Sa 08:00-20:00,Nahkauf,,,,,,yes,,,,,,52.4734406,13.3275613,
Aldi,Prager Platz,2a,10779,Berlin,Mo-Sa 07:00-21:00,Aldi Nord,,,,,,yes,,,,,,52.4936482,13.3322422,
Penny,,,,,Mo-Sa 07:00-22:00,Penny,,,,,,yes,,,,,,52.4476974,13.3054039,
EDEKA,Hauptstraße,23,13158,Berlin,Mo-Sa 07:00-20:00,Edeka,,,,,,yes,,,,,,52.5865177,13.368014,
REWE,Kastanienallee,38,13158,Berlin,Mo-Sa 06:00-22:00,Rewe,,,,,,yes,wlan,,,,,52.5918344,13.3825893,
Asiamarkt,Friedrichstraße,10,10969,Berlin,Mo-Fr 10:00-18:00; Sa 10:00-14:00,,,,,,,yes,,,,,,52.501211,13.3916005,
Lekr,,,,,,,,,,,,no,,,,,,52.5311942,13.4331435,
Netto Marken-Discount,Egon-Erwin-Kisch-Straße,90,13059,Berlin,Mo-Sa 07:00-21:00,Netto Marken-Discount,,,,,,yes,,,,,https://www.netto-online.de/filialen/Berlin-Hohenschoenhausen/Egon-Erwin-Kisch-Str-90/7462/,52.5682048,13.5110287,
PENNY,Rostocker Straße,1,13059,Berlin,Mo-Sa 07:00-22:00,Penny,,,,,,yes,,,,,,52.5748726,13.5086192,
REWE,Ernst-Barlach-Straße,19,13059,Berlin,Mo-Sa 07:00-22:00,Rewe,,,,,,yes,,,,,,52.5749522,13.5096346,
EDEKA,Kolonnenstraße,10,10829,Berlin,Mo-Sa 08:00-18:00,Edeka,,,,,,yes,,,,,https://nah-und-gut-fischer.de/,52.485689,13.3617579,
nah und gut,Urbanstraße,183,10961,Berlin,Mo-Fr 07:00-21:00; Sa 08:00-21:00,EDEKA,,yes,yes,yes,,limited,,,,,,52.4945279,13.4005487,
Lidl,Knesebeckstraße,38,10719,Berlin,Mo-Sa 07:30-22:00,Lidl,,,,,,yes,,,,,,52.5007022,13.3213671,
Netto City,Pariser Straße,41,10707,Berlin,Mo-Sa 07:00-21:00,Netto City,,,,,,limited,,,,,https://www.netto-online.de/filialen/Berlin-Wilmersdorf/Pariser-Str-41/7783/,52.4981147,13.318263,
Azzam Supermarket,Sonnenallee,55,,,Mo-Sa 08:00-22:00,,,,,,,yes,,,,,,52.4852287,13.4332232,
EDEKA,Otto-Suhr-Allee,105,10585,Berlin,Mo-Sa 07:00-22:00,Edeka,,,,,,yes,,,,,,52.5169837,13.30707,
Kaufland,Karl-Marx-Straße,231-235,12055,Berlin,Mo-Sa 08:00-22:00; Su off,Kaufland,,,,,,yes,,,,,,52.4686658,13.4432574,
Nahkauf,Hirtsieferzeile,42-43,12351,Berlin,Mo-Sa 08:00-20:00,Nahkauf,,,,,,yes,,,+493061794522,,https://nahkauf.de/maerkte/berlin-42612377-hoang-tung-le-hirtsieferzeile-42-43,52.4311649,13.4696242,
EDEKA,,,,,Mo-Sa 07:00-21:00,Edeka,,,,,,yes,,,,,https://www.edeka.de/eh/minden-hannover/edeka-hennig-kollwitzstr.-68/index.jsp,52.5362791,13.4183615,
LPG BioMarkt,Kaiserdamm,12,14057,Berlin,Mo-Sa 09:00-20:00; PH off,LPG BioMarkt,,,,,,yes,,,,,,52.5107494,13.2896421,
Denns BioMarkt,Hauptstraße,11,10827,Berlin,Mo-Sa 08:00-21:00,Denns BioMarkt,,,,,,yes,,,+493076765320,,,52.4885102,13.3581546,
Lidl,Zeughofstraße,23A,10997,Berlin,Mo-Sa 07:00-22:00,Lidl,,,,,,yes,wlan,,,,,52.5007114,13.4347352,
Aldi,Joachim-Gottschalk-Weg,5,12353,Berlin,Mo-Sa 07:00-21:00,Aldi Nord,,,,,,yes,,,,,https://www.aldi-nord.de/filialen-und-oeffnungszeiten.html/l/berlin/joachim-gottschalk-weg-5/3182646,52.4230711,13.4763895,
EDEKA,Joachim-Gottschalk-Weg,23,12353,Berlin,Mo-Sa 07:00-22:00,Edeka,,,,,,yes,,,,,,52.4229979,13.4762316,
Edeka Brehm City,,,,,Mo-Sa 08:00-20:00,Edeka,,,,,,yes,,,,,,52.4945118,13.4208245,
PENNY,Brunnenstraße,75,13355,Berlin,Mo-Sa 07:00-22:00,Penny,,,,,,yes,,,,,,52.5423742,13.3932909,
Penny,Hellersdorfer Straße,77-83,12619,Berlin,"Mo-Fr 07:00-20:00; Sa 07:00-16:00; Su,PH off",Penny,,,,,,no,no,,,,https://www.penny.de,52.5213904,13.5872079,
EDEKA,Clayallee,330,14169,Berlin,Mo-Sa 07:00-22:00,Edeka,,,,yes,,yes,,,,,,52.4378334,13.2626638,
EDEKA,Rigaer Straße,44,10247,Berlin,Mo-Sa 07:00-23:00,Edeka,,,,,,yes,,,030 41723680,,,52.515536,13.468728,
EDEKA Wilmersdorfer Straße,Wilmersdorfer Straße,,10627,Berlin,"Mo-Sa 09:00-22:00; Su,PH off",Edeka,,,,,,yes,,,,,,52.5097406,13.305296,
Gneisenau Markt,Gneisenaustraße,84,10961,Berlin,Mo-Fr 07:00-20:00; Sa 08:00-21:00,Edeka,,,,,,yes,,,+49 30 6936126,,https://www.edeka.de/,52.4914049,13.3967142,
aima Supermarkt,,,,,,,,,,,,,,,,,,52.4296472,13.4655246,
REWE,Schönhauser Allee,36-39,10435,Berlin,Mo-Fr 07:00-00:00; Sa 07:00-23:00; PH off,Rewe,,yes,yes,yes,,yes,wlan,,,,,52.5387764,13.4127688,
Edeka Schmitt,,1,13187,Berlin,Mo-Sa 06:00-23:00,Edeka,,,,,,yes,,,,,,52.5671908,13.4105009,
LPG BioMarkt,Bouchéstraße,12,12435,Berlin,Mo-Sa 08:00-21:00,LPG BioMarkt,,yes,yes,yes,,yes,wlan,,+4930439739150,,,52.4921598,13.4510857,
Alnatura Super Natur Markt,Alte Jakobstraße,79-80,10179,Berlin,Mo-Fr 07:30-20:00; Sa 08:00-20:00; PH off,Alnatura,,,,,,yes,wlan,,,,,52.5101946,13.408035,
nah und gut,Düsseldorfer Straße,74,10719,Berlin,Mo-Fr 08:00-20:00; Sa 08:00-18:00,Edeka,,,,,,yes,,,,,,52.4950862,13.3235476,
Dr. Pogo,Karl-Marx-Platz,24,12043,Berlin,"Mo,Tu,Th,Fr 09:00-20:00; We 12:00-20:00; Sa 09:00-16:00; Su,PH off",,,,,,,limited,,,,kontakt@veganladen-kollektiv.net,,52.4739742,13.443147,
Denns BioMarkt,Kaiserdamm,112,14057,Berlin,Mo-Sa 08:00-21:00,Denns BioMarkt,,,,,,yes,,,,,,52.5104649,13.2932481,
REWE voll pflanzlich,Warschauer Straße,33,10243,Berlin,Mo-Sa 07:00-22:00,Rewe,,yes,yes,yes,yes,yes,wlan,,,,,52.5077097,13.4499426,
REWE,Mehrower Allee,20,12687,Berlin,Mo-Sa 07:00-22:00,Rewe,,,,,,yes,,,,,,52.5557728,13.5584686,
REWE City,Angerburger Allee,45,14055,Berlin,"Mo-Sa 07:00-22:00; Su,PH off",REWE,,,,,,yes,,,,,,52.5093116,13.2223259,
Lidl,Blankenburger Chaussee,10,13125,Berlin,Mo-Sa 07:00-21:00; Su off,Lidl,,,,,,yes,,,+49 800 4353361,,https://www.lidl.de/filialen/berlin-pankow/karow-blankenburger-chaussee-10.html,52.6079352,13.4780321,
Denns BioMarkt,Clayallee,177,14195,Berlin,Mo-Sa 08:00-20:00,Denns BioMarkt,,,,,,yes,,,,,,52.4512862,13.2700949,
Denns BioMarkt,,,,,Mo-Sa 09:00-21:00,Denns BioMarkt,,,,,,yes,,,,,,52.5340278,13.1960288,
Mały Książę,Lilienthalstraße,6,,Berlin,,,,,,,,no,,,,,,52.4880408,13.4075593,
Eurogida,Tempelhofer Damm,2,12101,Berlin,Mo-Sa 08:00-20:00; PH closed,,,yes,yes,yes,,yes,,,,,,52.4841209,13.3853942,
Düzgün,,,,,Mo-Sa 08:00-20:00,,,,,,,no,,,,,,52.4781117,13.4478681,
EDEKA Meissner an der Nolle,Nollendorfplatz,8-9,10777,Berlin,"Mo-Fr 06:00-24:00; Sa 06:00-23:30; PH-1 day 06:00-23:30; Su,PH off",Edeka,,,,yes,yes,yes,,,+49 30 21751895,,https://www.edeka.de/eh/minden-hannover/edeka-meissner-nollendorfplatz-8-9/,52.4989336,13.3545583,
Bolu,Kottbusser Damm,75,10967,Berlin,Mo-Fr 07:00-20:00; Sa 07:00-18:00,,,,,,,limited,,,,,http://www.bolu-lebensmittel.de/,52.4904265,13.4239981,
Alnatura Super Natur Markt,Giesebrechtstraße,4,10629,Berlin,Mo-Sa 07:30-21:00; PH off,Alnatura,,,,,,yes,,,,,https://www.alnatura.de/de-de/alnatura-maerkte/alnatura-filialen-detailseiten/b/berlin-alnatura-super-natur-markt-b085,52.5022111,13.3091666,
Eurogida,Wrangelstraße,85,10997,Berlin,Mo-Sa 08:30-20:00,,,,,,,limited,,,,,,52.4989417,13.4413763,
Rewe,Hubertusdamm,56,13125,Berlin,Mo-Sa 07:00-22:00; PH off,Rewe,,,,,,yes,,,+49 30 94393679,,,52.6164939,13.4716787,
Go Asia,Kantstraße,10,10627,Berlin,Mo-Sa 09:00-21:00,Go Asia,,,,,,limited,,,,,https://goasia.net/filiale-berlin-kantstr/,52.5065737,13.3027807,
Elmas Market,Stuttgarter Platz,11,10627,Berlin,,,,,,,,yes,,,,,,52.5057107,13.303342,
EDEKA,Blissestraße,36,10713,Berlin,Mo-Fr 08:00-20:00; Sa 08:00-18:00,EDEKA,,,,,,yes,,,,,,52.4820455,13.3198796,
EDEKA Jost,Kantstraße,24,10623,Berlin,Mo-Fr 07:30-20:00; Sa 07:00-20:00,Edeka,,yes,yes,yes,,yes,wlan,,,,,52.5061041,13.3203142,
EDEKA,Danckelmannstraße,57-60,14059,Berlin,Mo-Sa 07:00-22:00,Edeka,,,,,,limited,,,,,,52.5176758,13.290531,
FrischeParadies,Morsestraße,2,10587,Berlin,"Mo-Fr 08:00-20:00; Sa 08:00-18:00; Su,PH off",,,,,,,yes,,,,,,52.5216418,13.3213662,
Netto,Belforter Straße,20,10405,Berlin,Mo-Sa 07:00-21:00,Netto,,,,,,yes,,,,,,52.5321413,13.4195614,
Denns BioMarkt,Bernauer Straße,50,10435,Berlin,Mo-Sa 09:00-22:00,Denns BioMarkt,,yes,yes,yes,,yes,,,,,https://www.denns-biomarkt.de/34524_Berlin_Mitte.html,52.5402635,13.4041362,
Denns BioMarkt,Mühsamstraße,54,10249,Berlin,Mo-Sa 08:00-21:00,Denns BioMarkt,,,,,,yes,,,,,,52.5202002,13.451403,
Aldi,Elcknerplatz,8,12555,Berlin,Mo-Sa 08:00-21:00; PH off,Aldi Nord,,,,,,yes,,,+49 800 7234870,,https://www.aldi-nord.de/filialen-und-oeffnungszeiten.html/l/berlin/elcknerplatz-8/3181227,52.4580641,13.5804025,
Alnatura Super Natur Markt,,,,,Mo-Sa 08:00-21:00; PH off,Alnatura,,,,,,yes,,,,,,52.489356,13.3977479,
Denns BioMarkt,Chausseestraße,21,14109,Berlin,,Denns BioMarkt,,,,,,yes,,,,,,52.4178538,13.1472245,
REWE City,Theodor-Heuss-Platz,6,14052,Berlin,Mo-Sa 07:00-22:00,Rewe,,,,,,yes,wlan,,,,https://www.rewe.de/,52.5101504,13.2727188,
Bio Company,Brunnenstraße,6,10119,Berlin,"Mo-Sa 08:00-21:00; Su,PH off",Bio Company,,,,,,yes,,,,,,52.530752,13.4005851,
REWE City,Litfaß-Platz,4,10178,Berlin,"Mo-Fr 07:00-24:00, Sa 07:00-23:00; 2024 May 23-2024 Nov 21 off",Rewe,,yes,yes,,,yes,wlan,,,,https://www.rewe.de/marktseite/rewe-city-markt-berlin-litfa%C3%9F-platz-4/,52.5224239,13.403453,
Bio Company,Friedrichstraße,136,10117,Berlin,"Mo-Sa 08:00-21:00; Su,PH off",Bio Company,,,,yes,,yes,,,,,,52.5229073,13.3875704,
Kostbar,Leonhardtstraße,2,14057,Berlin,,,,,,,,no,,,,,,52.5049627,13.2986626,
Bio Company,Hauptstraße,"31,32",10827,Berlin,Mo-Sa 08:00-21:00; Su off,Bio Company,,,,,,yes,,,,,,52.4849708,13.3533641,
Sengül Market,Triftstraße,5,13353,Berlin,,,,,,,,yes,,,,,,52.5444869,13.3600595,
Denns BioMarkt,Rosenthaler Weg,78,13127,Berlin,Mo-Sa 08:00-20:00,Denns BioMarkt,,,,,,yes,,,+49 30 40531346,,https://www.denns-biomarkt.de/berlin-rosenthaler-weg-78/marktseite/,52.607372,13.4291329,
Edeka Bergmannstraße,Bergmannstraße,5,10961,Berlin,Mo-Fr 07:00-24:00; Sa 07:00-23:30; PH off,Edeka,,,,,,yes,,,,,https://www.edeka.de/eh/minden-hannover/edeka-bergmannstra%C3%9Fe-bergmannstr.-5-7/index-2.jsp,52.4896784,13.3884205,
Netto Marken-Discount,Bergmannstraße,5,10961,Berlin,Mo-Sa 07:00-22:00; PH off,Netto Marken-Discount,,,,,,yes,,,,,https://www.netto-online.de/filialen/Berlin-Kreuzberg/Bergmannstr-5/7760/,52.4896657,13.3889289,
Aldi,,,,,Mo-Sa 07:00-21:00,Aldi Nord,,,,,,yes,,,,,https://www.aldi-nord.de/filialen-und-oeffnungszeiten.html/l/berlin/bornestrasse-25/3181603,52.5501198,13.4482607,
Landladen Kastaven,,,,,Mo-Fr 10:00-19:00; Sa 10:00-14:00,,,,,,,no,,,+49 30 98318884,,https://www.landladen-kastaven.de/,52.5383876,13.4809667,
Aldi,Alfred-Kowalke-Straße,3,10315,Berlin,Mo-Sa 07:00-21:00,Aldi Nord,,,,,,yes,,,,,,52.504406,13.516489,
bioso Naturkost und Café,Tempelhofer Damm,209,12099,Berlin,Mo-Fr 09:00-19:00; Sa 09:00-14:00,,,,,,,,,,,info@bioso.de,,52.4573377,13.3842847,
Norma,Anton-Saefkow-Platz,8,10369,Berlin,Mo-Sa 07:00-21:00,Norma,,,,,,yes,,,,,,52.5284516,13.4715787,
EDEKA,Tauernallee,30-58,12107,Berlin,Mo-Sa 07:00-21:00,EDEKA,,,,,,yes,,,,,,52.4257885,13.4014959,
Lidl,Kleiststraße,3-6,10787,Berlin,Mo-Sa 08:00-22:00,Lidl,,,,,,limited,,,+49 800 4353361,,https://www.lidl.de/filialen/berlin-tempelhof-schoeneberg/schoeneberg-kleiststr-3---6.html,52.500453,13.3507381,
Netto Marken-Discount,Rabensteiner Straße,36,12689,Berlin,"Mo-Sa 07:00-22:00; Su,PH off",Netto Marken-Discount,,,,,,yes,,,,,https://www.netto-online.de/filialen/Berlin-Marzahn/Rabensteiner-Str-36/5256/,52.5650977,13.5771241,
LPG BioMarkt,Albrechtstraße,33,12167,Berlin,Mo-Sa 08:00-21:00,LPG BioMarkt,,,,,,yes,,,,,,52.452429,13.3322395,
Vinh-Loi Asien-Supermarkt,Gutsmuthsstraße,23-24,12163,Berlin,Mo-Sa 09:00-19:00,,,yes,yes,,,yes,,,+49 (0)30 8593678,,,52.4644899,13.325733,
Vinh-Loi,Müllerstraße,141,13353,Berlin,Mo-Sa 09:00-20:00; PH closed,,,,,,,limited,,,,hung@vinhloi.de,,52.5488826,13.3536252,
EDEKA,Oraniendamm,6-10,13469,Berlin,Mo-We 07:00-20:00; Th-Sa 07:00-21:00,Edeka,,,,,,yes,,,,,,52.6072867,13.3264979,
Lidl,Oraniendamm,6-10,13469,Berlin,Mo-Sa 07:00-21:00,Lidl,,,,,,,,,,,,52.6077274,13.3260991,
Bahia,Wrangelstraße,49,10997,Berlin,Mo-Fr 12:00-19:00; Sa 12:00-16:00,,,,,,,no,,,,,,52.4989369,13.4407853,
Biotopia,Wrangelstraße,49,10997,Berlin,Mo-Fr 08:30-19:00; Sa 08:30-18:00,,,,,,,yes,,,,,,52.4989027,13.4408724,
Lidl,Stresemannstraße,72-78,,Berlin,Mo-Sa 07:00-22:00,Lidl,,,,,,yes,,,,,,52.503844,13.3837544,
Norma,Paradiesstraße,212,12526,Berlin,Mo-Sa 07:00-21:00,Norma,,,,,,,,,,,,52.4040318,13.5597507,
Doğan Supermarkt,Beusselstraße,76,10553,Berlin,,,,,,,,yes,,,,,,52.5277045,13.3283116,
PENNY,Dominicusstraße,37,10827,Berlin,Mo-Sa 07:00-22:00; 2025 Jul 22 - 2025 Oct 31 off,Penny,,,,,,yes,,,,,https://www.penny.de/markt/berlin/4030388/penny-schoeneberg-dominicusstr-37,52.4811176,13.350501,
Kaufland,Senftenberger Ring,15,13439,Berlin,Mo-Sa 07:00-22:00,Kaufland,,,,,,yes,,,,,,52.599201,13.3541666,
EDEKA,Laubacher Straße,13,14197,Berlin,Mo-Fr 08:00-19:00; Sa 08:00-14:00; PH off,Edeka,,,,yes,,limited,,,,,,52.4711485,13.3203023,
Edeka,Wendenschloßstraße,324,12557,Berlin,"Mo-Sa 07:00-22:00; Su,PH off",Edeka,,,,,,yes,,,,,,52.4283689,13.5844098,
EDEKA Fromm,Gerlinger Straße,4,12353,Berlin,Mo-Sa 07:00-21:00,EDEKA,,,,,,yes,,,,,https://www.edeka.de/eh/minden-hannover/edeka-fromm-gerlinger-str.-4/index-2.jsp,52.4176314,13.436224,
Netto,Ribnitzer Straße,24,13051,Berlin,Mo-Sa 08:00-21:00,Netto,,,,,,yes,,,,,https://netto.de/geschaefte/berlin/ribnitzer-strasse-24/e75d5d1a6abf4598840d643a9633759e/,52.5702733,13.4959871,
Bio Company,Babelsberger Straße,52,10715,Berlin,Mo-Sa 08:00-21:00,Bio Company,,,,,,yes,,,030 3 25 14 22 1 00,,https://www.biocompany.de/,52.4878673,13.3354416,
bio goods,Kastanienallee,101,10435,Berlin,,,,yes,yes,yes,,,,,,,,52.5397397,13.4111921,
Kosherlife Koshere Lebensmittel,Brunnenstraße,31,10115,Berlin,Mo-Th 08:00-19:00; Fr 08:00-16:00,,,,,,,yes,,,+491796745908,,http://kosherlife.de/,52.5348578,13.3983347,
EDEKA Rübel,Hohefeldstraße,21;23;25;27,13467,Berlin,Mo-Sa 07:00-22:00,EDEKA,,,,,,yes,,,,,,52.6225702,13.3032601,
Bolu,Residenzstraße,31,13409,Berlin,,,,,,,,yes,,,+493049851041,,http://www.bolu-lebensmittel.de,52.5678172,13.3619052,
Kaufland,Müllerstraße,123-125,13349,Berlin,Mo-Sa 07:00-22:00,Kaufland,,,,,,limited,,,,,https://www.kaufland.de/,52.5531171,13.3462318,
Netto Marken-Discount,Treskowallee,115,10318,Berlin,Mo-Sa 07:00-21:00,Netto Marken-Discount,,,,,,yes,,,,,,52.4803165,13.5255093,
Bio Company,Breite Straße,34,13187,Berlin,Mo-Sa 08:00-20:00,Bio Company,,,,,,yes,,,,,,52.5697666,13.4065329,
Lidl,Seesener Straße,10-13,10709,Berlin,Mo-Sa 08:00-22:00,Lidl,,yes,yes,yes,,yes,,,,,https://www.lidl.de/,52.4915993,13.2982267,
Bio Company,Fehrbelliner Platz,5,10707,Berlin,Mo-Sa 08:00-20:00,Bio Company,,,,,,yes,,,,,,52.4907007,13.3129177,
Nahkauf,Liebenowzeile,29,12167,Berlin,Mo-Sa 07:30-20:00,Nahkauf,,,,,,yes,,,,,,52.4493498,13.349913,
NP,Kastanienallee,8,12627,Berlin,Mo-Sa 07:00-20:00,NP,,,,,,yes,,,,,,52.5367725,13.6017513,
Netto Marken-Discount,Am Treptower Park,40,12435,Berlin,Mo-Sa 07:00-20:00,Netto Marken-Discount,,,,,,,,,,,https://www.netto-online.de/filialen/Berlin-Treptow/Am-Treptower-Park-40/7661/,52.4855611,13.4659156,
Denns BioMarkt,Joachim-Friedrich-Straße,17,10711,Berlin,Mo-Sa 08:00-21:00,Denns BioMarkt,,,,,,yes,,,,,,52.4986354,13.2965708,
Lidl,Potsdamer Straße,203,,,Mo-Sa 07:00-22:00,Lidl,,,,,,yes,,,,,,52.4917687,13.3611473,
Eurogida,Bundesallee,180,10717,Berlin,,,,,,,,yes,,,,,https://www.eurogida.de,52.4876912,13.3315231,
Indomarkt,Reinickendorfer Straße,118,,,Mo-Sa 11:00-18:00; PH off,,,,,,,yes,,,,,https://www.indomarkt.com/,52.5425485,13.3695233,
Aldi,Unter den Eichen,97,12203,Berlin,Mo-Sa 07:00-21:00,Aldi Nord,,,,,,,,,,,https://www.aldi-nord.de/filialen-und-oeffnungszeiten.html/l/berlin/unter-den-eichen-97/3181547,52.4453954,13.2945295,
Lidl,Tempelhofer Damm,187-191,12099,Berlin,Mo-Sa 07:00-21:00,Lidl,,,,,,,,,,,,52.4595809,13.3850549,
Kaufland,Walter-Friedrich-Straße,4,13125,Berlin,Mo-Sa 07:00-22:00; PH off,Kaufland,,,,,,yes,,,+49 30 943936180,,https://www.kaufland.de/,52.6345809,13.495938,
Ledo,Forckenbeckstraße,1,14199,Berlin,Mo-Sa 09:00-20:00,,,,,,,yes,,,,,,52.4794195,13.3098357,
REWE City,Friedrichstraße,67-70,10117,Berlin,Mo-Sa 08:00-22:00,Rewe,,yes,yes,,,yes,wlan,,,,https://www.rewe.de/,52.5125166,13.3904663,
Norma,Bremer Straße,9,10551,Berlin,Mo-Fr 08:00-20:00; Sa 08:00-18:00,Norma,,,,,,yes,,,,,,52.5276005,13.3388208,
REWE,Marzahner Promenade,1,12679,Berlin,Mo-Sa 08:00-20:00,Rewe,,,,,,yes,wlan,,,,https://www.rewe.de/marktseite/berlin/4040080/rewe-markt-marzahner-promenade-1a/?ecid=seo_localseo_4040080_g_nn_nn_nn_nn_nn,52.5444325,13.545136,
Rewe,Rustweg,1,13587,Berlin,"Mo-Sa 07:00-23:00; Su,PH off",REWE,,,,,,yes,,,+49 30 35131233,,,52.575897,13.2133845,
Örs Market,Kochstraße,14,10969,Berlin,Mo-Fr 06:30-19:00; Sa 06:30-18:00,,,,,,,limited,,,+49 172 3103485,,,52.5065583,13.3896566,
Bio Company,Müllerstraße,141,13353,Berlin,"Mo-Sa 08:00-21:00; Mo-Sa 07:30-21:00 ""Backshop""",Bio Company,,,,,,yes,,,,,,52.5487318,13.3538849,
Sattva,Reichenberger Straße,122,10999,Berlin,,,,,,,,limited,,,,,,52.4952578,13.4319395,
Sila-Markt,Turmstraße,37,10551,Berlin,,,,,,,,limited,,,,,,52.5267843,13.336889,
Alnatura Super Natur Markt,Bölschestraße,63,12587,Berlin,Mo-Sa 08:00-20:00,Alnatura,,yes,yes,yes,,yes,,,+493060033397,,,52.4551665,13.6255086,
EDEKA,Riesaer Straße,102,12627,Berlin,Mo-Sa 07:00-21:00; PH off,EDEKA,,,,,,yes,,,,e4070087@minden.edeka.de,,52.5299667,13.6208656,
REWE,Potsdamer Straße,128,10783,Berlin,Mo-Sa 07:00-22:00,Rewe,,,,,,yes,,,+49 30 23455691,,https://www.rewe.de/,52.4992507,13.3621337,
Denns BioMarkt,Bizetstraße,17-19,13088,,Mo-Sa 08:00-21:00,Denns BioMarkt,,,,,,yes,,,,,https://www.denns-biomarkt.de/,52.5474522,13.4509431,
Bio Company,,,,,Mo-Sa 08:00-21:00,Bio Company,,,,,,yes,,,,,,52.4991298,13.3244063,
REWE,Neumannstraße,13,13189,Berlin,Mo-Sa 08:00-21:00,Rewe,,,,,,yes,,,,,https://www.rewe.de/marktseite/berlin-pankow/4040722/rewe-markt-neumannstr-13/,52.5613117,13.4227915,
Bio Company,Berliner Allee,26,,,Mo-Sa 08:00-21:00,Bio Company,,,,,,yes,,,,,,52.5478176,13.4507131,
LPG BioMarkt,Viktoriastraße,10-18,12105,,Mo-Sa 07:30-20:00,LPG BioMarkt,,,,,,yes,,,+49 30 439739180,,https://www.lpg-biomarkt.de/,52.4546467,13.3820803,
Denns BioMarkt,Alt-Rudow,24,12357,Berlin,Mo-Sa 08:00-20:00,Denns BioMarkt,,,,,,yes,,,,,,52.4202432,13.4918666,
BioInsel,Leberstraße,2,10829,Berlin,Mo-Sa 08:00-20:00,,,yes,yes,,,yes,,,,,,52.4857109,13.3610287,
Alnatura Super Natur Markt,Else-Lasker-Schüler-Straße,18-22,10783,Berlin,Mo-Sa 07:30-21:00; PH off,Alnatura,,,,,,yes,wlan,,+49 30 25759621,,https://www.alnatura.de/,52.5001242,13.3545269,
Netto Marken-Discount,Bruno-Taut-Straße,8,12524,Berlin,Mo-Sa 07:00-22:00,Netto Marken-Discount,,,,,,,,,,,https://www.netto-online.de/filialen/Berlin/Bruno-Taut-Str-8/5596/,52.4127316,13.5692808,
PENNY,Winterfeldtstraße,74,10781,Berlin,Mo-Sa 07:00-22:00,Penny,,yes,,yes,yes,yes,,,+49 221 20199959,,https://www.penny.de,52.4963863,13.3478324,
Denns BioMarkt,,,,,Mo-Sa 08:00-21:00,Denns BioMarkt,,yes,yes,yes,,yes,,,,,,52.4949861,13.4205474,
Punjab Foods Afro Shop,Tromsöer Straße,6,13359,Berlin,Mo-Sa 09:00-20:00,,,,,,,yes,,,+49 30 49301241,,,52.5582594,13.3742829,
Schnittstelle,Urbanstraße,100,10967,Berlin,Mo 15:30-19:00,,,,,,,limited,,,,schnittstelle@jpberlin.de,http://www.solidar-schnittstelle-berlin.de,52.4898742,13.422358,
Bolu,Müllerstraße,35,13353,Berlin,Mo-Fr 07:00-20:00; Sa 07:00-18:00,,,,,,,yes,,,,,,52.5489311,13.355191,
Denns BioMarkt,Rheinstraße,60,12159,Berlin,Mo-Sa 08:00-20:00,Denns BioMarkt,,yes,yes,,,yes,,,+49 30 81006164,,https://www.biomarkt.de/berlin-rheinstr-60/marktseite,52.4700835,13.3341154,
EDEKA Residenzstraße,Residenzstraße,34,13409,Berlin,Mo-Sa 07:00-20:00,Edeka,,,,,,yes,,,,,,52.5669709,13.3613922,
TS Foods Supermarkt,Alt-Moabit,74,10555,Berlin,Mo-Sa 10:00-20:00,,,,,,,yes,,,+4930 39741119,,http://tsfoods-supermarkt.de/,52.5241928,13.3331988,
Biolino,Crellestraße,38,10827,Berlin,Mo-Fr 08:00-18:30; Sa 09:00-14:00,,,,,,,no,,,+49 30 7881530,,,52.4879674,13.3603428,
Go Asia,Hauptstraße,132,10827,Berlin,Mo-Sa 09:00-20:00,Go Asia,,,,,,yes,,,,,,52.4845565,13.3537504,
Schwärmerei,Elsenstraße,52,12059,Berlin,Tu 17:00-18:00,,,,,,,,,,,,https://thefoodassembly.com/de/assemblies/146,52.4858904,13.4484506,
Asia Kauf,Rheinstraße,24,12161,Berlin,Mo-Fr 09:00-18:30; Sa 09:00-16:00,,,,,,,yes,,,,,,52.4681433,13.3313969,
Netto,,,,,Mo-Sa 08:00-21:00,Netto,,,,,,yes,,,,,,52.5124355,13.4330222,
REWE City,Bahnhofstraße,23-25,12555,Berlin,Mo-Sa 06:00-22:00; PH off,Rewe,,,,yes,,yes,wlan,,,,https://www.rewe.de/marktseite/berlin-koepenick/4040488/rewe-markt-bahnhofstr-23-25/,52.4577394,13.5789184,
Netto Marken-Discount,Martin-Luther-Straße,24,10777,Berlin,Mo-Sa 07:00-22:00,Netto Marken-Discount,,,,,,yes,,,+49 800 2000015,,https://www.netto-online.de/filialen/Berlin-Schoeneberg/Martin-Luther-Str-24/7638/,52.496021,13.3458185,
Aldi,Neumannstraße,13,13189,Berlin,Mo-Sa 08:00-20:00,Aldi Nord,,,,,,yes,,,,,https://www.aldi-nord.de/filialen-und-oeffnungszeiten.html/l/berlin/neumannstrasse-13/3182714,52.5613631,13.4225947,
Edeka,Kladower Damm,366 B,14089,Berlin,Mo-Sa 07:00-21:00,Edeka,,,,,,yes,,,+493036433134,,https://www.edeka.de/eh/minden-hannover/edeka-theuerkauf-kladower-damm-366b/index.jsp,52.4550765,13.1439156,
Aldi Nord,Senftenberger Ring,17,13439,Berlin,Mo-Sa 07:00-21:00,,,,,,,,,,08007234870,,,52.5995142,13.3548869,
E-Center,Hansastraße,236,13051,Berlin,Mo-Sa 07:00-21:00,EDEKA,,,,,,yes,,,,,,52.5605173,13.4988103,
HIT,Wilmersdorfer Straße,26-28,10585,Berlin,"Mo-Sa 07:00-22:00; Su,PH off",HIT,,,,,,yes,,,,,,52.5135233,13.3047764,
Nazar Supermarkt,Potsdamer Straße,111,10783,Berlin,,,,,,,,limited,,,,,,52.4994583,13.3630907,
Rewe,Prerower Platz,1,13051,Berlin,"Mo-Sa 08:00-20:00; PH,Su off",Rewe,,,,,,yes,,,,,,52.5648536,13.5067596,
Mitte Meer,Kolonnenstraße,30 b,10829,Berlin,"Mo-Th 10:00-20:00, Fr-Sa 09:00-20:00",,,,,,,yes,,,+49 30 398 01 63,,http://www.mitte-meer.de/,52.484833,13.3693011,
Bolu,Kleiststraße,32-33,10787,Berlin,Mo-Fr 07:00-20:00; Sa 07:00-18:00,,,,,,,yes,,,+49 30 23630397,,http://www.bolu-berlin.de/bolu/index.php?option=com_zoo&task=item&item_id=31&Itemid=369&lang=de,52.5003829,13.3484057,
Denns BioMarkt,Motzstraße,24,10777,Berlin,Mo-Sa 08:00-21:00,Denns BioMarkt,,,,,,yes,,,+49 30 34388313,,https://www.biomarkt.de/berlin-motzstr-24/marktseite,52.4980181,13.3483763,
Düzgün,,,,,Mo-Sa 08:00-21:00,Nahkauf,,,,,,limited,,,,,,52.5042204,13.3071955,
Go Asia,Tempelhofer Damm,120,12099,Berlin,"Mo-Sa 09:30-20:00; Su,PH off",Go Asia,,,,,,limited,,,,,https://goasia.net/en/store_list/berlin-tempelhof,52.4690441,13.3852152,
Bio Company,Hasenheide,32-38,10967,,Mo-Fr 08:00-21:00,Bio Company,,yes,yes,yes,,yes,,,+49 30 688192270,,https://www.biocompany.de/,52.4884752,13.4150932,
Eurogida,Potsdamer Straße,152,10783,Berlin,Mo-Sa 07:00-20:00,,,,,,,yes,,,,,,52.4967793,13.3611893,
Baraka Supermarkt,Hauptstraße,137,10827,Berlin,,,,,,,,,,,,,,52.4852216,13.355069,
Go Asia,Nollendorfplatz,8-9,10777,Berlin,Mo-Sa 09:00-21:00,Go Asia,,,,,,yes,,,,,,52.4986926,13.3544224,
EDEKA,Knesebeckstraße,56,10719,Berlin,"Mo-Fr 08:00-24:00; Sa 08:00-23:30; Su,PH off",Edeka,,,,,,yes,wlan,,,,,52.5005138,13.3222176,
Norma,Wassermannstraße,97,12489,Berlin,Mo-Sa 08:00-20:00,Norma,,,,,,yes,,,,,https://www.norma-online.de/,52.4377511,13.5547611,
EDEKA,Straßburger Straße,9A-C,10405,Berlin,Mo-Sa 08:00-22:00,Edeka,,,,,,yes,,,+49 30-24627615,,https://www.edeka.de/,52.5291922,13.4135783,
Bio Company,Greifswalder Straße,212,10405,Berlin,Mo-Sa 08:00-21:00,Bio Company,,yes,yes,,,yes,,,+49 30 25 20 93 29-0,,https://www.biocompany.de/bio-company-markt-finden/l/berlin/greifswalder-strasse-212/358408,52.5320465,13.4277612,
Nahkauf,,,,,Mo-Sa 07:00-20:00,Nahkauf,,,,,,,,,,,,52.549407,13.1559808,
Denns BioMarkt,Hanne-Sobek-Platz,,13357,,Mo-Su 08:00-22:00,Denns BioMarkt,,yes,yes,,,yes,,,+49 30 40007835,,https://www.biomarkt.de/berlin-hanne-sobek-platz/marktseite,52.5486803,13.3891398,
Asia Lebensmittel,Brückenstraße,5,12439,Berlin,,,,,,,,,,,,,,52.4574614,13.5111972,
Bio Company,Hermannstraße,199,12049,Berlin,Mo-Sa 08:00-21:00,Bio Company,,,,,,yes,,,+49 30 287086100,,https://www.biocompany.de/bio-company-markt-finden/l/berlin/hermannstrasse-199/358404,52.4751837,13.4275096,
Denns BioMarkt,,,,,Mo-Sa 08:00-21:00,Denns BioMarkt,,,,,,yes,,,,,,52.4684302,13.4414052,
Rewe,,,,,,REWE,,,,,,,,,,,,52.5366422,13.6024143,
Aldi,,,,,Mo-Sa 08:00-21:00,Aldi Nord,,,,,,yes,,,,,,52.4589559,13.3830946,
Edeka Tempelhofer Damm,Tempelhofer Damm,198,12099,Berlin,Mo-Sa 07:00-22:00,Edeka,,,,,,yes,,,,,http://mein.edeka.de/eh/de/minden_hannover/6651/,52.4585848,13.3828398,
Denns BioMarkt,Bahnhofstraße,33-38,12555,Berlin,Mo-Sa 08:00-20:00; PH closed,Denns BioMarkt,,,,,,yes,,,,,,52.458381,13.5786692,
Aldi,,,,Berlin,"Mo-Sa 09:30-20:00; PH,Su off",Aldi Nord,,,,,,yes,,,,,,52.5101681,13.3808444,
EDEKA,,,,Berlin,Mo-Sa 08:00-21:00,Edeka,,,yes,yes,,yes,,,,,,52.5186498,13.4164837,
Edeka,Eckertstraße,7-11,10249,Berlin,"Mo-Sa 07:00-21:00; Su,PH off",Edeka,,,,,,yes,,,,e4089395@minden.edeka.de,,52.5197889,13.4503543,
REWE,Hauptstraße,141-144,10827,Berlin,Mo-Fr 07:00-24:00; Sa 07:00-23:30,Rewe,,yes,yes,yes,,yes,wlan,,,,,52.4856469,13.3561779,
Anant Indischer Supermarkt,Anzengruberstraße,20,12043,Berlin,,,,,,,,,,,,,,52.480609,13.4394675,
Norma,Skalitzer Straße,141,10999,Berlin,Mo-Sa 07:00-21:00,Norma,,,,,,yes,,,,,,52.499004,13.4163673,
Alnatura Super Natur Markt,,,,,"Mo-Sa 08:00-21:00; Su,PH off",Alnatura,,yes,yes,yes,,yes,,,,,,52.5086589,13.3047894,
Alnatura Super Natur Markt,Friedrichstraße,191,10117,Berlin,Mo-Sa 08:00-21:00; PH off,Alnatura,,,,,,yes,,,,,,52.5110708,13.3893114,
Alnatura Super Natur Markt,Chausseestraße,10,10115,Berlin,Mo-Sa 08:00-21:00; PH off,Alnatura,,,,,,yes,wlan,,,,https://www.alnatura.de/,52.5284331,13.3859899,
Denns BioMarkt,Adlergestell,259,12489,Berlin,Mo-Sa 08:00-20:00; PH off,Denns BioMarkt,,,,yes,,yes,,,,,https://www.denns-biomarkt.de/,52.4353773,13.5419279,
Denns BioMarkt,Danziger Straße,73-77,10405,Berlin,Mo-Sa 08:00-21:00,Denns BioMarkt,,,,,,yes,,,,,,52.5390981,13.4254546,
Atix,Neue Promenade,8,,,,,,no,no,,,yes,,,,,,52.5226071,13.4010483,
Samariter Unverpackt,,,,,Tu-Fr 10:00-19:00; Sa 10:00-16:00,,,,,,,no,,,,,,52.5170593,13.466245,
Netto Marken-Discount,Alex-Wedding-Straße,3,10178,Berlin,Mo-Fr 07:00-22:00; Sa 08:00-20:00,Netto Marken-Discount,,,yes,yes,,yes,,,,,https://www.netto-online.de/filialen/Berlin-Mitte/Alex-Wedding-Str-3/5632/,52.5250782,13.4153068,
Lidl,Müllerstraße,25,13353,Berlin,Mo-Sa 07:00-22:00,Lidl,,yes,,yes,,yes,,,,,,52.5464131,13.3599245,
Bolu,,,,,,,,,,,,limited,,,,,,52.5282875,13.194756,
Penny Underground,Müllerstraße,153,,,Mo-Sa 07:00-22:00,Penny,,yes,yes,yes,,yes,,,,,,52.5460014,13.3593645,
nahcity,Rosenthaler Straße,11,10119,,Mo-Sa 08:00-21:00,,,,,,,limited,,,,,,52.5278089,13.4026632,
Bio Company,Kladower Damm,362-364,14089,Berlin,Mo-Sa 08:00-20:00,Bio Company,,,,,,yes,,,+49 30 639640010,,,52.4555175,13.1449754,
Bio Company,Gleimstraße,30-35,10437,Berlin,Mo-Sa 08:00-21:00,Bio Company,,yes,yes,yes,,yes,,,+49 30 644929090,,https://www.biocompany.de/,52.5477143,13.4120467,
Smak Russische Lebensmittel,,,,,,,,,,,,,,,,,,52.5422769,13.2057306,
Bio Company,Martin-Luther-Straße,14,10777,Berlin,Mo-Sa 08:00-21:00,Bio Company,,,,,,yes,,,,,,52.498189,13.3456881,
Safrani,Wilmersdorfer Straße,44,10627,Berlin,,,,,,,,no,,,,,,52.5103419,13.3053472,
Calvin Discount,Calvinstraße,1,10557,Berlin,Mo-Sa 07:30-20:30,,,,,,,limited,,,,,,52.5240137,13.3520522,
Bio Company,Weißenhöher Straße,108,12683,Berlin,08:00-20:00,Bio Company,,,,,,yes,,,,,,52.5069556,13.5598549,
AZZAM,Turmstraße,57-58,10551,Berlin,Mo-Sa 08:00-19:00; PH off,,,,,,,yes,,,,,,52.5274557,13.3299654,
Mix Markt,,,,,Mo-Sa 08:00-20:00; PH off,Mix Markt,,,,,,limited,,,,mixmarkt222@monolith-gruppe.com,,52.5326682,13.1554903,
Nadaf,,,,,Mo-Sa 09:00-22:00,,,,,,,yes,,,,,,52.4747344,13.4398121,
Nahkauf,,,,,Mo-Sa 07:00-22:00,Nahkauf,,,,,,,,,,,,52.5619592,13.4676799,
,,,,,Mo-Sa 08:00-20:00,,,,,,,,,,,,,52.5441031,13.547627,
Kaufland,Karl-Liebknecht-Straße,13,10178,Berlin,"Mo-Sa 07:00-22:00; Su,PH off",Kaufland,,,,,,yes,wlan,,,,https://filiale.kaufland.de/service/filiale/berlin-mitte-8920.html,52.5224189,13.4075889,
Netto Marken-Discount,Wilmersdorfer Straße,46,10627,Berlin,Mo-Sa 08:00-21:00,Netto Marken-Discount,,,,,,yes,,,,,https://www.netto-online.de/filialen/Berlin-Charlottenburg/Wilmersdorfer-Str-46/7679/,52.5084018,13.3055222,
Eurogida,,,,,,,,,,,,yes,,,,,,52.5088125,13.3045006,
EDEKA,Obstallee,28-30,13593,Berlin,Mo-Sa 07:00-20:00; PH off,Edeka,,,,,,yes,,,,,,52.5221765,13.1638589,
Balkan Šop-Ilić,Dahlmannstraße,22,10629,,Mo-Fr 08:00-20:00; Sa 08:00-18:00,,,,,,,,,,+49 30 32702181,,https://www.balkanshop-transporte-ilic.com/,52.5008416,13.3041489,
Eurogida,Wilhelmsruher Damm,129,13439,,,,,,,,,,,,,,,52.5962596,13.3552924,
Edeka,,,,,"Mo-Fr 07:30-19:00, Sa 07:30-16:00",Edeka,,,,,,,,,,,,52.5669682,13.3485717,
Kernkraft - Rund um die Nuss,Markgrafendamm,3,10245,Berlin,Sa 09:00-15:30,,,,,,,yes,,,,,https://www.kernkraft-berlin.de/,52.4980205,13.4652952,
REWE City,Bismarckstraße,91,10625,Berlin,"Mo-Fr 06:00-24:00; Sa 06:00-23:30; Su,PH off",Rewe,,,,yes,yes,yes,,,,,https://www.rewe.de/marktseite/berlin-charlottenburg/1931103/rewe-markt-bismarckstr-91/,52.5115365,13.3095903,
Alscham,,,,,,,,,,,,,,,,,,52.4823769,13.4382823,
Al Madina,,,,,,,,,,,,yes,,,,,,52.4871266,13.4267676,
Denns BioMarkt,Prenzlauer Promenade,192,13189,Berlin,Mo-Sa 08:00-21:00,Denns BioMarkt,,,,,,yes,,,,,,52.551672,13.4299375,
Eurogida,Hermannstraße,218,12049,,Mo-Sa 08:00-20:00,,,,,,,yes,,,,,https://www.eurogida.de/,52.4790826,13.4259339,
REWE,Landsberger Allee,277,13055,Berlin,Mo-Sa 07:00-20:00,Rewe,,,,,,yes,,,,,,52.5356385,13.4968091,
Alnatura Super Natur Markt,,,,,Mo-Sa 08:00-21:00,Alnatura,,,,yes,,yes,wlan,,,,,52.5267664,13.3326493,
Netto Marken-Discount,,,,,Mo-Sa 07:00-22:00,Netto Marken-Discount,,yes,yes,yes,,yes,,,,,,52.5335737,13.1978219,
Rewe,Pasteurstraße,19,10407,Berlin,Mo-Sa 07:00-21:45,Rewe,,,,,,yes,,,,,,52.5332863,13.43436,
Lidl,Prenzlauer Allee,44,10405,Berlin,Mo-Sa 07:00-22:00,Lidl,,,,,,yes,wlan,,,,,52.5362946,13.4229304,
Bio Company,Uhlandstraße,103,10715,Berlin,Mo-Sa 08:00-21:00,Bio Company,,yes,yes,yes,,yes,,,+49 30 263055890,,https://www.biocompany.de,52.4856632,13.3228152,
Reformhaus Bagheri,Wilmersdorfer Straße,157,10585,Berlin,"Mo-Fr 08:00-20:00; Sa 08:00-20:00; Su,PH off",,,,,,,,,,,,https://www.reformhaus.de/,52.5158399,13.3048493,
EDEKA,Schloßstraße,10,12163,Berlin,"Mo-Sa 08:00-21:00; Su,PH off",Edeka,,,,,,yes,,,+49 30 51655399,,https://www.edeka.de/eh/minden-hannover/edeka-schlo%C3%9Fstra%C3%9Fe-schlo%C3%9Fstr.-10-boulevard-berlin/index.jsp,52.4627571,13.3240444,
Netto,Mehrower Allee,20,12687,Berlin,Mo-Sa 08:00-20:00,Netto,,,,,,yes,,,,,https://netto.de/,52.5556604,13.5588338,
Netto Marken-Discount,Siemensdamm,43-44,13629,Berlin,Mo-Sa 07:00-22:00,Netto Marken-Discount,,,,,,,,,,,https://www.netto-online.de/filialen/Berlin/Siemensdamm-43-44/5666/,52.536561,13.2754036,
Edeka Sapphire,Chausseestraße,43,10115,Berlin,Mo-Sa 07:00-21:00,Edeka,,yes,yes,,,yes,,,+49 30 25763150,,https://www.edeka.de/eh/minden-hannover/edeka-sapphire-chausseestr.-43/index.jsp,52.5342508,13.3787546,
Netto Marken-Discount,,,,,Mo-Sa 07:00-21:00,Netto Marken-Discount,,,,,,yes,,,,,https://www.netto-online.de/filialen/Berlin/Heerstr-221/5664/,52.5127262,13.1962538,
Tugra Gida,Hauptstraße,13,10827,Berlin,,,,,,,,,,,,,,52.4880045,13.3577161,
Alnatura Super Natur Markt,Konstanzer Straße,2,10707,Berlin,Mo-Sa 08:00-21:00,Alnatura,,,,,,yes,,,,,,52.498704,13.3121172,
Reformhaus Demski,Ludolfingerplatz,1a,13465,Berlin,"Mo-Fr 08:00-18:00; Sa,Su 08:00-14:00",,,,,,,yes,,,,lu@demski.de,,52.6329452,13.2893671,
Family Markt,,,,,,,,,,,,,,,,,,52.5357141,13.1950929,
El-Fj Supermarkt,,,,,Mo-Sa 08:00-20:00,,,,,,,yes,,,,,,52.4954043,13.4201374,
Mitte Meer,Prenzlauer Promenade,192,13189,Berlin,Mo-Sa 09:00-20:00,,,yes,yes,,,yes,,,,,,52.5517659,13.429981,
Aldi,,,,,Mo-Sa 07:00-21:00,Aldi Nord,,,,,,,,,,,,52.4940203,13.3606389,
Aldi,Berolinastraße,7D,10178,Berlin,Mo-Sa 07:00-21:00,Aldi Nord,,,,,,yes,,,,,https://www.aldi-nord.de/filialen-und-oeffnungszeiten.html/l/berlin/berolinastrasse-7a/3180823,52.5218804,13.4232368,
REWE City,,,,,Mo-Sa 07:00-22:00; PH off,Rewe,,yes,yes,,yes,yes,wlan,,+49 30 33897719,,,52.5289253,13.4561482,
Maya d‘Afrique,Frankfurter Allee,267,10317,Berlin,,,,,,,,,,,+49 30 47594994,,,52.5111799,13.5026267,
EDEKA,Jungfernheideweg,2,13629,Berlin,Mo-Sa 07:00-22:00,Edeka,,,,,,yes,,,+49 (0)30 3670 0990,,,52.5370546,13.2721745,
Alnatura Super Natur Markt,Ludolfingerplatz,8A,13465,Berlin,Mo-Sa 08:00-20:00,Alnatura,,,,,,yes,,,,,https://www.alnatura.de/de-de/m%C3%A4rkte/alnatura-filialen-detailseiten/b/berlin-alnatura-super-natur-markt-b145,52.6322622,13.2870054,
Tianfu Asien-Supermarkt,Berliner Straße,15,10715,Berlin,Mo-Fr 10:00-19:00; Sa 10:00-18:00,,,,,,,limited,,,030 86090809,,https://tianfu.de/,52.4872214,13.3294174,
Bereket Market,,,,,,,,,,,,yes,,,,,,52.4496881,13.3847902,
EDEKA,Viktoria-Luise-Platz,10,10777,Berlin,"Mo-Sa 07:00-21:00; Su,PH closed",Edeka,,,,,,yes,,,+49 30 21018755,,,52.4952288,13.3416349,
Netto Marken-Discount,Corinthstraße,36,10245,Berlin,"Mo-Sa 07:00-22:00; Su,PH off",Netto Marken-Discount,,,,,,yes,,,,,https://www.netto-online.de/filialen/Berlin-Friedrichshain/Corinthstrasse-32/5692/,52.5000253,13.4609567,
EDEKA Burau,Mainzer Straße,13,10715,Berlin,Mo-Fr 08:00-19:00; Sa 08:00-18:00; Su off,Edeka,,,,,,yes,,,+49 30 8533090,,,52.4797483,13.3267804,
Denns BioMarkt,Karl-Marx-Straße,66,12043,Berlin,Mo-Sa 09:00-21:00,Denns BioMarkt,,,,,,limited,,,+493083238550,,https://www.denns-biomarkt.de/berlin-karl-marx-str-66/marktseite/,52.4819759,13.4325712,
Bio Company,Rudi-Dutschke-Straße,17,10969,Berlin,Mo-Sa 07:30-20:00,Bio Company,,,,,,yes,wlan,,,,,52.5067343,13.3941121,
Europa Markt,,,10789,,Mo-Sa 09:00-23:00,,,,,,,,,,+493023627080,,,52.4996854,13.3346985,
Vinh-Loi Asien-Supermarkt,Ansbacher Straße,16,10787,Berlin,Mo-Sa 09:00-19:00; Su off,,,,,,,no,,,,,,52.503302,13.3424529,
Netto,Erich-Weinert-Straße,95,,,Mo-Sa 07:00-20:00,Netto,,,,,,yes,,,,,,52.5478568,13.4302622,
Alnatura Super Natur Markt,Heerstraße,221,13595,Berlin,Mo-Sa 08:00-20:00; PH off,Alnatura,,,,,,yes,,,,,https://www.alnatura.de/de-de/m%C3%A4rkte/alnatura-filialen-detailseiten/b/berlin-alnatura-super-natur-markt-b135,52.5126595,13.1969132,
Go Asia,Turmstraße,29,10551,Berlin,Mo-Sa 09:00-21:00,Go Asia,,yes,yes,yes,,no,no,,+49 30 39882841,,https://www.goasia.net,52.5265508,13.3416957,
Kefan,Zingster Straße,6,13051,Berlin,Mo-Su 08:00-21:00,,,,,,,yes,,,,,,52.5649609,13.5037243,
Can Market,,,,,Mo-Sa 08:00-20:00,,,,,,,yes,,,,,,52.437286,13.3446695,
Chau A Hoang Dic,,,,,,,,,,,,,,,,,,52.527555,13.4908178,
REWE,Allee der Kosmonauten,196,12685,Berlin,Mo-Sa 07:00-22:00,Rewe,,,,,,yes,,,,,,52.5412661,13.5649008,
El-Fi Supermarket,,,,,,,,,,,,,,,,,,52.5527831,13.382373,
LPG BioMarkt,Yorckstraße,24,10965,Berlin,Mo-Sa 08:00-21:00; PH off,LPG BioMarkt,,,,,,yes,wlan,,,info@lpg-biomarkt.de,,52.4925371,13.3787764,
Nahkauf,,,,,Mo-Sa 08:00-20:00,Nahkauf,,,,,,yes,,,,,,52.6096448,13.3353663,
Netto Marken-Discount,Gotlandstraße,6,10439,Berlin,Mo-Sa 07:00-22:00,Netto Marken-Discount,,yes,yes,yes,,yes,wlan,,,,https://www.netto-online.de/filialen/Berlin/Gotlandstr-6/5725/,52.5547595,13.4113529,
Lidl,,,,,Mo-Sa 07:00-21:00,Lidl,,,,,,yes,,,,,,52.5153174,13.2874342,
REWE,Bautzener Straße,36,10829,Berlin,Mo-Sa 07:00-22:00,Rewe,,yes,yes,yes,,yes,wlan,,,,,52.4915322,13.3712919,
Netto Marken-Discount,Weißenseer Weg,37,13055,Berlin,Mo-Sa 07:00-22:00,Netto Marken-Discount,,,,,,limited,,,,,https://www.netto-online.de/filialen/Berlin-Alt-Hohenschoenhausen/Weissenseer-Weg-35/5730/,52.5355802,13.4746475,
REWE,Eldenaer Straße,42,10247,Berlin,PH off; Mo-Sa 07:00-23:00,Rewe,,,,,,limited,,,,,,52.5204377,13.46308,
Go Asia,Potsdamer Platz,,10785,,Mo-Sa 08:00-21:30; Su 08:00-20:00,Go Asia,,,,,,limited,,,+49 30 23002600,,https://goasia.net,52.5096419,13.3771793,
Aldi,Tamara-Danz-Straße,11,10243,Berlin,Mo-Sa 09:00-21:00,Aldi Nord,,,,,,yes,,,,,,52.5064101,13.4458868,
REWE City,Konstanzer Straße,53,10707,Berlin,Mo-Fr 06:00-00:00; Sa 06:00-23:30,Rewe,,,,,,yes,,,+49 30 88625895,,https://www.rewe.de/marktseite/berlin-wilmersdorf/1931152/rewe-markt-konstanzer-str-53/,52.4955915,13.3111985,
Golden Ilakkya Asia,Rheinstraße,15,12159,Berlin,Mo-Sa 10:30-19:30,,,,,,,,,,,,,52.4696437,13.3329743,
Bio Company,,,,,Mo-Sa 08:00-21:00,Bio Company,,,,,,yes,,,,,,52.5002409,13.4409705,
Aldi,Fritz-Reuter-Allee,184,12359,Berlin,Mo-Sa 07:00-21:00,Aldi Nord,,,,,,yes,,,,,https://www.aldi-nord.de/filialen-und-oeffnungszeiten.html/l/berlin/fritz-reuter-allee-184/3181847,52.437192,13.446031,
PENNY,Boxhagener Straße,80,10245,Berlin,Mo-Sa 07:00-23:00,Penny,,yes,,yes,,yes,wlan,,,,https://www.penny.de/markt/berlin/565849/penny-box-80-boxhagener-strasse-80,52.5078008,13.4676619,
AES Shop,Marienburger Straße,36,10405,Berlin,Mo-Fr 09:30-19:30; Sa 09:30-18:00,,,,,,,no,,,,,,52.5345065,13.4256884,
Nahkauf,,,,,Mo-Sa 07:00-22:00,Nahkauf,,,,,,,,,,,,52.6053919,13.3571415,
Denns BioMarkt,Müllerstraße,34,13353,Berlin,Mo-Sa 08:00-21:00,Denns BioMarkt,,,yes,yes,,yes,no,,,,,52.5484993,13.3558851,
REWE,,,13353,,Mo-Sa 07:00-22:00,Rewe,,,,,,yes,,,+49 30 47903499,,https://www.rewe.de/marktseite/berlin-wedding/1765982/rewe-markt-muellerstr-141,52.5488014,13.3537392,
Netto Marken-Discount,Hermannstraße,214,12049,Berlin,Mo-Sa 07:00-21:00,Netto Marken-Discount,,,,yes,yes,yes,,,,,https://www.netto-online.de/filialen/Berlin-Neukoelln/Hermannstr-214/5760/,52.4790268,13.4274455,
Bio Company,Treskowallee,114,10318,Berlin,Mo-Sa 08:00-20:00,Bio Company,,,,yes,yes,yes,wlan,,+49 30 5210760610,,https://www.biocompany.de,52.4812026,13.5245053,
Die Erbsenzählerei - Gutes unverpackt,Kolonnenstraße,48,10829,Berlin,Tu-Fr 10:00-19:00; Sa 10:00-16:00,,,yes,yes,yes,,,,,03078899666,,https://www.erbsenzaehlerei-berlin.de/,52.4856105,13.3629759,
Denns BioMarkt,Schönhauser Allee,80,10439,Berlin,Mo-Sa 09:00-21:00,Denns BioMarkt,,yes,yes,yes,,yes,,,+49 30 44716510,,,52.5492906,13.4157975,
Denns BioMarkt,,2,10178,Berlin,"Mo-Sa 08:00-20:00; PH,Su off",Denns BioMarkt,,,,,,yes,,,,,,52.5208173,13.4139182,
Aldi,,,,,,Aldi Nord,,,,,,,,,,,,52.5846524,13.286496,
EDEKA,Massower Straße,5,10315,Berlin,Mo-Sa 07:00-22:00,Edeka,,yes,yes,yes,,yes,,,+49 30 51061729,,https://www.edeka.de/eh/minden-hannover/edeka-lichtenberg-massower-str.-5/index.jsp,52.5077376,13.5131475,
Sheriffs Beef nah & frisch,Kurfürstendamm,152,10709,Berlin,Mo-Sa 08:00-20:00,,,,,,,yes,,,,,https://sheriffs-beef.de/,52.4987,13.3014126,
R-Markt,Warnitzer Straße,20,13057,Berlin,Mo-Fr 10:00-17:00; Sa 10:00-14:00,,,,,,,,,,,,,52.5672818,13.5176126,
PENNY,Eisenhutweg,93,12487,Berlin,Mo-Sa 07:00-21:00,Penny,,,,,,yes,,,,,,52.4298223,13.5125861,
EDEKA,Maybachufer,36-38,12047,Berlin,Mo-Sa 07:00-22:00,Edeka,,yes,yes,yes,,yes,,,,,,52.4918563,13.4326134,
Mitte Meer,Kantstraße,42,10625,Berlin,"Mo-Th 10:00-20:00; Fr-Sa 09:00-20:00 || Mo-Th 10:00-18:30; Fr-Sa 09:00-19:00 open ""Frischfisch""",,,,,,,yes,,,,,,52.5065384,13.3127012,
Nahkauf,,,,,"Mo-Fr 08:00-20:00; Sa 08:00-18:00; PH,Su off",Nahkauf,,,,,,yes,,,,,,52.4485502,13.3254362,
Habibi,Stendaler Straße,,10559,,Mo-Sa 09:00-20:00,,,,,,,limited,,,,,,52.532841,13.3505936,
Özgür Market,Nonnendammallee,89,13629,Berlin,Mo-Sa 07:00-21:00; Su 10:00-17:00,,,,,,,yes,,,,,,52.5368955,13.2711846,
REWE,,,,,Mo-Sa 06:00-22:00,Rewe,,,,,,yes,,,,,,52.6323439,13.289344,
EDEKA,Templiner Straße,12,10119,Berlin,Mo-Sa 07:00-23:00,Edeka,,yes,yes,yes,,yes,,,,,,52.5320129,13.4078491,
Dadly,Beusselstraße,44R,10553,Berlin,,,,,,,,limited,,,,,,52.5334497,13.3280361,
Bio Company,Karl-Marx-Straße,142A,12043,Berlin,Mo-Sa 08:00-21:00,Bio Company,,yes,yes,yes,,yes,,,+49 30 5210760620,,https://www.biocompany.de/bio-company-markt-finden/l/berlin/karl-marx-strasse-142a/1201631,52.4768037,13.4387996,
Netto,Genthiner Straße,42,10785,Berlin,Mo-Sa 07:00-22:00,Netto,,,,,,yes,,,,,,52.5021129,13.3584107,
Elmas,Müllerstraße,128A,13349,Berlin,,,,,,,,yes,,,,,,52.5522992,13.3482885,
Lidl,Rigaer Straße,36-38,10247,Berlin,Mo-Sa 07:00-22:00,Lidl,,,,,,yes,,,,,,52.5161284,13.4659426,
EDEKA,Invalidenstraße,74,10557,Berlin,Mo-Sa 07:00-21:00,Edeka,,,,,,yes,,,,,,52.5273276,13.3729712,
Go Asia,Teltower Damm,37-39,14167,Berlin,Mo-Sa 09:00-21:00,Go Asia,,,,,,yes,,,,,,52.4309068,13.2597744,
Denns BioMarkt,Boxhagener Straße,82,,,Mo-Sa 08:00-21:00,Denns BioMarkt,,,,,,yes,,,+49 30 27598144,,https://www.denns-biomarkt.de/berlin-boxhagener-str-82-82-a/marktseite/,52.5085371,13.4666727,
Denns BioMarkt,Albrechtstraße,16-18,12167,Berlin,Mo-Sa 08:00-21:00,Denns BioMarkt,,,,,,yes,,,,,,52.4546555,13.3267514,
Aldi,Breite Straße,20,13187,Berlin,Mo-Sa 07:00-20:00,Aldi Nord,,,,,,yes,,,,,,52.5700558,13.4036946,
Adalat,,,,,,,,,,,,,,,,info@adalat.berlin,,52.4761828,13.4396069,
Lidl,Hindenburgdamm,94,12203,Berlin,Mo-Sa 08:00-21:00,Lidl,,,,,,yes,,,+49 800 4353361,,https://www.lidl.de/filialen/berlin-steglitz-zehlendorf/lichterfelde-hindenburgdamm-94.html,52.4420025,13.3154003,
Bio Company,Heilbronner Straße,12,10711,Berlin,Mo-Sa 08:00-21:00,Bio Company,,,,,,yes,,,+49 30 5210760640,,https://www.biocompany.de/bio-company-markt-finden/l/berlin/heilbronner-strasse-12/1826195,52.5021374,13.2955465,
Al-Rayan Market,,,,,,,,,,,,,,,,,,52.4783237,13.4464595,
REWE,Alfred-Jung-Straße,12,10369,Berlin,Mo-Sa 07:00-22:00,Rewe,,yes,yes,yes,yes,yes,wlan,,+49 30 959997610,,https://www.rewe.de/marktseite/berlin-stadt/1931604/rewe-markt-alfred-jung-strasse-12,52.5231836,13.477905,
Al Schark,,,,,,,,,,,,yes,,,,,,52.5302494,13.3282762,
Kartar Food,Wilmersdorfer Straße,8,10585,Berlin,,,,,,,,,,,,,,52.51747,13.304337,
Bio Company,Tempelhofer Damm,227,12099,Berlin,Mo-Sa 08:00-20:00,Bio Company,,,,,,yes,,,,,,52.4556927,13.3863952,
Spreewald Müller,Greifswalder Straße,87,10409,Berlin,"Tu,Th 09:00-17:00; Mo off; Sa 09:00-13:00",,,,,,,yes,,,,,,52.5419786,13.4409498,
Centro Italia,Greifswalder Straße,80c,10405,Berlin,"Mo-Fr 10:00-19:00, Sa 10:00-16:00",,,,,,,yes,,,,,,52.5391376,13.4386786,
Bento & Bibim,Lychener Straße,3,10437,Berlin,,,,,,,,,,,,,,52.5411196,13.4144171,
HIT,Mariendorfer Damm,292-298,12107,Berlin,Mo-Sa 07:00-22:00,HIT,,,,,,yes,,,,,,52.4258086,13.3913094,
Denns BioMarkt,Wollankstraße,101,13187,Berlin,Mo-Sa 08:00-21:00,Denns BioMarkt,,,,,,yes,,,015110888659,,,52.564597,13.3939165,
EDEKA,Stresemannstraße,52,10963,Berlin,Mo-Fr 07:00-24:00; Sa 07:00-23:30,Edeka,,,,,,limited,,,,e4035046@minden.edeka.de,,52.5023465,13.3855468,
Lidl,Hauptstraße,65,12159,Berlin,Mo-Sa 07:00-22:00,Lidl,,,,,,yes,,,,,https://www.lidl.de/f/berlin-tempelhof-schoeneberg/hauptstrasse-65.html,52.4770965,13.3416249,
LPG Naturkost,Wilhelmsaue,135,10715,Berlin,Mo-Fr 10:00-18:30; Sa 09:00-14:00,,,,,,,no,,,,,,52.4849695,13.3294041,
REWE,Dolgenseestraße,9C-F,10319,Berlin,Mo-Sa 07:00-22:00,Rewe,,,,,,yes,wlan,,+4930220137430,,https://www.rewe.de/marktseite/berlin-friedrichsfelde/1766114/rewe-markt-dolgenseestr-9-c-f,52.4935314,13.5074171,
REWE Marcel Tuffin,Dolgenseestraße,9C,10319,Berlin,"Mo-Sa 07:00-22:00; Su,PH off",,,yes,yes,,,yes,,,,,,52.4934634,13.5077649,
Go Asia,Kurfürstendamm,231,10719,Berlin,Mo-Sa 10:00-20:00,Go Asia,,,,,,,,,,,https://goasia.net/filialen/berlin-kurfuerstendamm,52.5036224,13.3328311,
Aldi,Wilmersdorfer Straße,36-37,10585,Berlin,"Mo-Sa 07:00-21:00; Su,PH off",Aldi Nord,,,,,,yes,,,,,,52.5121281,13.304891,
REWE,Köpenicker Straße,192-198,12683,Berlin,Mo-Sa 07:00 - 22:00,Rewe,,,,,,,,,+49 30 51652436,,https://www.rewe.de/marktseite/berlin-biesdorf/4040705/rewe-markt-koepenicker-strasse-192-196,52.48668,13.5596318,
Denns BioMarkt,Sonntagstraße,37,10245,Berlin,Mo-Su 07:00-22:00,Denns BioMarkt,,,,,,yes,no,,,,,52.5040299,13.4680454,
Bio Company,,,,,Mo-Sa 09:00-20:00,Bio Company,,,,,,yes,,,,,,52.4574657,13.3206336,
REWE l. Schilling,Tempelhofer Weg,11,12347,Berlin,Mo-Sa 07:00-22:00,Rewe,,,,,,yes,,,+49 30 62721960,,,52.4585713,13.4252698,
REWE,Pappelallee,47,10437,Berlin,Mo-Sa 07:00-22:00,Rewe,,,,,,yes,,,,,,52.5475761,13.4190984,
BOLU,Oranienburger Straße,90,13437,Berlin,Mo-Fr 07:00-20:00; Sa 07:00-18:00,,,,,,,,,,+49 30 437 210 02,,https://www.bolu.de,52.5962424,13.3331428,
Supercoop Friedenau,Odenwaldstraße,13,12161,Berlin,,,,,,,,,,,,,https://www.supercoop.bio/,52.4672068,13.3220012,
REWE,Heidestraße,41,10557,Berlin,Mo-Sa 07:00-22:00,Rewe,,yes,yes,yes,yes,yes,wlan,,,,https://www.rewe.de/angebote/berlin-mitte/1931630/rewe-markt-heidestrasse-41/,52.532281,13.3660391,
REWE,,,,,Mo-Fr 06:00-24:00; Sa 06:00-23:30,Rewe,,yes,,yes,,yes,,,,,,52.5008204,13.3247567,
Nova,Landsberger Allee,171,10369,Berlin,Mo-Sa 09:00-20:00,,,,,,,yes,,,,,https://nova-supermarkt.de/,52.5319562,13.46888,
Aldi,Saatwinkler Damm,8,13627,Berlin,Mo-Sa 07:00-22:00,ALDI Nord,,,,,,yes,,,,,,52.5389014,13.3270893,
Athi Devi Asia & Afro Supermarkt,Leykestraße,1,12053,Berlin,Mo-Fr 09:30-20:00; Sa 09:00-20:00,,,,,,,,,,,,,52.4747337,13.4280117,
Denns BioMarkt,Gartenstraße,85-87,,,Mo-Sa 08:00-21:00,Denns BioMarkt,,,,,,yes,,,,,https://www.denns-biomarkt.de/berlin-gartenstr-85-87/marktseite/,52.5329077,13.3877558,
Özen Kardeşler,,,,,,,,,,,,,,,,,,52.5156512,13.2938433,
Denns BioMarkt,Hauptstraße,29,10827,Berlin,Mo-Sa 08:00-21:00,Denns BioMarkt,,,,,,yes,,,+49 30 66508322,,,52.4853856,13.3542151,
Al Arabi,,,12167,,Mo-Sa 09:30-20:00,,,,,,,,,,,,,52.4523646,13.3324082,
EDEKA Fromm,Müllerstraße,12 a-c,13353,Berlin,Mo-Sa 07:00-22:00,Edeka,,yes,yes,yes,yes,yes,wlan,,+493043733785,,https://www.edeka.de/eh/minden-hannover/edeka-fromm-m%C3%BCllerstr.-12a-c/index.jsp,52.5428586,13.3658942,
EDEKA Schnelle,Alt-Stralau,66,10245,Berlin,Mo-Sa 07:00-21:00,Edeka,,,,,,yes,,,,,https://www.edeka.de/eh/minden-hannover/edeka-schnelle-alt-stralau-66/index.jsp,52.496736,13.4667344,
AlKaiser,Greifswalder Straße,162,10409,Berlin,,,,,,,,,,,,,,52.5425447,13.4399717,
Einkaufsmarkt,,,,,Mo-Fr 08:00-18:00; Sa 08:00-12:30,,,,,,,yes,,,,,,52.4521833,13.6022591,
Kosher Daily Markt,,,,,,,,,,,,,,,,,,52.4971604,13.311877,
Shiva Shop - Ayurveda Produkte,,,10589,,Mo-Fr 10:00-18:00; Sa 10:00-14:00,,,,,,,limited,,,+49 30 3447982,,https://www.shiva-shop.de/,52.5239973,13.2991114,
Zora Supermarket,Kottbusser Damm,93,,,Mo-Sa 08:00-20:00,,,,,,,,,,,,https://www.zorastore.de/,52.4936197,13.4219745,
REWE,Gorkistraße,11-21,13507,Berlin,Mo-Sa 07:00-22:00,Rewe,,,,,,yes,,,+49 30 403619790,,https://www.rewe.de/marktseite/berlin-stadt/1931629/rewe-markt-gorkistrasse-11-21/,52.5903309,13.2865672,
E-Center,Rosenthaler Straße,43-45,10178,Berlin,Mo-Sa 08:00-22:00,Edeka,,yes,yes,,,yes,wlan,,,,,52.5243627,13.403102,
Alnatura Super Natur Markt,Koppenstraße,8,10243,Berlin,Mo-Sa 08:00-21:00,Alnatura,,yes,yes,yes,yes,yes,,,,,https://www.alnatura.de,52.5126288,13.4341734,
Edeka Schaaf,Schillingstraße,2,10179,Berlin,Mo-Sa 07:00-22:00,Edeka,,,,,,yes,,,,,,52.5174568,13.4206829,
REWE,Kurfürstenstraße,46,10785,,Mo-Sa 07:00-22:00,Rewe,,,,,,yes,,,,,https://www.rewe.de/marktseite/berlin-tiergarten/1766175/rewe-markt-kurfuerstenstr-46/,52.5009959,13.3588252,
EDEKA Schmitt,Seesener Straße,31,10711,Berlin,Mo-Sa 06:00-23:00,Edeka,,,,,,yes,,,+49 30 88667641,,https://www.edeka.de/eh/minden-hannover/edeka-schmitt-seesener-str.-31/index.jsp,52.4967809,13.2903425,
PENNY,Scheibenbergstraße,20,12685,Berlin,Mo-Sa 07:00-21:00,Penny,,,,,,,,,,,,52.5390529,13.5566647,
REWE,Wildhüterweg,42-46,12353,Berlin,Mo-Sa 07:00-22:00,Rewe,,,,,,yes,,,+4930 66708723,,https://www.rewe.de,52.4220395,13.448772,
nah und gut,Eichhorster Weg,25,13435,Berlin,Mo-Sa 07:00-22:00,Edeka,,,,,,,,,+49 30 40728191,,,52.5987496,13.3429357,
Cocos Asia,,,,,Mo-Sa 10:00-20:00,,,yes,yes,,,no,,,,,,52.4933216,13.3840227,
Robinhood.store,Altenbraker Straße,16,12053,Berlin,Mo-Sa 10:30-20:00,,,,,yes,,,,,+49 (0) 30 814 570 250,,https://robinhood.store,52.4706754,13.4324184,
Denns BioMarkt,,,,,Mo-Sa 08:00-20:00,Denns BioMarkt,,,,,,yes,,,,,,52.6342759,13.4967371,
Zora,,,,,Mo-Fr 09:00-21:00; Sa 09:00-22:00; Su off,,,yes,yes,,,yes,,,,,,52.5080329,13.467354,
Denns BioMarkt,,,,,Mo-Sa 08:00-21:00,Denns BioMarkt,,,,yes,,,,,,,,52.490466,13.3862074,
Exo Markt Afroshop,,,,,,,,,,,,,,,,,,52.5672099,13.3294281,
EDEKA Görse & Meichsner,Handjerystraße,99,12159,Berlin,Mo-Sa 07:00-22:00,Edeka,,,,,,yes,,,+49 30 23628005,,https://www.edeka.de/eh/minden-hannover/edeka-g%C3%B6rse-meichsner-handjerystr.-98-99/index-2.jsp,52.4770954,13.3329979,
EDEKA Meissner,Leibnizstraße,96,10625,Berlin,"Mo-Sa 07:00-22:00; Su,PH off",Edeka,,,,,,,,,,,,52.5118228,13.3143192,
Denns BioMarkt,Hardenbergplatz,11,10623,Berlin,Mo-Fr 07:00-22:00; Sa-Su 08:00-22:00,Denns BioMarkt,,yes,yes,yes,,yes,,,+49 30 39 83 45 04,,https://www.biomarkt.de/berlin-hardenbergplatz-11/marktseite,52.5076158,13.3328469,
Penny am Lichtenrader Tor,,,,,Mo-Sa 07:00-21:00,Penny,,,,,,yes,,,,,,52.4040946,13.4057354,
Nahkauf,Gensinger Straße,83,10315,Berlin,Mo-Sa 07:00-20:00,Nahkauf,,,,,,,,,,,,52.5109897,13.535686,
Asia-Markt,,,,,"Mo-Sa 09:00-20:00; Su,PH off",,,yes,yes,,,yes,,,,,,52.5125603,13.3052829,
Aldi,Friedrichstraße,149,10117,Berlin,Mo-Sa 07:00-21:00; PH closed,Aldi Nord,,,,,,yes,,,,,,52.5188736,13.3879581,
Edeka,Hedwig-Dohm-Straße,4,10829,,Mo-Sa 07:00-21:00,EDEKA,,yes,yes,yes,,yes,,,+493041400242,,https://www.edeka.de/eh/minden-hannover/edeka-am-s%C3%BCdkreuz-hedwig-dohm-str.-4/index.jsp,52.4761489,13.3625151,
Asia Markt Kim-Chi,Rudower Chaussee,7,12489,Berlin,Mo-Fr 10:00-19:00; Sa 10:00-16:00,,,,,yes,yes,yes,,,+49 176 80082370; +49 1573 8815039,,,52.433239,13.537302,
World Exotic Foods,Herzbergstraße,128-139,10365,Berlin,Mo-Su 10:00-20:00; Tu off,,,,,,,,,,+49-30-53013770,,,52.530073,13.4886467,
World Exotic Fruits,Herzbergstraße,128-139,10365,Berlin,,,,,,,,,,,,,,52.528314,13.4903741,
Lidl,Boxhagener Straße,76,10245,Berlin,Mo-Sa 07:00-22:00,Lidl,,,,,,yes,wlan,,,,,52.5073888,13.4681862,
Bio Company,Schönhauser Allee,10,10119,Berlin,Mo-Sa 08:00-21:00; Su off,Bio Company,,,,yes,,yes,,,,,,52.5304435,13.4113699,
Edeka Marienburger Straße,Winsstraße,14a,10405,Berlin,"Mo-Fr 07:00-24:00, Sa 07:00-23:30; PH off",Edeka,,,,,,yes,,,,,,52.5339932,13.4261824,
REWE,Großbeerenstraße,62-64,12107,Berlin,Mo-Fr 06:00-24:00; Sa 06:00-23:30,REWE,,,,,,,,,,,,52.4342421,13.3769034,
E-Center,Schloßstraße,1,12163,Berlin,,Edeka,,,,,,,,,,,,52.4646955,13.3265184,
Edeka Treugut,,,,,Mo-Sa 07:00-22:00,Edeka,,,,,,yes,,,,,,52.4979385,13.3630995,
NHI Global Food Market,,,,,,,,,,,,yes,,,,,,52.5330253,13.3674405,
Supermarkt Ali Baba,Dörpfeldstraße,31,,,"Mo-Sa 09:00-20:00; Su,PH off",,,no,no,yes,,no,no,,,,,52.4374569,13.5471333,
EDEKA,Fürstenberger Straße,8,10435,Berlin,Mo-Fr 07:00-22:00,Edeka,,yes,yes,yes,,limited,,,+49 30 20977919,,,52.5375317,13.405478,
Bio Company,Lichtenrader Damm,83,12305,,Mo-Sa 08:00-20:00,Bio Company,,,,,,yes,,,+49 30 439750740,,https://www.biocompany.de/bio-company-markt-finden/l/berlin/lichtenrader-damm-83/3541377,52.4063662,13.4062262,
Asia Lebensmittel - Obst & Gemüse,,,,,Mo-Fr 07:30-19:00; Sa 07:30-17:00; Su off,,,,,,,yes,,,,,,52.4235258,13.4356573,
Netto Marken-Discount,Alt-Moabit,86 A,10555,Berlin,Mo-Sa 07:00-22:00,Netto Marken-Discount,,,,,,yes,,,,,https://www.netto-online.de/filialen/Berlin-Tiergarten/Alt-Moabit-86-a/5871/,52.5253649,13.3418717,
REWE,Daumstraße,90,13599,Berlin,"Mo-Sa 07:00-22:00; Su,PH off",Rewe,,,,yes,yes,yes,wlan,,+49 30 220138360,,https://www.rewe.de/marktseite/berlin-haselhorst/5100025/rewe-markt-daumstr-90,52.5546676,13.2260964,
Aldi,Heidestraße,17,10557,Berlin,Mo-Sa 08:00-20:00,Aldi Nord,,yes,yes,yes,,yes,,,+49 800 7234870,,https://www.aldi-nord.de/filialen-und-oeffnungszeiten.html/l/berlin/heidestrasse-17/3611452,52.5334703,13.3657883,
Amini Supermarkt,Yorckstraße,75,,,,,,,,,,limited,,,,,,52.4928521,13.3819581,
REWE,Marchwitzastraße,29,12681,Berlin,Mo-Sa 07:00-22:00,REWE,,,,yes,yes,,,,,,https://www.rewe.de/marktseite/berlin-marzahn/9300003/rewe-markt-marchwitzastr-29?ecid=seo_localseo_9300003_g_nn_nn_nn_nn_nn,52.5231528,13.5445629,
REWE,Pankstraße,32-39,13357,Berlin,Mo-Sa 07:00-22:00,Rewe,,yes,yes,,yes,yes,wlan,,+49 30 346461800,,https://www.rewe.de/marktseite/berlin/410561/rewe-markt-pankstr-39/,52.5494467,13.3777062,
Makka,,,,,,,,,,,,yes,,,,,,52.5301528,13.3455428,
Rewe,Kurfürstendamm,146-147,10709,Berlin,Mo-Fr 06:00-24:00; Sa 06:00-23:30,Rewe,,,,,,yes,,,+4930519998970,,,52.4983384,13.2997798,
Nahkauf,Kiehlufer,75-79,12059,Berlin,Mo-Sa 07:00-23:00,Nahkauf,,,,,,yes,,,,,,52.4838082,13.4478902,
REWE,Friedrichstraße,111,10117,Berlin,Mo-Sa 07:00-22:00,Rewe,,yes,yes,yes,yes,yes,,,+4930519999880,,,52.525331,13.3893156,
Kosher4all,,,,,,,,,,,,,,,,,,52.50061,13.3054449,
Aldi,,,,,Mo-Sa 07:00-21:00,Aldi Nord,,,,,,yes,,,,,,52.5883804,13.4022564,
Netto Marken-Discount,Rudower Straße,84-88,12351,Berlin,Mo-Sa 07:00-21:00,Netto Marken-Discount,,,,,,,,,,,https://www.netto-online.de/filialen/Berlin-Neukoelln/Rudower-Str-84-88/5834/,52.4366539,13.4631486,
Bio Company,,,,,Mo-Sa 08:00-21:00,Bio Company,,,,,,yes,,,,,,52.5106128,13.4164123,
Sparfood Gutes Gern Günstig,,,,,,,,,,,,,,,,,,52.4473516,13.6172111,
EDEKA Zahl,Helmholtzstraße,3 c,10587,Berlin,Mo-Sa 07:00-22:00,Edeka,,,,,,yes,wlan,,,,,52.5201626,13.3198466,
Edeka Lenkeit,An der alten Gärtnerei,1,12109,Berlin,Mo-Sa 07:00-21:00,EDEKA,,,,,,,,,+49 30 586930950,,,52.4395336,13.4093372,
Lidl,Ontarioseestraße,17,10319,Berlin,Mo-Sa 07:00-22:00,Lidl,,,,,,yes,,,,,https://www.lidl.de/f/berlin-lichtenberg/friedrichsfelde-ontarioseestr-17.html,52.4950988,13.522651,
REWE,Germaniastraße,12-13,12099,Berlin,"Mo-Sa 06:00-22:00; Su,PH off",REWE,,,,,,yes,wlan,,+49 30 75705090,,https://www.rewe.de/marktseite/berlin-tempelhof/1931134/rewe-markt-germaniastr-12-13/,52.4646687,13.3950555,
PENNY Dardanellenweg,Dardanellenweg,50,12109,Berlin,Mo-Sa 07:00-22:00,Penny,,,,,,yes,,,,,https://www.penny.de/markt/berlin/562238/penny-dardanellenweg-dardanellenweg-50,52.4446581,13.4078396,
EDEKA Lenkeit,Rixdorfer Straße,69,12109,Berlin,Mo-Sa 07:00-22:00,EDEKA,,,,,,no,,,+49 30 70171902,,,52.4478095,13.4046472,
EDEKA Gayermann,Marienfelder Chaussee,143,12349,Berlin,Mo-Sa 07:00-22:00,Edeka,,,yes,yes,,yes,,,+49 30 7425060,,https://www.edeka.de/eh/minden-hannover/edeka-gayermann-marienfelder-chaussee-143,52.4154025,13.4062078,
REWE,Oberspreestraße,145,12555,Berlin,Mo-Fr 06:00-24:00; Sa 06:00-23:30; PH off,Rewe,,,,,,yes,wlan,,+49 30 34354364,,https://www.rewe.de/marktseite/berlin-koepenick/1931108/rewe-markt-oberspreestr-145/,52.446092,13.5641295,
Lidl,Steglitzer Damm,95,12169,Berlin,Mo-Sa 07:00-21:00,Lidl,,,,,,yes,,,,,https://www.lidl.de/f/berlin-steglitz-zehlendorf/steglitz-steglitzer-damm-95.html,52.449956,13.3545317,
Aldi,Potsdamer Chaussee,33,14129,Berlin,Mo-Sa 07:00-21:00,ALDI Nord,,,,,,limited,,,,,,52.4280537,13.2148926,
Bio Company,Wiesenschlag,4,14129,Berlin,Mo-Sa 08:00-20:00,Bio Company,,,,,,,wlan,,+49 30 311755610,,,52.4273376,13.2176908,
REWE,Breisgauer Straße,3A,14129,Berlin,Mo-Sa 06:00-22:00; PH off,Rewe,,,,,,limited,,,+49 30 36752083,,,52.4395154,13.2157993,
Aldi,Breisgauer Straße,1B,14129,Berlin,Mo-Sa 07:00-21:00; PH off,Aldi Nord,,,,,,limited,,,,,,52.4396507,13.2167289,
Lidl,Kiefholzstraße,189,12437,Berlin,Mo-Sa 07:00-22:00,Lidl,,yes,yes,yes,,yes,wlan,,,,https://www.lidl.de/f/berlin-treptow-koepenick/baumschulenweg-kiefholzstr-189.html,52.46412,13.4875648,
Netto Marken-Discount,Dammweg,56,12435,Berlin,Mo-Sa 07:00-22:00,Netto Marken-Discount,,,,,,,wlan,,,,https://www.netto-online.de/filialen/Berlin-Treptow/Dammweg-56/5544/,52.4792393,13.481201,
Netto Marken-Discount,Neue Grottkauer Straße,3,12619,Berlin,Mo-Sa 07:00-22:00; PH off,Netto Marken-Discount,,,,,,yes,,,,,https://www.netto-online.de/filialen/Berlin-Hellersdorf/Neue-Grottkauer-Strasse-3/5900/,52.5297046,13.5921419,
Asia24,Herzbergstraße,128 - 139,10365,,We-Mo 08:00-20:00,,,,,,,,,,+49 (0)30 55491753,,https://asia24-lifefood.de/,52.5276643,13.488704,
Aldi,Bismarckstraße,17,12169,,Mo-Sa 07:00-21:00,ALDI Nord,,,,,,yes,,,,,https://www.aldi-nord.de/filialen-und-oeffnungszeiten.html/l/berlin/bismarckstrasse-17/3181945,52.4560479,13.3379865,
Addalat,,,,,,,,,,,,yes,,,,,,52.4759696,13.4397182,
Almahaba,,,,,,,,,,,,,,,,,,52.4764873,13.4394939,
EDEKA Skalitzer Straße,Skalitzer Straße,122,10999,Berlin,Mo-Sa 07:00-22:00,Edeka,,,,,,yes,,,+49 30 33308719,,https://www.edeka.de/eh/minden-hannover/edeka-skalitzer-stra%C3%9Fe-skalitzer-str.-122/index.jsp,52.4993451,13.4222008,
Hamdan,,,,,,,,,,,,,,,,,,52.5250926,13.4668055,
Lidl,Marzahner Chaussee,201,12681,Berlin,Mo-Sa 07:00-21:00,Lidl,,,,,,yes,,,,,,52.5249554,13.5332762,
nah und gut Janoschek,Waldsassener Straße,42A,12279,Berlin,Mo-Fr 08:00-20:00; Sa 08:00-14:00,EDEKA,,,,,,yes,,,+49 30 7115052,,https://www.edeka.de/,52.408488,13.3500697,
Asia Might,,,,,,,,,,,,,,,,,,52.4337374,13.4686513,
Go Asia,,,,,Mo-Sa 09:00-20:00,Go Asia,,,,,,no,,,,,https://goasia.net/de/store_list/berlin-frankfurter-allee,52.5142829,13.4712425,
Lidl,Oberlandstraße,17,12099,Berlin,Mo-Sa 07:00-21:00,Lidl,,,,,,yes,,,,,https://www.lidl.de/f/berlin-tempelhof-schoeneberg/tempelhof-oberlandstr-17.html,52.4651646,13.4162852,
Alsaadeh Market,,,,,,,,,,,,,,,,,,52.4691883,13.3415881,
Supermarkt Al Qubitry,,,,,Mo-Sa 09:00-18:00,,,,,,,,,,,,,52.4504068,13.3420791,
EDEKA Gayermann,Barnetstraße,41,12305,Berlin,Mo-Sa 07:00-22:00,EDEKA,,yes,yes,,yes,yes,,,+49 30 70073515,,https://www.edeka.de/eh/minden-hannover/edeka-gayermann-barnetstr.-41-42/index.jsp,52.3982545,13.3911351,
Lidl,Nuthestraße,5,12307,Berlin,Mo-Sa 07:00-21:00,Lidl,,,,,,limited,,,,,,52.3973864,13.3912786,
Penny,Askanierring,40-41,13585,Berlin,Mo-Sa 07:00-22:00,Penny,,,,,,yes,,,,,,52.5479194,13.1943753,
Bio Company,,,,,Mo-Sa 08:00-20:00,Bio Company,,yes,yes,yes,,,,,,,,52.523023,13.464467,
Saigon Taste,,,,,,,,,,,,,,,,,,52.5297298,13.42506,
Netto,Elfriede-Tygör-Straße,5,10319,Berlin,Mo-Sa 07:00-20:00,Netto,,,,,,limited,,,,,,52.5040888,13.519633,
REWE Rocco Bräsemann,Malteserstraße,136,12249,Berlin,Mo-Sa 07:00-22:00,Rewe,,,,,,yes,,,+49 30 76683723,,,52.4208158,13.3595219,
Exo Markt,,,,,,,,,,,,,,,,,,52.5664697,13.3298797,
Hayal Supermarkt,,,,,,,,,,,,,,,,,,52.5650484,13.3281349,
Zora,Bouchéstraße,39,,,Mo-Sa 09:30-21:30,,,,,,,yes,,,,,https://www.zorastore.eu,52.4876817,13.444187,
Vinh-Loi,,,,,,,,,,,,,,,,,,52.4556476,13.3862597,
Denns BioMarkt,Turmstraße,29,10551,Berlin,"Mo-Sa 08:00-21:00; Su,PH off",Denns BioMarkt,,,yes,yes,,yes,,,,,,52.5264982,13.3421363,
Rewe,Hallesches Ufer,40,10963,Berlin,"Mo-Fr 06:00-24:00, Sa 06:00-23:30; Su,PH off",Rewe,,,,,,yes,,,,,,52.4998312,13.3845722,
deli am Markt,,,,,Mo-Fr 06:00-17:30; Sa 06:00-16:30,,,,,,,,,,,,,52.5437602,13.441346,
Schweden-Markt,Clayallee,347a,14169,Berlin,,,,,,,,,,,,,https://www.schweden-markt.de/,52.4362985,13.260435,
kleene Bio Company,,,,,Mo-Sa 08:00-20:00,,,,,,,,,,,,,52.570312,13.4052755,
Aldi,Hauptstraße,37,13127,Berlin,Mo-Sa 07:00-21:00,ALDI Nord,,,,,,yes,,,,,,52.612039,13.4344649,
Lidl,Kurfürstendamm,231,10719,Berlin,Mo-Sa 07:00-21:00,Lidl,,,,,,yes,,,+49 800 4353361,,https://www.lidl.de,52.5037195,13.3331254,
Galeria Markthalle,,,10967,Berlin,Mo-Sa 08:00-20:00,Galeria,,yes,,yes,,,,,+49 (0)30 6955 2490,,https://www.galeria-markthalle.de,52.4872366,13.4238024,
Aldi,Hoeppnerstraße,3-13,12101,Berlin,Mo-Sa 07:00-21:00,Aldi Nord,,yes,yes,,,limited,,,+49 800 7234870,,https://www.aldi-nord.de/filialen-und-oeffnungszeiten.html/l/berlin/hoeppnerstrasse-3-13/3181724,52.471402,13.3840621,
Nah und Gut,Breisgauer Straße,20,14129,Berlin,Mo-Fr 08:00-20:00 Sa 08:00-18:00,Edeka,,,,yes,,,,,03080109143,,,52.436621,13.215871,
EDEKA Kelz,Franz-Mehring-Platz,6,10243,Berlin,Mo-Sa 07:00-21:00,Edeka,,,,,,,,,+49 3084418726,,https://www.edeka.de/eh/minden-hannover/edeka-kelz-franz-mehring-platz-6/index.jsp,52.5142024,13.4379257,
Netto Marken-Discount,Otto-Schmirgal-Straße,3,10319,Berlin,"Mo-Sa 07:00-22:00; Su, PH off",Netto Marken-Discount,,,,,,yes,,,,,,52.4973075,13.5205945,
Edeka,,,,,Mo-Sa 07:00-22:00,Edeka,,yes,yes,,,yes,,,,,,52.4795197,13.4375275,
EDEKA Korkmaz,Osnabrücker Straße,27,10589,,Mo-Sa 09:00-21:00,Edeka,,,,,,,,,,,https://www.edeka.de/,52.5255904,13.301564,
Kaufland,,,,,"Mo-Sa 07:00-22:00; Su, PH off",Kaufland,,,,,,yes,,,,,,52.4292235,13.4548179,
Berlin Market,,,,,,,,,,,,,,,,,,52.4641576,13.4329347,
Baraka Supermarkt,,,,,,,,,,,,,,,,,,52.5532459,13.3475192,
Lidl,,5-10,10967,Berlin,Mo-Sa 07:00-21:00,Lidl,,,,,,,,,,,,52.4869358,13.4239098,
Bio Frischemarkt Grünschnabel,Steinstraße,37,12307,Berlin,Mo-Fr 07:00-20:00; Sa 08:00-18:00; PH off,,,,,,,,,,,info@biolichtenrade.de,,52.3881153,13.3979986,
Edeka,Falkenberger Chaussee,99,13059,,,,,,,,,,,,,,,52.5687098,13.5169909,
Rewe,Friedrichstraße,111,10117,,Mo-Sa 07:00-22:00,Rewe,,,,,,,,,,,https://www.rewe.de/marktseite/berlin-mitte/1762009/rewe-markt-friedrichstr-111/,52.5254978,13.3887617,
EDEKA,Lehrter Straße,24,10557,Berlin,Mo-Sa 07:00-21:00,Edeka,,,yes,yes,,yes,,,+49 30 340429360,,,52.5311733,13.3618836,
LEDO,Magistratsweg,13,,,Mo-Sa 08:00-20:00,,,,,,,,,,,,,52.5221014,13.162059,
BD,,,,,,,,,,,,,,,,,,52.5132322,13.4730347,
Penny,,,,,Mo-Sa 07:00-22:00,,,,,,,,,,,,,52.4698339,13.4411789,
Denns Biomarkt,Kissinger Straße,1 - 2,14199,,Mo-Sa 08:00-21:00,,,,,,,,,,+49 30 75779772,,https://www.biomarkt.de/berlin-kissinger-str-1-2/marktseite/,52.4791632,13.2862004,
Rewe,,,,,Mo-Sa 07:00-22:00,,,,,,,,,,,,,52.3792948,13.6433837,
REWE,Kantstraße,111,10627,Berlin,Mo-Fr 06:00-24:00; Sa 06:00-23:30,Rewe,,yes,,yes,,yes,,,,,,52.5064104,13.3070913,
Lifl,Tempelhofer Damm,187,,,,,,,,,,,,,,,,52.4595722,13.38488,
REWE,Schivelbeiner Straße,38,10439,Berlin,Mo-Sa 07:00-23:30; 2024 Dec 22 13:00-18:00; PH off,Rewe,multipolygon,yes,yes,yes,,yes,,,,,https://www.rewe.de,52.55048416241368,13.409728591229088,
Lidl,Quitzowstraße,23,10559,Berlin,Mo-Sa 07:00-21:00,Lidl,multipolygon,,,,,yes,,,,,,52.535782143854625,13.352704392027466,
Lidl,Bergstraße,86,,,Mo-Sa 07:00-21:00,Lidl,multipolygon,,,,,yes,,,+49 800 4353361,,https://www.lidl.de/f/berlin/bergstrasse-86.html,52.45857541373976,13.330122378347994,
Bereket Market,,,,,,,multipolygon,,,,,yes,,,,,,52.42613918858929,13.46272001492555,
Edeka,Ollenhauerstraße,107,13403,Berlin,Mo-Sa 07:00-21:00,Edeka,,,,,,yes,,,+4930 4174928 0,,https://www.edeka.de/eh/minden-hannover/edeka-frede-ollenhauerstr.-107/index.jsp,52.570154205010425,13.32793509219595,
Kaufland,Ollenhauerstraße,122,13403,Berlin,Mo-Fr 07:00-24:00; Sa 07:00-23:30,Kaufland,,,,,,yes,,,+49 30417056690,,https://filiale.kaufland.de/service/filiale/berlin-reinickendorf-1980.html,52.56765928396603,13.328650865088811,
CAP-Markt,Rüdigerstraße,75,10365,Berlin,"Mo-Fr 07:00-20:00, Sa 07:00-18:00",CAP,,,,,,yes,,,,,,52.51562244725777,13.501669972006729,
REWE City,Im Winkel,39,14195,Berlin,Mo-Sa 06:00-22:00,Rewe,,yes,yes,yes,yes,yes,,,,,,52.45849626126469,13.292457521751807,
Lidl,Cecilienstraße,161,12683,Berlin,Mo-Sa 07:00-21:00,Lidl,,,,,,yes,,,,,,52.529109181091194,13.571024060843978,
Netto Marken-Discount,Cecilienstraße,164,12683,Berlin,Mo-Sa 07:00-22:00,Netto Marken-Discount,,,,,,yes,,,,,https://www.netto-online.de/filialen/Berlin-Biesdorf/Cecilienstr-164/5306/,52.52799327072934,13.570119130502578,
EDEKA Peth,Holländerstraße,70,13407,Berlin,Mo-Fr 07:00-19:00; Sa 07:00-18:00,Edeka,,,,,,yes,,,,,,52.56305093823723,13.343064504424953,
Netto Marken-Discount,Fürstenwalder Allee,8,12589,Berlin,Mo-Sa 07:00-20:00,Netto Marken-Discount,,,,,,yes,,,,,,52.44208255409309,13.685153864416407,
Kale Gida,Streitstraße,59,13587,Berlin,,,,,,,,yes,,,,,,52.56126785679192,13.20785321591079,
Netto Marken-Discount,Adlergestell,271,12489,Berlin,Mo-Sa 07:00-21:00; PH off,Netto Marken-Discount,,,,,,yes,wlan,,+49 30 67 06 87 48,,https://www.netto-online.de/filialen/Berlin-Treptow/Adlergestell-271/7426/,52.43358711557498,13.545510210143746,
Aldi,Otto-Franke-Straße,98,12489,Berlin,Mo-Sa 07:00-20:00,Aldi Nord,,,,,,yes,,,,,https://www.aldi-nord.de/filialen-und-oeffnungszeiten.html/l/berlin/otto-franke-strasse-98/3182134,52.432482463770214,13.547225510008552,
Lidl,Adlergestell,291,12489,,Mo-Sa 07:00-21:00,Lidl,,,,yes,,yes,wlan,,,,https://www.lidl.de/,52.43133490677665,13.548154502925836,
Aldi,Weinstraße,9,10249,Berlin,Mo-Sa 07:00-21:00,Aldi Nord,,,,,,limited,,,,,https://www.aldi-nord.de/filialen-und-oeffnungszeiten.html/l/berlin/weinstrasse-9/3181628,52.526409189629796,13.426681088062798,
Lidl,Märkische Allee,276,12679,Berlin,Mo-Sa 07:00-21:00; PH off,Lidl,,,,,,yes,,,,,,52.55637700740766,13.55439817567654,
Lidl,Heinrich-Heine-Straße,70,10179,Berlin,Mo-Sa 07:00-22:00,Lidl,,,,,,yes,,,,,,52.50658527942401,13.412528744478323,
EDEKA,Heerstraße,284,13595,Berlin,Mo-Sa 07:00-21:30,EDEKA,,,,,,yes,,,,,,52.5156062535196,13.186233594764905,
NORMA,,,,,,NORMA,,,,,,yes,,,,,,52.59663195184765,13.290752889053595,
Lidl,Waidmannsluster Damm,1,13507,Berlin,Mo-Sa 07:00-21:00,Lidl,,,,,,yes,,,,,,52.59439619506445,13.282073279065754,
PENNY,,,,,Mo-Sa 07:00-22:00,Penny,,,,,,yes,,,,,,52.571995696502206,13.3594314251426,
PENNY,Ruppiner Chaussee,243,13503,Berlin,Mo-Sa 07:00-21:00,Penny,,,,yes,,limited,,,,,https://www.penny.de/,52.61499385443292,13.243698463108698,
Edeka,Ruppiner Chaussee,301,13503,Berlin,Mo-Sa 07:00-22:00,Edeka,,,,,,yes,,,+49 30 43662800,,https://www.edeka.de/eh/minden-hannover/edeka-tozlu-ruppiner-chaussee-301/index.jsp,52.61838669090753,13.239055930770704,
Netto Marken-Discount,,,,,Mo-Sa 07:00-22:00,Netto Marken-Discount,,,,,,yes,,,,,https://www.netto-online.de/filialen/Berlin-Reinickendorf/Residenzstr-112/7611/,52.56456449029789,13.364549455000487,
Lidl,Alt-Kaulsdorf,56,12621,Berlin,Mo-Sa 07:00-21:00; PH off,Lidl,,,,,,yes,wlan,,,,https://www.lidl.de/,52.504298128873636,13.589229952791216,
Lidl,Berliner Straße,26/27,10715,Berlin,Mo-Sa 08:00-22:00,Lidl,,,,,,yes,,,,,https://www.lidl.de/,52.486780547250305,13.324942240795117,
Edeka Berliner Straße,Berliner Straße,25,10715,Berlin,Mo 07:00-24:00; Tu-Fr 00:00-24:00; Sa 00:00-23:00,Edeka,,,,,,yes,,,+493086391920,,https://www.edeka.de/eh/minden-hannover/edeka-berliner-straße-berliner-str.-24-25/index.jsp,52.48692968684796,13.325544356957794,
Netto Marken-Discount,Gerichtstraße,60-61,13347,Berlin,Mo-Sa 07:00-22:00,Netto Marken-Discount,,yes,yes,,,yes,wlan,,,,https://www.netto-online.de/filialen/Berlin-Wedding/Reinickendorfer-Strasse-16/7610/,52.54389415704751,13.37091512439144,
Netto Marken-Discount,Holzhauser Straße,48,13509,Berlin,Mo-Sa 07:00-21:00,Netto Marken-Discount,,,,,,yes,,,,,https://www.netto-online.de/filialen/Berlin-Tegel/Holzhauser-Str-48/7687/,52.57916020383855,13.301588143391461,
Aldi,Holzhauser Straße,26-32,13509,Berlin,Mo-Sa 07:00-21:00,Aldi Nord,,,,,,yes,,,,,https://www.aldi-nord.de,52.577797772140634,13.298865370517165,
Netto Marken-Discount,Hänselstraße,71,12437,Berlin,"Mo-Sa 07:00-20:00; Su,PH off",Netto Marken-Discount,,,,,,yes,,,,,https://www.netto-online.de/filialen/Berlin-Treptow/Haenselstr-71/7512/,52.470612651035246,13.479347048502243,
NORMA,Märkische Allee,344a,12689,Berlin,Mo-Sa 07:00-21:00,NORMA,,,,,,yes,,,,,,52.566876354101225,13.563151450221927,
Lidl,Seeburger Straße,18,13581,Berlin,"Mo-Sa 07:00-21:00; Su,PH off",Lidl,,,,,,yes,,,+49 800 4353361,,https://www.lidl.de/filialen/berlin-spandau/spandau-seeburger-str-18.html,52.52842017531814,13.188119309375372,
Netto Marken-Discount,Attilastraße,60,12105,Berlin,Mo-Sa 07:00-21:00,Netto Marken-Discount,,,,,,yes,,,,,https://www.netto-online.de/filialen/Berlin-Tempelhof/Attilastr-60/7737/,52.448679612955125,13.362701825520848,
Lidl,Kaiser-Wilhelm-Straße,127,12247,Berlin,Mo-Sa 07:00-21:00,Lidl,,,,,,yes,,,,,,52.44101665458868,13.353178474521302,
Aldi,Josef-Orlopp-Straße,22-24,10367,Berlin,Mo-Sa 07:00-20:00,Aldi Nord,,,,,,yes,,,,,,52.5224148618218,13.48420586456228,
Netto Marken-Discount,Straße der Pariser Kommune,10,10243,Berlin,Mo-Sa 07:00-22:00; PH off,Netto Marken-Discount,,,,,,yes,,,,,https://www.netto-online.de/filialen/Berlin-Friedrichshain/Str-d-Pariser-Kommune10/7770/,52.51046657518123,13.43770361716054,
Kaufland,Romain-Rolland-Straße,13,13089,Berlin,Mo-Sa 07:00-22:00,Kaufland,,,,,,yes,,,+49 30 4790740,,https://www.kaufland.de/,52.563951764286536,13.444916929070615,
Rewe,Bartningallee,3,10557,Berlin,Mo-Sa 07:00-22:00,Rewe,,,,yes,,yes,wlan,,,,https://www.rewe.de/marktseite/berlin-hansaviertel/440960/rewe-markt-bartningallee-3/,52.518802664183404,13.342285603414691,
Netto Marken-Discount,Gounodstraße,92,13088,Berlin,Mo-Sa 07:00-21:00,Netto Marken-Discount,,,,,,yes,,,,,https://www.netto-online.de/filialen/Berlin-Weissensee/Gounodstr-92/7604/,52.54790630273995,13.46437801114359,
Lidl,Prenzlauer Promenade,65-67,13089,Berlin,Mo-Sa 07:00-21:00,Lidl,,,,,,yes,,,,,,52.567463361235845,13.42856275975803,
EDEKA Schnelle,Andreasstraße,59,10243,Berlin,Mo-Sa 07:00-21:00,Edeka,,,,,,yes,,,,,https://www.edeka.de/eh/minden-hannover/edeka-schnelle-andreasstr.-59/index.jsp,52.51487097667842,13.431260913313983,
Lidl,Späthstraße,162,12359,Berlin,Mo-Sa 07:00-21:00,Lidl,,,,,,yes,,,,,https://www.lidl.de/f/berlin-neukoelln/britz-spaethstr-162.html,52.45321503701129,13.454751918332997,
Aldi,Späthstraße,15,12359,Berlin,Mo-Sa 07:00-21:00,ALDI Nord,,,,,,yes,,,+49 0800 7234870,,,52.452262582888125,13.4557116155999,
Netto Marken-Discount,Späthstraße,12,12359,Berlin,Mo-Sa 07:00-21:00,Netto Marken-Discount,,,,,,,,,+49 30 60259531,,https://www.netto-online.de/filialen/Berlin-Rudow/Spaethstr-12/7746/,52.45217893469217,13.454993869439397,
Aldi,Salchendorfer Weg,1,13583,Berlin,Mo-Sa 07:00-21:00,ALDI Nord,,,,,,yes,,,,,,52.54606330052231,13.1778660604801,
EDEKA,Falkenseer Chaussee,239,13583,Berlin,"Mo-Sa 07:00-22:00; PH,Su off",EDEKA,,,,,,yes,,,,,,52.54814683438073,13.177103814218903,
Aldi,Kreuzbergstraße,39,10965,Berlin,Mo-Sa 07:00-21:00,Aldi Nord,,,,,,yes,,,,,,52.49029373352611,13.375008196788333,
Lidl,Gutschmidtstraße,101,12359,,Mo-Sa 07:00-21:00,Lidl,,,,,,limited,,,,,,52.439439525533814,13.436724883808845,
Netto,Schnellerstraße,88,12439,Berlin,"Mo-Sa 08:00-20:00; Su,PH off",Netto,,,,,,yes,,,,,,52.45259744010089,13.529885335306275,
Lidl,Kaiser-Wilhelm-Straße,6,12247,Berlin,Mo-Sa 08:00-20:00,Lidl,,,,,,yes,,,,,,52.430336532319124,13.333105388939359,
Kaufland,Schöneberger Straße,7,12103,Berlin,Mo-Sa 07:00-22:00,Kaufland,,,,,,yes,,,+49 30 7109610,,https://filiale.kaufland.de/service/filiale/berlin-tempelhof-1960.html,52.46805953320563,13.37704863334237,
Netto,Müllerstraße,10-11,13353,Berlin,Mo-Sa 08:00-21:00,Netto,,,,,,yes,,,,,https://www.netto.de/,52.54255917814132,13.367671777015785,
Doppelpack SB-Markt,Lahnstraße,33,12055,Berlin,Mo-Fr 08:00-18:00; Sa 09:00-16:00,,,,,,,,,,,,http://www.doppel-pack.de/,52.46774857273114,13.44873794318976,
Aldi,Hildburghauser Straße,248,12207,Berlin,Mo-Sa 07:00-21:00,Aldi Nord,,,,,,yes,,,,,https://www.aldi-nord.de/filialen-und-oeffnungszeiten.html/l/berlin/hildburghauser-strasse-248/3181372,52.41983448838553,13.314451459723992,
EDEKA Colombino,Hildburghauser Straße,252,12207,Berlin,Mo-Sa 08:00-20:00,Edeka,,,,,,yes,,,+49 30 206131910,,https://www.edeka.de/eh/minden-hannover/edeka-colombino-hildburghauser-str.-244-252/index.jsp,52.420868685475206,13.313886423552933,
Penny,Tempelhofer Damm,24,12101,Berlin,Mo-Sa 06:30-22:00,Penny,,,,,,yes,,,,,,52.48088359277201,13.384899727601947,
Lidl,Prinzenallee,75-77,13357,Berlin,Mo-Sa 07:00-22:00,Lidl,,,,,,limited,,,+49 800 4353361,,https://www.lidl.de/,52.55516072748797,13.382456835440532,
Aldi,Rüdersdorfer Straße,65,10243,Berlin,Mo-Sa 07:00-22:00,Aldi Nord,,,,,,yes,,,,,,52.5111144538517,13.445554174502384,
Lidl,Säntisstraße,49,12277,Berlin,Mo-Sa 07:00-21:00,Lidl,,,,,,yes,,,+49 800 4353361,,https://www.lidl.de/filialen/berlin-tempelhof-schoeneberg/marienfelde-saentisstr-49.html,52.41917163613341,13.390739068754097,
Aldi,Richard-Tauber-Damm,6,12277,Berlin,Mo-Sa 07:00-21:00,Aldi Nord,,,,,,yes,,,,,https://www.aldi-nord.de/filialen-und-oeffnungszeiten.html/l/berlin/richard-tauber-damm-6/3180597,52.41852355618415,13.390776654842096,
REWE,Köthener Straße,1-3,12689,Berlin,Mo-Sa 07:00-22:00,Rewe,,,,,,yes,,,+49 30 93022672,,,52.568557819744214,13.55678193049376,
Netto Marken-Discount,,,,,Mo-Sa 07:00-21:00,Netto Marken-Discount,,,,,,yes,,,,,https://www.netto-online.de/filialen/Berlin-Tegel/Scharnweberstr-120/7697/,52.564804646795906,13.321952366864197,
Lidl,Roedernallee,49;50,13407,Berlin,Mo-Sa 07:00-21:00,Lidl,,,,,,yes,,,,,,52.58632383706948,13.342233647049591,
REWE,Brodowiner Ring,8,12679,Berlin,Mo-Sa 07:00-22:00,REWE,,,,,,yes,,,,,,52.550247426152275,13.578361216889938,
Kaufland,Residenzstraße,85,13409,Berlin,Mo-Fr 07:00-24:00; Sa 07:00-23:30,Kaufland,,,,,,yes,,,+49 30 499870870,,https://www.kaufland.de/,52.558987955374576,13.37360539441305,
Lidl,Friedrich-Karl-Straße,2,13403,Berlin,Mo-Sa 07:00-21:00,Lidl,,,,,,yes,,,,,,52.56468066500238,13.329587435604992,
Netto Marken-Discount,Mollstraße,19,10249,Berlin,Mo-Sa 07:00-21:00,Netto Marken-Discount,,,,,,yes,,,,,https://www.netto-online.de/filialen/Berlin-Mitte/Mollstr-19/7674/,52.52349948685317,13.426495042376276,
Netto Marken-Discount,Schillingstraße,1A,10179,Berlin,Mo-Sa 07:00-22:00,Netto Marken-Discount,,,,,,yes,wlan,,,,https://www.netto-online.de/filialen/Berlin-Mitte/Schillingstrasse-1-a/7545/,52.516791217604236,13.42030544114406,
Aldi,Dorfstraße,22,13059,Berlin,Mo-Sa 07:00-20:00,ALDI Nord,,,,,,yes,,,,,,52.575302705771435,13.519581461323266,
Intermarkt Stolitschniy,Landsberger Allee,116,10369,Berlin,Mo-Sa 08:00-21:00,,,,,,,yes,,,,,,52.52866764761008,13.45960909806148,
CAP-Markt,Robert-Siewert-Straße,97,10318,Berlin,"Mo-Fr 07:00-20:00, Sa 07:00-16:00",CAP,,,,,,yes,,,+493050012604,,https://www.cap-markt.de/,52.493213584501554,13.537329259961668,
EDEKA,Wiesbadener Straße,53-55,14197,Berlin,Mo-Fr 08:00-24:00; Sa 08:00-23:00,EDEKA,,yes,,yes,,yes,,,,edeka.wiesbadenerstrasse@minden.edeka.de,,52.473476891308714,13.302274855383677,
Rewe,Am Tierpark,68,10319,Berlin,Mo-Sa 07:00-22:00; PH off,Rewe,,,,,,yes,,,,,,52.49833152856191,13.52168479322256,
Lidl,Grabbeallee,27/29,13156,Berlin,Mo-Sa 07:00-21:00,Lidl,,,,,,yes,,,+49 800 4353361,,https://www.lidl.de/,52.573760694585516,13.3985496797334,
Lidl,Kiefholzstraße,386,12435,Berlin,Mo-Sa 07:00-21:00,Lidl,,,,,,yes,wlan,,+49 800 4353361,,https://www.lidl.de/filialen/berlin-treptow-koepenick/plaenterwald-kiefholzstr-386.html,52.4843996786163,13.461774658750992,
Aldi,Winckelmannstraße,42,12487,Berlin,Mo-Sa 07:00-21:00,ALDI Nord,,,,,,yes,,,,,https://www.aldi-nord.de/filialen-und-oeffnungszeiten.html/l/berlin/winckelmannstrasse-38-42/3180576,52.44220166324047,13.505663907603033,
Lidl,,,,,Mo-Sa 07:00-21:00,Lidl,,,,,,yes,,,,,,52.54553427056737,13.575636491604945,
EDEKA Brieger Straße,Brieger Straße,1,12249,Berlin,"Mo-Sa 07:00-21:00; Su,PH off",Edeka,,,,,,yes,,,+49 30 76689643,,https://www.edeka.de/eh/minden-hannover/edeka-brieger-stra%C3%9Fe-brieger-str.-1/index-2.jsp,52.43324942102259,13.359816135874752,
Lidl,Teltower Damm,295,14167,Berlin,Mo-Sa 07:00-21:00,Lidl,,,,,,yes,,,,,,52.406823081015965,13.26934735171235,
Aldi,Verlängerte Waldowallee,44,10318,Berlin,Mo-Sa 08:00-20:00,ALDI Nord,,,,,,yes,,,,,https://www.aldi-nord.de,52.47675437269956,13.536889976743169,
Aldi,Greifswalder Straße,168,10409,Berlin,"Mo-Sa 07:00-21:00; Su,PH off",Aldi Nord,,,,,,limited,,,,,https://www.aldi-nord.de/filialen-und-oeffnungszeiten.html/l/berlin/greifswalder-strasse-168/3181909,52.54135789450067,13.43708817193971,
Netto Marken-Discount,Seegefelder Weg,466,13591,Berlin,Mo-Sa 07:00-21:00,Netto Marken-Discount,,,,,,yes,,,,,,52.55011241423922,13.128434544474535,
REWE,Rummelsburger Straße,16,12459,Berlin,Mo-Sa 06:00-22:00,Rewe,,,,,,yes,wlan,,+49 30 53010764,,https://www.rewe.de,52.4692849875889,13.512470853582286,
Aldi,Rummelsburger Straße,16,12459,Berlin,Mo-Sa 07:00-21:00,Aldi Nord,,,,,,yes,,,,,https://www.aldi-nord.de,52.468479774769364,13.513060786465829,
Lidl,Holzhauser Straße,168,13509,Berlin,Mo-Sa 07:00-21:00,Lidl,,,,,,yes,,,,,,52.58625056523647,13.316841767222334,
Lidl,Frankfurter Allee,208-212,10365,Berlin,Mo-Sa 07:00-22:00,Lidl,,,,,,yes,,,,,,52.51115387331209,13.492086252451859,
Netto Marken-Discount,,,13125,Berlin,Mo-Sa 07:00-21:00,Netto Marken-Discount,,,,,,limited,,,,,https://www.netto-online.de/filialen/Berlin-Karow/Bucher-Chaussee-Nr-6/7594/,52.616263597828215,13.486591423783878,
REWE,Weitlingstraße,59,10317,Berlin,Mo-Sa 06:00-23:30,Rewe,,,,,,yes,yes,,+49 30 52279324,,https://www.rewe.de/,52.50541305605136,13.496277130046025,
Netto,Chemnitzer Straße,90,12621,Berlin,Mo-Sa 08:00-20:00; PH off,Netto,,,,,,yes,,,+49 180 2551212,,https://www.netto.de/,52.498174892745475,13.576984902501028,
Lidl,Buckower Damm,194,12349,Berlin,Mo-Sa 07:00-21:00,Lidl,,,,,,yes,,,,,https://www.lidl.de/,52.42628421584361,13.434256874467527,
Lidl,Bruno-Taut-Straße,4,12524,Berlin,Mo-Sa 07:00-20:00,Lidl,,,,,,yes,wlan,,,,,52.41346669199416,13.570652707610726,
Netto Marken-Discount,Buddestraße,36,13507,Berlin,Mo-Sa 07:00-21:00,Netto Marken-Discount,,,,,,yes,,,,,https://www.netto-online.de/filialen/Berlin-Tegel/Buddestr-36/7459/,52.59290140605943,13.285978203656699,
Aldi,Buddestraße,32,13507,Berlin,Mo-Sa 07:00-21:00,Aldi Nord,,,,,,yes,,,,,,52.59185390549737,13.286722830234567,
Rewe,Töpchiner Weg,189-193,12309,Berlin,Mo-Sa 06:00-22:00,REWE,,,,,,yes,,,,,,52.40177204605454,13.413044852040011,
Aldi,Zescher Straße,5,12307,Berlin,Mo-Sa 07:00-21:00; PH off,Aldi Nord,,,,,,yes,,,,,https://www.aldi-nord.de/filialen-und-oeffnungszeiten.html/l/berlin/zescher-strasse-3-5/3180965,52.38616807013957,13.401910764576233,
Netto,,,,,Mo-Sa 08:00-20:00; PH off,Netto,,,,,,yes,,,,,,52.38639325413892,13.401041386998392,
Norma,Kaulsdorfer Straße,209,12555,Berlin,Mo-Sa 08:00-20:00; PH off,Norma,,,,,,,,,,,http://www.norma-online.de,52.465788733096,13.575568259752979,
LPG BioMarkt,Mehringdamm,20-30,10961,Berlin,Mo-Sa 08:00-20:00,LPG BioMarkt,,,yes,yes,,yes,,,,,,52.49589839582368,13.388595769735593,
Aldi,Chemnitzer Straße,177,12621,Berlin,Mo-Sa 07:00-21:00; PH off,Aldi Nord,,,,yes,yes,yes,,,+49 800 7234870,,https://www.aldi-nord.de/filialen-und-oeffnungszeiten.html/l/berlin/chemnitzer-strasse-177/3182488,52.490214318911654,13.576633333492591,
Aldi,Silbersteinstraße,146-152,12051,Berlin,Mo-Sa 07:00-21:00,Aldi Nord,,,,,,yes,,,,,https://www.aldi-nord.de/filialen-und-oeffnungszeiten.html/l/berlin/silbersteinstrasse-146/3180533,52.46557261455822,13.422138388146452,
Lidl,Dudenstraße,90,10965,Berlin,Mo-Sa 08:00-22:00,Lidl,,,,,,yes,,,,,,52.4853657825119,13.372299019602714,
Aldi,Treseburger Straße,26,13129,Berlin,Mo-Sa 07:00-21:00,Aldi Nord,,,,,,yes,,,,,,52.59712447075227,13.464989103560965,
Lidl,Nonnendammallee,175,13599,Berlin,Mo-Sa 07:00-21:00,Lidl,,,,,,yes,,,+49 800 4353361,,https://www.lidl.de/filialen/berlin-spandau/haselhorst-nonnendammallee-175.html,52.54007459818619,13.233482752088099,
Netto Marken-Discount,Lise-Meitner-Straße,2,10589,Berlin,Mo-Sa 07:00-22:00,Netto Marken-Discount,,,,,,yes,,,,,https://www.netto-online.de/filialen/Berlin-Charlottenburg/Lise-Meitner-Str-2/5358/,52.526770492821726,13.307669356998439,
Lidl,,,,,Mo-Sa 07:00-21:00,Lidl,,,,,,yes,,,,,https://www.lidl.de/,52.45575402532264,13.617919106164713,
Aldi,Müggelheimer Straße,36,12555,Berlin,Mo-Sa 07:00-21:00; PH off,Aldi Nord,,,,,,yes,,,,,https://www.aldi-nord.de/filialen-und-oeffnungszeiten.html/l/berlin/muggelheimer-strasse-36/3182388,52.442261768651285,13.585552592509679,
Aldi,Müggelseedamm,150,12587,Berlin,"Mo-Sa 07:00-21:00; PH,Su off",ALDI Nord,,,yes,yes,,yes,,,,,https://www.aldi-nord.de/filialen-und-oeffnungszeiten.html/l/berlin/muggelseedamm-150/3181632,52.44605428425229,13.621936940453784,
Lidl,Lise-Meitner-Straße,6,10589,Berlin,Mo-Sa 07:00-22:00,Lidl,,,,,,yes,,,,,https://www.lidl.de/,52.527757828750445,13.30759469542033,
Aldi,Rennbahnstraße,65,13086,Berlin,Mo-Sa 07:00-20:00,Aldi Nord,,,,,,limited,,,,,https://www.aldi-nord.de/filialen-und-oeffnungszeiten.html/l/berlin/rennbahnstrasse-65/3182832,52.56445680486861,13.449969585482785,
Inter Gida - İstanbul Supermarkt,Skalitzer Straße,138,10999,Berlin,Mo-Sa 09:00-20:00,,,,,,,yes,,,,,,52.49920121613088,13.417040967175321,
NG-Markt,Daimlerstraße,91-95,12277,Berlin,"Mo-Sa 07:00-20:00; Su,PH off",,,yes,yes,yes,yes,,,,,info@ngmarkt.de,,52.42165660976832,13.38451681630539,
Lidl,,,,,Mo-Sa 07:00-22:00,Lidl,,,,,,yes,,,,,,52.46386037431203,13.435328944874911,
Aldi,Esplanade,9,13187,Berlin,Mo-Sa 07:00-21:00,Aldi Nord,,yes,yes,yes,,yes,,,,,,52.55730497542217,13.41182298577003,
PENNY,,,,,Mo-Sa 07:00-22:00,Penny,,,,,,yes,,,,,,52.5608387068627,13.41385402467018,
Lidl,,,,,Mo-Sa 07:00-21:00,Lidl,,,,,,limited,,,,,,52.45788306314756,13.423782260252674,
Aldi,Schönefelder Chaussee,174,12524,Berlin,Mo-Sa 07:00-21:00,ALDI Nord,,,,,,yes,,,,,https://www.aldi-nord.de/filialen-und-oeffnungszeiten.html/l/berlin/schonefelder-chaussee-174/3182509,52.40570199717143,13.523593548120585,
Lidl,Lahnstraße,61,,,Mo-Sa 08:00-21:00,Lidl,,,,,,yes,,,,,,52.46798504167928,13.446414836860749,
EDEKA,,,,,Mo-Sa 07:00-22:00,Edeka,,,,,,yes,,,,,,52.42664781186939,13.448635513694724,
Netto Marken-Discount,Sewanstraße,44,10319,Berlin,"Mo-Sa 07:00-22:00; Su,PH off",Netto Marken-Discount,,,,,,yes,,,,,https://www.netto-online.de/filialen/Berlin-Friedrichsfelde/Sewanstrasse-44/7734/,52.49749919664249,13.503005947979412,
Lidl,,,,,Mo-Sa 08:00-21:00; PH off,Lidl,,,,,,yes,,,,,,52.446726360546016,13.593177729460221,
Aldi,Schwedter Straße,83,10437,Berlin,Mo-Sa 07:00-22:00,Aldi Nord,,,,,,yes,,,,,,52.548962485060876,13.401648145683781,
Aldi,Köpenicker Landstraße,294,12437,Berlin,Mo-Sa 08:00-21:00,Aldi Nord,,,,,,yes,,,,,,52.46500481114429,13.496024873072871,
REWE,Thiemannstraße,9-11,12059,Berlin,Mo-Sa 07:00-22:00,Rewe,,,,,,yes,,,,,,52.478481679962684,13.451338431061986,
Kaufland,Eichhorster Weg,96,13435,Berlin,Mo-Sa 07:00-22:00,Kaufland,,,,,,yes,,,,,https://filiale.kaufland.de/service/filiale/berlin-wittenau-4790.html,52.603549891986994,13.335460440329967,
EDEKA,,,,,PH off; Mo-Sa 07:00-22:00,Edeka,,,,,,,,,,,,52.609688773228,13.328834164396996,
Lidl,Birkbuschstraße,54,12167,Berlin,Mo-Sa 07:00-21:00,Lidl,,yes,yes,yes,,yes,,,,,https://www.lidl.de/f/berlin-steglitz-zehlendorf/steglitz-birkbuschstr-54.html,52.44439002088052,13.331444933496082,
Netto Marken-Discount,,,,,Mo-Sa 07:00-20:00,Netto Marken-Discount,,,,,,,wlan,,,,https://www.netto-online.de/filialen/Berlin-Rosenthal/Hauptstr-103/7457/,52.595577382188566,13.375607746484176,
Netto Marken-Discount,Alt-Friedrichsfelde,25,10315,Berlin,Mo-Sa 07:00-22:00,Netto Marken-Discount,,,,,,yes,,,,,https://www.netto-online.de/filialen/Berlin-Lichtenberg/Alt-Friedrichsfelde-25/7729/,52.50940166369498,13.513887878320041,
Netto Marken-Discount,Emmentaler Straße,12,13407,Berlin,Mo-Sa 07:00-22:00,Netto Marken-Discount,,,,,,yes,,,,,https://www.netto-online.de/filialen/Berlin-Reinickendorf/Emmentaler-Str-12/7616/,52.567621453979704,13.35310576957405,
Lidl,Einbecker Straße,57,10315,Berlin,Mo-Sa 07:00-21:00; PH off,Lidl,,yes,,yes,,yes,no,,,,https://www.lidl.de,52.50980287864848,13.506657619497094,
Aldi,Sundgauer Straße,"83,85",14169,Berlin,Mo-Fr 09:00-18:30; Sa 08:00-16:00,Aldi Nord,,,,,,yes,,,,,,52.43919250822626,13.271310071958704,
Mitte Meer,Berliner Straße,78,14169,Berlin,"Mo-Th 10:00-20:00; Fr,Sa 09:00-20:00; Su,PH off",,,yes,yes,,,yes,,,,,,52.439576523709796,13.276819644845286,
EDEKA Colombino,Sundgauer Straße,109,14167,Berlin,Mo-Sa 07:00-22:00,Edeka,,,,,,yes,,,,,http://www.reichelt-berlin.de/,52.435810138835095,13.274280668811063,
EDEKA,Rhinstraße,17,10315,Berlin,Mo-Fr 07:00-24:00; Sa 07:00-23:30,Edeka,,,,,,yes,,,+493051061223,,https://www.edeka.de/eh/minden-hannover/edeka-rhinstraße-rhinstr.-17/index.jsp,52.51363405293064,13.517703957685004,
Netto Marken-Discount,Hermann-Hesse-Straße,19,13156,Berlin,Mo-Fr 07:00-22:00,Netto Marken-Discount,,,,,,yes,,,,,https://www.netto-online.de/filialen/Berlin-Pankow/Hermann-Hesse-Str-19/7633/,52.57977091145414,13.399642511676275,
Netto,Wilhelmsruher Damm,13,13158,Berlin,Mo-Sa 07:00-20:00,Netto,,,,,,yes,,,,,https://www.netto.de/geschaefte/berlin/wilhelmsruher-damm-13/5aa089fbeae44b17aa11c0766e260d95/,52.59701574040084,13.371460069024609,
Edeka Stepaniak,Berliner Straße,2,10715,Berlin,Mo-Fr 08:00-20:00; Sa 08:00-18:00,Edeka,,,,,,limited,,,,,,52.48816475006007,13.334719813655035,
Lidl,Eldenaer Straße,34a,10247,Berlin,Mo-Sa 07:00-21:00,Lidl,,,,,,yes,,,,,,52.520891395060744,13.467712985080754,
Netto,Heerstraße,660,13591,Berlin,Mo-Sa 07:00-21:00,Netto,,,,,,yes,,,,,,52.52855254506403,13.125128143558912,
Centro Italia,Sophie-Charlotten-Straße,9-10,14059,Berlin,Mo-Fr 09:00-18:30; Sa 10:00-16:00,,,,,,,yes,,,+49303021728,,https://www.centro-italia.de/,52.521213336882255,13.28531460025395,
Netto Marken-Discount,,,,,Mo-Sa 07:00-21:00,Netto Marken-Discount,,,,,,yes,,,,,https://www.netto-online.de/filialen/Berlin-Rudow/Stubenrauchstr-97/7735/,52.43205364887719,13.49655837055535,
Lidl,Gervinusstraße,30,10629,Berlin,Mo-Sa 07:00-22:00,Lidl,,,,,,yes,,,,,https://www.lidl.de/filialen/berlin-charlottenburg-wilmersdorf/charlottenburg-gervinusstr-30.html,52.50293956576036,13.298469456705673,
Aldi,Heilbronner Straße,26a,10711,Berlin,Mo-Sa 07:00-22:00,Aldi Nord,,,,,,yes,,,,,,52.50016451791002,13.288577508123856,
Netto Marken-Discount,Heilbronner Straße,19,10711,Berlin,Mo-Sa 07:00-22:00,Netto Marken-Discount,,,,,,yes,,,,,https://www.netto-online.de/filialen/Berlin-Wilmersdorf/Heilbronner-Str-19/7617/,52.50120816812097,13.292157221284715,
Lidl,Grünauer Straße,118,12557,Berlin,Mo-Sa 07:00-21:00; PH off,Lidl,,,,,,yes,,,,,https://www.lidl.de/,52.436833961814514,13.570463519051218,
Edeka,Sprengelstraße,37,13353,Berlin,Mo-Fr 08:00-20:00; Sa 08:00-20:00; PH off,Edeka,,,,,,yes,,,,,,52.54161071725815,13.35557142853475,
Lidl,Große-Leege-Straße,95,13055,Berlin,Mo-Sa 07:00-21:00,Lidl,,,,,,yes,,,,,,52.54285990267641,13.497584668577636,
Lidl,Lichtenrader Damm,219,12305,Berlin,Mo-Sa 07:00-21:00,Lidl,,,,,,yes,,,,,,52.392977684609164,13.40730776915083,
REWE,Konrad-Wolf-Straße,24,13055,Berlin,Mo-Sa 07:00-22:00,Rewe,,,,,,yes,,,,,,52.54381970598457,13.490539242799786,
Lidl,Gehrenseestraße,11,13053,Berlin,Mo-Sa 07:00-21:00,Lidl,,,,,,yes,,,,,,52.5501140096791,13.514523092086895,
Netto Marken-Discount,Goerzallee,220,14167,Berlin,Mo-Sa 07:00-22:00,Netto Marken-Discount,,,,,,yes,,,,,https://www.netto-online.de/filialen/Berlin-Lichterfelde/Goerzallee-220/7722/,52.41796254082392,13.28563674494329,
Edeka Kitschun,Buschallee,88,13088,Berlin,"Mo-Sa 07:30-20:00; Su,PH off",Edeka,,,,,,yes,,,,,,52.55382802614787,13.47546743700841,
Lidl,Kreuzbergstraße,40,10965,Berlin,Mo-Sa 07:00-22:00,Lidl,,,,,,yes,,,+49 800 4353361,,https://www.lidl.de/filialen/berlin-tempelhof-schoeneberg/schoeneberg-kreuzbergstr-40.html,52.489808456477434,13.374895700179529,
Aldi,Tangermünder Straße,125,12627,Berlin,Mo-Sa 07:00-21:00; PH off,ALDI Nord,,,,yes,yes,yes,,,,,https://www.aldi-nord.de/tools/filialen-und-oeffnungszeiten/berlin/hellersdorf/tangermuender-strasse-125.html,52.54009295813638,13.608584951216098,
Netto Marken-Discount,,,,,Mo-Sa 07:00-22:00,Netto Marken-Discount,,,,,,yes,,,,,https://www.netto-online.de/filialen/Berlin-Marzahn/Martha-Arendsee-Str-4/7639/,52.53492823643354,13.540408252273814,
Aldi,Dingolfinger Straße,1,12683,Berlin,Mo-Sa 8:00-20:00; PH off,ALDI Nord,,,,,,yes,,,,,https://www.aldi-nord.de/filialen-und-oeffnungszeiten.html/l/berlin/dingolfinger-strasse-1/3180873,52.51038972826571,13.562620757333036,
EDEKA,Siemensstraße,22,12247,Berlin,Mo-Fr 07:00-00:00; Sa 07:00-23:00,Edeka,,,,,,yes,wlan,,+49 30 76903628,,https://www.edeka.de/eh/minden-hannover/edeka-siemensstra%C3%9Fe-siemensstr.-21-23/index.jsp,52.444134824619354,13.335792063274601,
EDEKA,Bizetstraße,25-27,13088,Berlin,Mo-Fr 07:00-22:00; Sa 07:00-22:00,Edeka,,,,,,yes,,,+49 30 34353125,,https://www.edeka.de/eh/minden-hannover/edeka-hannemann-bizetstr.-25-27/index.jsp,52.54763654333806,13.451597591145351,
Aldi,Schöneberger Straße,28,12103,Berlin,Mo-Sa 07:00-21:00,ALDI Nord,,,,,,yes,,,,,,52.46826179287564,13.374004049434397,
Lidl,Feldberger Ring,1,12619,Berlin,Mo-Sa 07:00-21:00; PH off,Lidl,,,,,,yes,,,,,,52.527927831545384,13.587950747373831,
Lidl,Seegefelder Weg,391,13591,Berlin,Mo-Sa 08:00-21:00,Lidl,,,,,,yes,,,,,,52.54632293251426,13.14251521446215,
Aldi,,,,Berlin,Mo-Sa 08:00-21:00,ALDI Nord,,,,,,yes,,,,,https://www.aldi-nord.de/filialen-und-oeffnungszeiten.html/l/berlin/haynauer-strasse-76-80/3180832,52.43475986749098,13.367373165470319,
Penny,Kamenzer Damm,86,12249,Berlin,Mo-Sa 07:00-22:00,Penny,,,,,,,,,,,,52.434629900000004,13.366462150000002,
Edeka,Kaiser-Wilhelm-Str.,64,12247,Berlin,Mo-Sa 07:00-21:00,EDEKA,,,,yes,yes,limited,no,,+49 30 76890080,,https://www.edeka.de/eh/minden-hannover/edeka-hadersbeck-kaiser-wilhelm-str.-64/index.jsp,52.435166533919585,13.34326358542618,
Kaufland,Ostpreußendamm,60,12207,Berlin,Mo-Fr 07:00-24:00; Sa 07:00-23:30,Kaufland,,,,,,yes,,,+49 30 754447780,,https://www.kaufland.de/,52.42327618281071,13.312197798376742,
PENNY,Wendenschloßstraße,156,12557,Berlin,Mo-Sa 07:00-21:00; PH off,Penny,,,,,,yes,,,,,,52.437548385639595,13.58098528729962,
Rewe,Wendenschloßstraße,354,12557,Berlin,Mo-Sa 07:00-22:00; PH off,Rewe,,,,,,yes,,,,,,52.425219199999994,13.584644100000002,
Netto Marken-Discount,Wendenschloßstraße,360,12557,Berlin,Mo-Sa 07:00-22:00; PH off,Netto Marken-Discount,,,,,,yes,,,,,https://www.netto-online.de/filialen/Berlin-Koepenick/Wendenschlossstrasse-360/7731/,52.42447224489632,13.586154678818144,
Netto Marken-Discount,Landsberger Allee,174,10369,Berlin,Mo-Sa 07:00-22:00,Netto Marken-Discount,,,,,,yes,,,,,https://www.netto-online.de/filialen/Berlin-Lichtenberg/Landsberger-Allee-174/5040/,52.53064684725462,13.468440226871667,
Aldi,Marzahner Chaussee,218,12681,Berlin,Mo-Fr 08:00-20:00; Sa 08:00-18:00,Aldi Nord,,,,,,yes,,,,,,52.52506608188271,13.534709934571644,
Netto Marken-Discount,,,,,Mo-Sa 07:00-22:00; PH off,Netto Marken-Discount,,,,,,yes,,,,,https://www.netto-online.de/filialen/Berlin-Hellersdorf/Alte-Hellersdorfer-Str-102/7640/,52.54226623365738,13.592337397558596,
Lidl,Charlottenburger Chaussee,18,13597,Berlin,Mo-Sa 07:00-21:00,Lidl,,,,,,yes,,,+49 800 4353361,,https://www.lidl.de/filialen/berlin-spandau/spandau-charlottenburger-chaussee-18.html,52.52643201114485,13.241738258512886,
Lidl,Warmensteinacher Straße,57,12349,Berlin,Mo-Sa 08:00-21:00,Lidl,,,,,,yes,,,+49 800 4353361,,https://www.lidl.de/filialen/berlin-neukoelln/buckow-warmensteinacher-str-57.html,52.41479670168485,13.425742285538334,
Lidl,Sonnenallee,192,12059,,Mo-Sa 07:00-21:00,Lidl,,,,,,limited,,,,,https://www.lidl.de/,52.47522010803241,13.451055570871123,
Alnatura Super Natur Markt,Hans-Sachs-Straße,4C,12205,Berlin,Mo-Sa 08:00-20:30,Alnatura,,,,,,yes,,,,,,52.443016552749704,13.293844244946454,
REWE,Bayernring,15,12101,Berlin,"Mo-Fr 06:00-24:00, Sa 06:00-23:30",REWE,,,,,,limited,,,,,,52.48365667353149,13.377494868298538,
Kaufland,Gutschmidtstraße,19,12359,Berlin,Mo-Sa 07:00-22:00,Kaufland,,,,,,yes,,,+4930670669990,,https://www.kaufland.de/Home/04_Kundenservice/004_Filialsuche/index.jsp,52.43639932150714,13.447895911439975,
Aldi,Buckower Damm,50,12349,Berlin,"Mo-Sa 07:00-21:00; Su,PH off",ALDI Nord,,,,,,yes,,,,,https://www.aldi-nord.de/filialen-und-oeffnungszeiten.html/l/berlin/buckower-damm-50/3180998,52.44015529332703,13.433742935172841,
Lidl,Fürstenbrunner Weg,14-18,14059,Berlin,"Mo-Sa 07:00-22:00; Su,PH off",Lidl,,,,,,yes,,,+49 800 4353361,,https://www.lidl.de/filialen/berlin-charlottenburg-wilmersdorf/westend-fuerstenbrunner-weg-14-18.html,52.520055212360155,13.281005544980708,
Lidl,Curtiusstraße,36,12205,Berlin,Mo-Sa 07:00-21:00,Lidl,,,,,,yes,,,,,,52.441053338337156,13.29000276611538,
Penny,Osdorfer Straße,98,12207,Berlin,,Penny,,,,,,yes,,,+49 221 20199959,,https://www.penny.de/,52.41319604042315,13.319753574834614,
Edeka,,,,Berlin,Mo-Sa 08:00-22:00,Edeka,,,,,,yes,,,,,,52.519133560478245,13.309532577769382,
Aldi,Röblingstraße,118-124,12105,Berlin,Mo-Sa 07:00-20:00,ALDI Nord,,yes,yes,,,yes,,,,,https://www.aldi-nord.de/filialen-und-oeffnungszeiten.html/l/berlin/hoeppnerstrasse-3-13/3181724,52.452010036237745,13.36202529213551,
Lidl,Prenzlauer Allee,93,10409,Berlin,Mo-Sa 07:00-22:00,Lidl,,,,,,yes,,,,,https://www.lidl.de/,52.54649099786115,13.429536629301762,
NORMA,,,,,Mo-Sa 08:00-20:00; PH off,NORMA,,,,,,yes,,,,,,52.41506405347244,13.658496815769272,
Netto Marken-Discount,Müggelheimer Damm,257,12559,Berlin,Mo-Sa 07:00-21:00,Netto Marken-Discount,,,,,,yes,,,,,https://www.netto-online.de/filialen/Berlin-Koepenick/Mueggelheimer-Damm-233/7475/,52.41446609517335,13.658757477567525,
Netto Marken-Discount,,,,,Mo-Sa 07:00-20:00,Netto Marken-Discount,,,,,,yes,,,,,https://www.netto-online.de/filialen/Berlin-Gropiusstadt/Koelner-Damm-74/7740/,52.42629958841834,13.449131056070316,
EDEKA,Greifswalder Straße,86,10409,Berlin,"Mo-Fr 07:00-24:00, Sa 07:00-23:30",Edeka,,yes,yes,yes,,yes,,,,,,52.541261669368254,13.439841696168926,
Lidl,,,,,"Mo-Sa 08:00-21:00; Su,PH off",Lidl,,,,,,yes,,,,,,52.4587849368672,13.375539422250469,
Netto Marken-Discount,Louis-Lewin-Straße,120,12627,Berlin,Mo-Sa 07:00-22:00; PH off,Netto Marken-Discount,,,,,,yes,,,,,https://www.netto-online.de/filialen/Berlin-Hellersdorf/Louis-Lewin-Str-120/7623/,52.54049293626747,13.620513801907867,
Lüske,Drakestraße,50,12205,Berlin,Mo-Sa 08:00-20:00; Su 08:00-14:00,,,,,,,yes,,,+49 30 802020160,,https://lueske.berlin/markt,52.441679515767596,13.297600700664981,
EDEKA Meichsner-Görse,Karlsbader Straße,17,14193,Berlin,Mo-Sa 08:00-20:00,Edeka,,,,,,yes,,,+49 30 89502169,,https://www.edeka.de/eh/minden-hannover/edeka-meichsner-g%C3%B6rse-karlsbader-str.-17/index.jsp,52.478458245835725,13.281939310700794,
EDEKA,Annenstraße,4a,10179,Berlin,"Mo-Fr 07:00-24:00, Sa 07:00-23:30",Edeka,,,,,,yes,,,,,,52.507761897244706,13.415509592236601,
PENNY,,,,,Mo-Sa 07:00-22:00,Penny,,,,,,limited,,,,,,52.55274890276288,13.427872479335944,
Aldi,Ostseestraße,25,10409,Berlin,Mo-Sa 07:00-21:00,Aldi Nord,,,,,,yes,,,,,https://www.aldi-nord.de/filialen-und-oeffnungszeiten.html/l/berlin/ostseestrasse-25/3181588,52.550053569084035,13.434458810762353,
Rewe,Ostseestraße,23,10409,Berlin,Mo-Sa 06:00-22:00,Rewe,,,,,,yes,,,,,,52.55083467804824,13.43239937096484,
Lidl,Pasewalker Straße,77,13127,Berlin,Mo-Sa 08:00-21:00,Lidl,,,,,,limited,,,,,,52.593305884442024,13.432804513020667,
Netto Marken-Discount,Lehrter Straße,57,10557,Berlin,Mo-Sa 07:00-22:00,Netto Marken-Discount,,,,,,yes,wlan,,,,https://www.netto-online.de/filialen/Berlin-Moabit/Lehrter-Strasse-57/7618/,52.53231529430009,13.360022463639952,
Aldi,Wexstraße,16-18,10715,Berlin,Mo-Sa 07:00-21:00,Aldi Nord,,yes,yes,yes,,yes,,,,,https://www.aldi-nord.de/filialen-und-oeffnungszeiten.html/l/berlin/wexstrasse-16-18/3180648,52.47919860206999,13.33501923471024,
PENNY,Gerichtstraße,4,,,Mo-Sa 07:00-22:00,Penny,,,,,,yes,no,,,,,52.54300641495799,13.378225011439163,
Netto,Segelfliegerdamm,18,12487,Berlin,Mo-Sa 07:00-20:00,Netto,,,,,,yes,,,,,,52.4454301554504,13.510668428555222,
Lidl,Hüttenweg,50,14195,Berlin,Mo-Sa 07:00-21:00,Lidl,,,,,,yes,,,,,https://www.lidl.de/,52.457723714186876,13.263700731831664,
REWE,Emmentaler Straße,122-130,13409,Berlin,Mo-Sa 07:00-22:00,Rewe,,,yes,yes,yes,yes,wlan,,+49 03041727613,,https://www.rewe.de,52.571778229511544,13.365465604363443,
Netto,,,,,Mo-Sa 07:00-20:00,Netto,,,,,,limited,,,,,https://netto.de/,52.581305066730344,13.333239669013466,
Netto Marken-Discount,,,,,Mo-Sa 07:00-22:00,Netto Marken-Discount,,,,,,yes,,,,,https://www.netto-online.de/filialen/Berlin-Spandau/Seeburger-Weg-27/7458/,52.523764852197615,13.17550027195733,
Netto Marken-Discount,Provinzstraße,78,,,Mo-Sa 07:00-22:00,Netto Marken-Discount,,yes,,yes,,yes,,,,,https://www.netto-online.de/filialen/Berlin-Rosenthal/Provinzstr-77/7779/,52.5733620995098,13.379368367039547,
Aldi,Straße vor Schönholz,21,,,Mo-Sa 07:00-21:00,Aldi Nord,,yes,,yes,,yes,,,,,,52.57298807246222,13.381618731304137,
ALDI Nord,Fürstenbrunner Weg,50,,Berlin,Mo-Sa 07:00-21:00,ALDI Nord,,,,,,yes,,,,,https://www.aldi-nord.de/tools/filialen-und-oeffnungszeiten/berlin/westend/fuerstenbrunner-weg-50.html,52.523628010901795,13.280363084971867,
Aldi,,,,,Mo-Sa 08:00-20:00,ALDI Nord,,,,,,yes,,,,,https://www.aldi-nord.de/filialen-und-oeffnungszeiten.html/l/berlin/oranienburger-strasse-57-58/3181606,52.58899804917806,13.33504963327819,
Lidl,Vorarlberger Damm,24-26,12157,Berlin,Mo-Sa 07:00-21:00,Lidl,,,,,,yes,,,+49 800 4353361,,https://www.lidl.de/filialen/berlin-tempelhof-schoeneberg/schoeneberg-vorarlberger-damm-24-26.html,52.469642042759986,13.349688944737236,
Netto Marken-Discount,Alt-Gatow,50,14089,Berlin,Mo-Sa 07:00-21:00,Netto Marken-Discount,,yes,,yes,,yes,,,,,https://www.netto-online.de/filialen/Berlin-Spandau/Alt-Gatow-48-50/7753/,52.485333611595884,13.18250398897965,
Netto,Kiefholzstraße,425,12435,Berlin,Mo-Sa 07:00-20:00,Netto,,,,,,yes,,,,,,52.490550166240396,13.452204529197461,
Netto,Eichbuschallee,57,12437,Berlin,Mo-Sa 08:00-20:00,Netto,,,,,,,,,,,https://www.netto.de,52.471764432706216,13.479846819716412,
Lidl,Berliner Straße,141,13467,Berlin,Mo-Sa 07:00-21:00,Lidl,,,,,,yes,,,,,https://www.lidl.de/,52.61305254373311,13.313826337321329,
Bio Company,Heinsestraße,28,13467,Berlin,Mo-Sa 08:00-20:00,Bio Company,,,,,,yes,,,,,https://www.biocompany.de/,52.61645823407705,13.307929984088682,
Penny Cité Foch,,,,,Mo-Sa 07:00-21:00,Penny,,,,yes,,yes,no,,,,,52.59827713112782,13.32221192108151,
Aldi,,,,,Mo-Sa 07:00-20:00,Aldi Nord,,,,,,yes,,,,,,52.5837894391009,13.418301655069984,
EDEKA Center Niemann,Blankenburger Straße,81,13156,Berlin,Mo-Sa 07:00-22:00,Edeka,,,yes,yes,,yes,,,+49 30 48626480,,,52.58477122922062,13.416734077734873,
Lidl,Großbeerenstraße,2,12107,Berlin,Mo-Sa 07:00-21:00,Lidl,,,,,,yes,,,,,,52.43846089280858,13.379433926740356,
Netto Marken-Discount,Wildenbruchstraße,55,12435,Berlin,Mo-Sa 07:00-22:00,Netto Marken-Discount,,,,,,yes,,,,,https://www.netto-online.de/filialen/Berlin-Treptow/Wildenbruchstr-55/7752/,52.488453476414584,13.44889264788935,
Lidl,Mark-Twain-Straße,2,12627,Berlin,Mo-Sa 07:00-21:00; PH off,Lidl,,,,,,yes,,,,,,52.53346418285938,13.610817435311649,
PENNY,Mariendorfer Damm,153-157,12107,Berlin,Mo-Sa 07:00-22:00,Penny,,,,,,yes,,,+49 221 201 999 59,,https://www.penny.de/,52.43792497003125,13.388882754913954,
Netto,Malchower Weg,51,13053,Berlin,,Netto,,,,,,yes,,,,,,52.55430598774728,13.502127348003118,
REWE,Sterndamm,35,12487,Berlin,Mo-Fr 06:00-22:00; Sa 06:00-22:00,Rewe,,,,,,yes,,,,,,52.4506757292882,13.508565737321266,
REWE City,Sterndamm,140,12487,Berlin,Mo-Sa 07:00-22:00,REWE,,,,,,yes,,,,,,52.43973569206821,13.499255887104493,
Netto,Glienicker Weg,126,12489,Berlin,Mo-Sa 07:00-20:00,Netto,,,,yes,yes,yes,no,,+49180 255 12 12,,https://www.netto.de/,52.43387600914526,13.555700798174842,
Aldi,Heerstraße,332,13593,Berlin,Mo-Sa 07:00-21:00,Aldi Nord,,,,yes,yes,yes,,,,,,52.51781728964245,13.17828236801654,
Netto,Rothenbachstraße,2,13089,Berlin,Mo-Sa 08:00-20:00,Netto,,,,,,yes,,,,,,52.57120348697998,13.430809168667466,
EDEKA Wiesemann,Marienfelder Allee,101,12277,Berlin,Mo-Sa 07:00-20:00,EDEKA,,,,,,yes,,,+49 30 72017812,,https://www.edeka.de/eh/minden-hannover/edeka-wiesemann-marienfelder-allee-101/index.jsp,52.41748102812931,13.367512645195623,
Netto Marken-Discount,,,13437,,"Mo-Sa 07:00-21:00; Su,PH off",Netto Marken-Discount,,,,,,yes,,,,,https://www.netto-online.de/filialen/Berlin-Wittenau/Hermsdorfer-Str-55/7612/,52.60238939238755,13.323826580166578,
EDEKA,Neumannstraße,70,13189,Berlin,Mo-Sa 07:00-21:00,Edeka,,,,,,yes,,,,,,52.56424504005378,13.420391591836227,
Netto,Alt-Heiligensee,8,13503,Berlin,Mo-Sa 07:00-20:00,Netto,,,,,,yes,,,,,https://www.netto.de/,52.61100020183989,13.214399935466655,
EDEKA,Alt-Rudow,72-74,12355,Berlin,Mo-Sa 07:00-22:00,Edeka,,yes,yes,yes,,yes,,,+493060972190,,https://www.edeka.de/,52.416243024292164,13.496604342462472,
Nahkauf,,,,,Mo-Sa 07:30-20:00,Nahkauf,,,,,,yes,,,+49 30 7733749,,https://www.nahkauf.de/,52.418790813212745,13.324309981453256,
EDEKA Königstraße,Königstraße,14,14109,Berlin,Mo-Sa 07:00-22:00,Edeka,,,,,,yes,,,+49308052559,,,52.42009371917496,13.1597250678322,
Penny Oranienburger Straße,Oranienburger Straße,116,13437,Berlin,Mo-Sa 07:00-22:00,Penny,,,,,,yes,,,,,https://www.penny.de/,52.602176548377976,13.331190012112389,
Aldi,,,,,Mo-Sa 08:00-20:00,Aldi Nord,,,,,,,,,,,,52.62674175768383,13.301751946710528,
EDEKA,Königstraße,49,14109,Berlin,,Edeka,,,,,,yes,,,,,,52.418335055659036,13.153111677411987,
EDEKA,Raoul-Wallenberg-Straße,18,12679,Berlin,Mo-Sa 07:00-21:00,Edeka,,,,,,yes,,,,,,52.5488751201259,13.55253105444152,
Aldi,Wegedornstraße,29,12524,Berlin,Mo-Sa 08:00-21:00,Aldi Nord,,,,,,yes,,,,,https://www.aldi-nord.de/filialen-und-oeffnungszeiten.html/l/berlin/wegedornstrasse-29/3182198,52.42415765749077,13.526794672752496,
NP,Selgenauer Weg,18A,12355,Berlin,Mo-Sa 07:00-21:00,NP,,,,,,yes,,,,,,52.41874095793136,13.505111311393375,
nah und gut,Bernhard-Bästlein-Straße,5,10367,Berlin,Mo-Sa 07:00-21:00,Edeka,,,,,,yes,,,,,,52.52830088727469,13.481258160745128,
Kaufland,Goerzallee,195,14167,Berlin,Mo-Sa 07:00-22:00,Kaufland,,,,,yes,yes,,,,,https://filiale.kaufland.de/service/filiale/berlin-goerzallee-6490.html,52.417220602997574,13.28638945744069,
Lidl,Wismarer Straße,35,12207,Berlin,Mo-Sa 08:00-21:00,Lidl,,,,,,yes,,,,,,52.42078438346674,13.299481800176961,
EDEKA Christ,Hildburghauser Straße,52-56,12279,Berlin,Mo-Sa 07:00-22:00,EDEKA,,,,,,yes,,,,,https://www.edeka.de/eh/minden-hannover/edeka-christ-hildburghauser-str.-52/index.jsp,52.41536533962484,13.347850201809589,
REWE,Wollankstraße,15-17,13187,Berlin,Mo-Sa 07:00-22:00,Rewe,,,,,,yes,,,,,https://www.rewe.de/,52.56636447323757,13.395378572349536,
Alnatura Super Natur Markt,Bernstorffstraße,13a,13507,Berlin,Mo-Sa 08:00-20:00,Alnatura,,,,,,limited,,,,,,52.591415208141974,13.28618407738784,
Netto Marken-Discount,Hultschiner Damm,200;204,12623,,Mo-Sa 07:00-22:00; PH off,Netto Marken-Discount,,,,,,yes,,,,,https://www.netto-online.de/filialen/Berlin-Mahlsdorf/Hultschiner-Damm-200-204/7736/,52.49247474450397,13.609555482791974,
PENNY,,,,,Mo-Sa 07:00-22:00,Penny,,,,,,yes,,,,,,52.55045482598024,13.164175211836916,
Mix Markt,Jan-Petersen-Straße,18,12679,Berlin,Mo-Sa 08:00-20:00,Mix Markt,,,,,,,,,+49 30 97891881,,https://www.mixmarkt.eu/de/germany/maerkte/14/,52.549882192706306,13.565057816874043,
Aldi,Jan-Petersen-Straße,16,12679,Berlin,"Mo-Sa 07:00-21:00; PH,Su off",Aldi Nord,,,,,,yes,,,,,https://www.aldi-nord.de/filialen-und-oeffnungszeiten.html/l/berlin/jan-petersen-strasse-16/3181312,52.54960583857654,13.56378875895142,
Netto Marken-Discount,Gitschiner Straße,73,10969,Berlin,Mo-Sa 07:00-22:00,Netto Marken-Discount,,,,,,yes,,,,,https://www.netto-online.de/filialen/Berlin-Kreuzberg/Gitschiner-Str-73/7428/,52.49869125400638,13.405845362696862,
EDEKA Küther,Drakestraße,28,12205,Berlin,"Mo-Sa 07:00-21:00; Su,PH off",EDEKA,,,,,,yes,,,,,,52.441484856301365,13.299262719737552,
Bio Company,Neufertstraße,19-21,14059,Berlin,Mo-Sa 08:00-21:00,Bio Company,,,,,,yes,,,,,,52.5175843570603,13.29314492150916,
PENNY,Alt-Mahlsdorf,48,12623,Berlin,Mo-Fr 08:30-20:00; PH off,Penny,,,,,,yes,,,,,,52.50495675865,13.619532476596374,
NORMA,,,,,Mo-Sa 07:00-21:00,NORMA,,,,,,yes,,,,,,52.545559425211856,13.59246996463797,
Lidl,,,,,Mo-Sa 07:00-21:00; PH off,Lidl,,,,,,yes,,,,,,52.545477024069775,13.593450740181042,
Edeka,Hindenburgdamm,60,12203,Berlin,Mo-Sa 08:00-21:00,Edeka,,,,,,yes,,,,,,52.44882640976415,13.31576489611216,
HIT Ullrich,Hardenbergstraße,25,10623,Berlin,Mo-Sa 09:00-22:00; Su 11:00-22:00,HIT,,,,,,yes,,,,info@ullrich-online.de,,52.505957736522184,13.330926727501943,
Aldi,Alt-Mariendorf,16,12107,Berlin,Mo-Sa 07:00-21:00,Aldi Nord,,,,,,yes,,,,,https://www.aldi-nord.de/filialen-und-oeffnungszeiten.html/l/berlin/alt-mariendorf-16/3181015,52.44122531221507,13.390617949554006,
Netto Marken-Discount,Rauchstraße,23,13587,Berlin,"Mo-Sa 07:00-22:00; Su,PH off",Netto Marken-Discount,,,,,,limited,,,,,https://www.netto-online.de/filialen/Berlin-Spandau/Rauchstr-23/7676/,52.56007177622366,13.218260154461817,
PENNY,,,,,"Mo-Sa 07:00-21:00; Su,PH off",Penny,,,,,,no,,,,,,52.56019089145273,13.215513026958757,
Netto Marken-Discount,Wilhelmstraße,5,13595,Berlin,Mo-Sa 07:00-22:00,Netto Marken-Discount,,,,,,yes,,,,,https://www.netto-online.de/filialen/Berlin-Spandau/Wilhelmstr-5/7622/,52.52815300344909,13.19320953831263,
Lidl,Müllerstraße,48,13349,Berlin,Mo-Sa 07:00-22:00,Lidl,,,,,,yes,,,,,https://www.lidl.de/,52.55243626300569,13.350118343401816,
Aldi,Marienfelder Chaussee,29,12349,Berlin,Mo-Sa 07:00-21:00,ALDI Nord,,,,,,yes,,,,,https://www.aldi-nord.de/filialen-und-oeffnungszeiten.html/l/berlin/marienfelder-chaussee-29/3180591,52.41895940316512,13.422094288619796,
Netto,Straße vor Schönholz,5,13158,Berlin,Mo-Sa 08:00-20:00,Netto,,,yes,yes,,yes,,,,,,52.57643054097014,13.380194129455052,
PENNY,Alt-Moabit,9,10557,Berlin,Mo-Sa 07:00-22:00,Penny,,,,yes,,yes,,,+49 221 20199959,,https://www.penny.de/,52.523801856053524,13.358444461507828,
Lidl,Maybachufer,32-33,12047,Berlin,Mo-Sa 07:00-22:00,Lidl,,yes,yes,yes,,yes,,,,,,52.492106837378955,13.431098146158911,
Lidl,Brunnenstraße,87,,,Mo-Sa 07:00-21:00,Lidl,,,,,,yes,,,,,,52.54453694817941,13.391674722072773,
Norma,Seelenbinderstraße,112-120,12555,Berlin,Mo-Sa 08:00-20:00; PH off,Norma,,,,,,,,,,,,52.45473914349813,13.590272985010849,
Norma,Kniprodestraße,64,10407,Berlin,Mo-Sa 07:00-21:00,Norma,,,,,,limited,,,,,https://www.norma-online.de/de/filialfinder/suchergebnis?lng=13.4550252&lat=52.5412684&r=3000,52.54228574065181,13.456988258972766,
Aldi,Storkower Straße,176,10369,Berlin,Mo-Sa 07:00-22:00,Aldi Nord,,,,,,yes,,,,,,52.5267953071345,13.458218005555063,
Netto Marken-Discount,Sonnenallee,215,12059,Berlin,Mo-Sa 07:00-22:00,Netto Marken-Discount,,,,,,yes,,,,,https://www.netto-online.de/filialen/Berlin-Neukoelln/Sonnenallee-215/5026/,52.47460793847338,13.455374357062226,
,Adlergestell,744,12527,Berlin,,,,,,,,,,,,,,52.37918305338519,13.643555370854768,
Lidl,Roelckestraße,172,13086,Berlin,Mo-Sa 07:00-21:00,Lidl,,,,,,yes,,,,,https://www.lidl.de/,52.5505085299852,13.440502538825887,
Rewe City,Heinsestraße,46-48,13467,Berlin,Mo-Sa 07:00-22:00,REWE,,,,yes,,yes,,,+49 30 0537200,,,52.61868350890287,13.305818504654273,
Kaufland,Hauptstraße,10,13055,Berlin,Mo-Sa 07:00-22:00,Kaufland,,,,,,yes,,,,,,52.548146777406274,13.505245114647227,
Rewe,Schönefelder Chaussee,1,12524,Berlin,Mo-Sa 06:00-22:00,Rewe,,,,,,yes,wlan,,,,,52.41805485860579,13.536960436258047,
Lidl,Marienfelder Allee,202,12279,Berlin,Mo-Sa 07:00-21:00; Su off,Lidl,,,,,,yes,,,+49 800 4353361,,https://www.lidl.de/filialen/berlin-tempelhof-schoeneberg/marienfelde-marienfelder-allee-202.html,52.40858837780822,13.358015071894313,
Eurogida,Turmstraße,43,,,Mo-Sa 07:00-20:00,,,,,,,yes,,,,,https://www.eurogida.de/de/filiale_turmstrasse.php,52.52704210832552,13.334782122612653,
Bio Company,Turmstraße,42,10551,Berlin,"Mo-Sa 08:00-21:00; Mo-Sa 07:30-21:00 open ""Backstand ab 7:30 Uhr geöffnet """,Bio Company,,yes,yes,yes,,yes,wlan,,,,https://www.biocompany.de/,52.527040719424896,13.335131119728432,
Bolu,,,,,Mo-Fr 07:00-20:00; Sa 07:00-18:00,,,yes,yes,,,yes,,,,,,52.527034310334066,13.335739234485946,
EDEKA Erler,Berlepschstraße,74,14165,Berlin,Mo-Sa 07:00-20:00,EDEKA,,yes,,yes,yes,yes,,,+493080495055,,https://www.edeka.de/eh/minden-hannover/edeka-erler-berlepschstr.-74/index.jsp,52.42636121401211,13.244144943610072,
Bio Company,Breisgauer Straße,17,14129,Berlin,Mo-Sa 08:00-20:00; PH off,Bio Company,,,,,,,,,,,,52.43707435000001,13.216680150000002,
EDEKA Ulrich,,,,,"Mo-Sa 07:00-21:00; Su,PH off",EDEKA,,,,,,yes,,,,,,52.58477621844412,13.226685112745477,
Netto Marken-Discount,Wartenberger Straße,51,13053,Berlin,Mo-Sa 07:00-21:00,Netto Marken-Discount,,yes,yes,,,yes,,,,,https://www.netto-online.de/filialen/Berlin/Wartenberger-Str-51/5850/,52.55534081892262,13.511597151914334,
Netto Marken-Discount,,,,,Mo-Sa 07:00-21:00,Netto Marken-Discount,,yes,,yes,yes,,,,,,https://www.netto-online.de/filialen/Berlin-Koepenick/An-der-Wuhlheide-154/5015/,52.459298982819526,13.536228607087018,
Aldi,Havemannstraße,33,12689,Berlin,Mo-Sa 07:00-21:00,ALDI Nord,,,,,,yes,,,,,https://www.aldi-nord.de/filialen-und-oeffnungszeiten.html/l/berlin/havemannstrasse-33/3182650,52.56670325075314,13.578475087332214,
Netto Marken-Discount,Ordensmeisterstraße,8,12099,Berlin,Mo-Sa 07:00-21:00,Netto Marken-Discount,,,,,,,,,,,https://www.netto-online.de/filialen/Berlin-Tempelhof/Ordensmeisterstr-7/7742/,52.45676826434635,13.390071679946075,
Netto Marken-Discount,Marzahner Chaussee,79,12681,Berlin,Mo-Sa 07:00-21:00,Netto Marken-Discount,,,,,,yes,,,,,https://www.netto-online.de/filialen/Berlin-Marzahn/Marzahner-Chaussee-79/5236/,52.51643150462077,13.526642380972826,
Lidl,Havemannstraße,1,12689,Berlin,Mo-Sa 07:00-21:00,Lidl,,,,,,yes,,,,,,52.56978153153566,13.569390514055296,
Nahkauf,Habichtstraße,16,13505,Berlin,Mo-Sa 08:00-21:00,Nahkauf,,,,,,yes,,,,,,52.58573150985702,13.233425994086426,
Nahkauf,Haselhorster Damm,27,13599,Berlin,Mo-Sa 07:00-20:00,Nahkauf,,,,,,,,,,,,52.544773447970854,13.237859865120368,
Netto Marken-Discount,Buckower Damm,268,12349,Berlin,Mo-Sa 07:00-21:00,Netto Marken-Discount,,,,,,yes,,,,,https://www.netto-online.de/filialen/Berlin-Buckow/Buckower-Damm-268/5250/,52.420179087380426,13.43770266545892,
Alnatura Super Natur Markt,Jungfernstieg,2,12207,Berlin,Mo-Sa 08:00-20:00,Alnatura,,,,,,yes,,,,,,52.428720657891695,13.326162936432501,
Aldi,Hauptstraße,36,10317,Berlin,Mo-Sa 07:00-21:00,ALDI Nord,,,,,,yes,,,,,,52.496557303463,13.486859188086525,
PENNY,Pichelsdorfer Straße,63,13595,Berlin,Mo-Sa 07:00-22:00,Penny,,,,,,yes,,,+49 221 20199959,,https://www.penny.de/,52.519621448005836,13.1973470734502,
Edeka,Rudower Straße,21,12351,Berlin,Mo-Sa 08:00-22:00,Edeka,,,,,,limited,,,,,,52.44172741906058,13.45890457823485,
Netto,Stahlheimer Straße,31,,,Mo-Sa 07:00-21:00,Netto,,,,,,yes,,,,,,52.54844756895959,13.419695158548377,
Netto Marken-Discount,,,,,"Mo-Sa 07:00-21:00; Su,PH off",Netto Marken-Discount,,,,,,yes,,,,,https://www.netto-online.de/filialen/Berlin-Spandau/Lynarstr-32-34/5169/,52.54850179004825,13.206807674209175,
EDEKA,Marksburgstraße,14,10318,Berlin,Mo-Sa 07:00-21:00,EDEKA,,,,,,yes,,,,,,52.48728700080137,13.518358021117711,
Baraka Supermarkt,Mariendorfer Damm,337-339,12107,Berlin,,,,,,,,,,,,,,52.42393728541592,13.396420361050108,
REWE,Anton-Saefkow-Platz,10,10369,Berlin,Mo-Sa 07:00-23:00,Rewe,,,,,,yes,,,,,,52.528666236694754,13.470491876531538,
Rewe,Ladiusstraße,26,14165,Berlin,Mo-Sa 07:00-22:00,REWE,,,,,,yes,,,+493081488838,,https://www.rewe.de/meinkaufsbox/markt/marktinfo.html?marketId=4040128,52.41127907700484,13.262540135164857,
Netto Marken-Discount,Langhansstraße,46,13086,Berlin,Mo-Sa 07:00-21:00,Netto Marken-Discount,,,,,,yes,,,,,,52.552718554904324,13.438602646610981,
Lidl,Allee der Kosmonauten,141A,12681,Berlin,Mo-Sa 07:00-21:00,Lidl,,,,,,yes,,,,,,52.53181011945605,13.54881183212608,
PENNY,Treskowallee,112,10318,Berlin,Mo-Sa 07:00-22:00; PH off,Penny,,,,,,yes,,,,,https://www.penny.de/,52.4821853473442,13.52398785108827,
REWE,Hildburghauser Straße,29,12279,Berlin,Mo-Sa 06:00-22:00,,,,,,,,,,,,,52.41274134924528,13.354718130684015,
Lidl,Berliner Allee,300,13088,Berlin,Mo-Sa 07:00-21:00,Lidl,,,,,,yes,,,,,,52.564497358088964,13.471192408097362,
Aldi,Invalidenstraße,59,10557,Berlin,Mo-Sa 07:00-21:00; PH off,Aldi Nord,,,,,,yes,,,,,,52.52417426339187,13.364065643672008,
Netto Marken-Discount,Regattastraße,123,12527,Berlin,Mo-Sa 07:00-21:00,Netto Marken-Discount,,,,,,yes,,,+49 30 67820029,,https://www.netto-online.de/filialen/Berlin-Gruenau/Regattastr-123/5297/,52.41806744919843,13.581095439337062,
Denns BioMarkt,,,,,Mo-Sa 09:00-20:00,Denns BioMarkt,,,,,,,,,,,,52.6138171282107,13.245401407244877,
Lidl,Hauptstraße,122,10827,Berlin,Mo-Sa 07:00-22:00,Lidl,,,,,,yes,,,+49 800 4353361,,,52.482722204951365,13.3508238157966,
Netto Marken-Discount,,,,,,Netto Marken-Discount,,,,,,,,,,,https://www.netto-online.de/filialen/Berlin-Pankow/Blankenburger-Str-145/7448/,52.588034839003875,13.426867532336942,
Netto Marken-Discount,Wollankstraße,85,13359,Berlin,"Mo-Sa 07:00-24:00; Su,PH off",Netto Marken-Discount,,,,,,yes,,,,,,52.562670273657,13.392224952029908,
Norma,Liebensteiner Straße,44,,Berlin,Mo-Sa 07:00-21:00,Norma,,,,,,yes,,,,,,52.55916920897984,13.56175239139695,
Lidl,Blankenburger Straße,17A,13089,Berlin,Mo-Sa 07:00-21:00,Lidl,,,,,,limited,,,,,,52.57135402266337,13.443958614672901,
EDEKA,,,,,Mo-Sa 08:00-20:00,EDEKA,,,,,,no,,,,,,52.48535670811519,13.437660446987948,
Netto Marken-Discount,Ortolfstraße,149,12524,Berlin,Mo-Sa 07:00-22:00,Netto Marken-Discount,,,,,,yes,,,,,https://www.netto-online.de/filialen/Berlin-Altglienicke/Ortolfstr-149/5170/,52.40581401875603,13.532669776349389,
E-Center,Siriusstraße,1,12524,Berlin,"Mo-Sa 07:00-22:00; Su,PH off",EDEKA,,,,,,yes,,,,,,52.40226385939329,13.524622211708953,
PENNY,Cottbusser Platz,2,12627,Berlin,Mo-Sa 07:00-21:00; PH off,Penny,,,,,,limited,,,,,,52.53477920685632,13.595733357336101,
Denns BioMarkt,Warschauer Straße,63,10243,Berlin,Mo-Sa 09:00-21:00,Denns BioMarkt,,yes,yes,yes,,yes,,,,,https://www.denns-biomarkt.de/berlin-warschauer-str-63/marktseite/,52.51020985572153,13.452092987809127,
Aldi,Chopinstraße,28,13088,Berlin,Mo-Sa 08:00-20:00,Aldi Nord,,,,yes,yes,yes,,,,,https://www.aldi-nord.de/filialen-und-oeffnungszeiten.html/l/berlin/chopinstrasse-28/3180943,52.545583880772696,13.463697968302668,
Lidl,,,,,Mo-Sa 07:00-21:00,Lidl,,,,,,yes,,,,,,52.54617707898181,13.46922750269372,
Lidl,Möllendorffstraße,75a,10367,Berlin,Mo-Sa 07:00-22:00,Lidl,,,,,,yes,wlan,,,,,52.5226198006938,13.477605931849341,
Netto,Waltersdorfer Straße,19,12526,Berlin,Mo-We 08:00-20:00; Th-Fr 08:00-21:00; Sa 08:00-20:00,Netto,,,,,,limited,,,,,,52.39937573659859,13.57434950601983,
EDEKA Brehm,Mahlsdorfer Straße,34,12555,Berlin,Mo-Sa 07:00-21:00; PH off,Edeka,,,,,,yes,,,+49 30 64095172,,https://edeka-brehm.de/,52.46580964455134,13.584904879723194,
PENNY,Glienicker Straße,60,12557,Berlin,Mo-Sa 07:00-21:00; PH off,Penny,,,,yes,yes,yes,no,,+49 221 20199959,,https://www.penny.de/,52.438380245703804,13.563139620632318,
Netto,Bornitzstraße,46,10365,Berlin,Mo-Sa 07:00-21:00,Netto,,,,,,yes,,,,,,52.519826879331156,13.48651074642284,
EDEKA,Heidelberger Straße,90,12435,Berlin,Mo-Sa 07:00-21:00,Edeka,,,,,,yes,,,,,,52.48898590295462,13.447559975374892,
Lidl,Tempelhofer Damm,130,12099,Berlin,Mo-Sa 07:00-21:00,Lidl,,,,,,yes,,,+49 800 4353361,,https://www.lidl.de/filialen/berlin-tempelhof-schoeneberg/tempelhof-tempelhofer-damm-130.html,52.46800586906875,13.384431167694649,
EDEKA,Königin-Elisabeth-Straße,9a,14059,Berlin,Mo-Sa 07:00-22:00,Edeka,,,,,,yes,,,,,https://www.edeka.de,52.51152674427368,13.278416165923622,
Rewe,Sophie-Charlotten-Straße,41,14059,Berlin,Mo-Sa 06:00-22:00,Rewe,,,,,,yes,,,+49 30 30207371,,,52.513368493931324,13.28752651062626,
REWE,Auerbachstraße,12,14193,Berlin,Mo-Sa 07:00-21:00,REWE,,,,,,yes,,,,,,52.487429970848055,13.261449626761367,
Lidl,Semmelweisstraße,106,12524,Berlin,Mo-Sa 07:00-21:00,Lidl,,,,,,yes,wlan,,,,https://lidl-shop.de/,52.425111264118335,13.527322847944998,
EDEKA Kruse,Goltzstraße,1,12307,Berlin,Mo-Sa 07:00-21:00,Edeka,,,,,,yes,,,+49 30 76492900,,,52.38730693540782,13.408582041230515,
Lidl,Dietzgenstraße,102,13158,Berlin,Mo-Sa 07:00-21:00,Lidl,,,,,,yes,,,,,https://www.lidl.de/filialen/berlin-pankow/rosenthal-dietzgenstr-102.html,52.59166340639783,13.403468632749815,
Netto,Gülzower Straße,28,12621,Berlin,"Mo-Fr 08:00-20:00, Sa 08:00-20:00; PH off",Netto,,,,,,yes,,,,,,52.5141249291874,13.583273116675548,
nah und gut,Breisgauer Straße,20,14129,Berlin,Mo-Fr 08:00-20:00; Sa 08:00-18:00,Edeka,,,,,,,,,,,,52.43662273273228,13.215870033949148,
Netto Marken-Discount,Hellersdorfer Straße,82,12619,Berlin,Mo-Sa 07:00-22:00; PH off,Netto Marken-Discount,,,,,,yes,,,,,https://www.netto-online.de/filialen/Berlin-Hellersdorf/Hellersdorfer-Strasse-82/7688/,52.522977191335144,13.588040651091147,
Netto,Louis-Lewin-Straße,40e,12627,Berlin,Mo-Sa 07:00-21:00,Netto,,,,,,yes,,,,,,52.5330618687936,13.623388027150153,
Netto Marken-Discount,Louis-Lewin-Straße,15,12627,Berlin,Mo-Sa 07:00-22:00; PH off,Netto Marken-Discount,,,,,,yes,,,,,https://www.netto-online.de/filialen/Berlin-Hellersdorf/Louis-Lewin-Str-15/5175/,52.5332307371361,13.62153627528398,
Netto Marken-Discount,Mark-Twain-Straße,4,12627,Berlin,,Netto Marken-Discount,,,,,,yes,,,,,https://www.netto-online.de/filialen/Berlin-Hellersdorf/Mark-Twain-Str-4/7683/,52.53410527721883,13.61082769639029,
Netto,Am Gehrensee,2,13057,Berlin,Mo-Sa 07:00-20:00,Netto,,,,,,yes,,,,,,52.5731690379609,13.564405781609745,
Aldi,,,,,Mo-Sa 07:00-21:00,Aldi Nord,,,,,,yes,,,,,,52.49223761309854,13.430606465038451,
Aldi,Landsberger Allee,494,12685,Berlin,Mo-Sa 07:00-21:00,Aldi Nord,,,,,,yes,,,,,https://www.aldi-nord.de/filialen-und-oeffnungszeiten.html/l/berlin/landsberger-allee-494/3182774,52.54377351127473,13.56511857515534,
PENNY,Richardstraße,52,12055,Berlin,Mo-Sa 07:00-22:00,Penny,,,,,,limited,,,,,,52.47233474207215,13.445535049100487,
Netto,Dahlwitzer Straße,60,12623,Berlin,Mo-Sa 07:00-20:00,Netto,,,,,,yes,,,,,,52.521406077585816,13.647659585779797,
EDEKA,Müggelschlößchenweg,42,12559,Berlin,,EDEKA,,,,,,yes,,,,,,52.440039799558704,13.600612919903035,
EDEKA,Clayallee,171,14195,Berlin,"Mo-Fr 07:00-24:00, Sa 07:00-23:00",Edeka,,,,,,yes,,,,,,52.45218348659653,13.270539755540002,
Nahkauf,Kaiser-Wilhelm-Straße,40,12247,Berlin,Mo-Sa 08:00-20:00,Nahkauf,,,,,,yes,,,,,,52.43296478084276,13.339443745592034,
Lidl,,,,,Mo-Sa 07:00-21:00; PH off,Lidl,,,,,,yes,,,,,,52.53757906977362,13.590283618620665,
Rewe,Wuhlestraße,31,12683,Berlin,Mo-Sa 07:00-22:00,REWE,,,,,,yes,,,,,https://www.rewe.de/,52.52812947034252,13.568746955844965,
Aldi,Wilhelm-von-Siemens-Straße,13,12277,Berlin,Mo-Sa 07:00-20:00,ALDI Nord,,,,,,yes,,,,,https://www.aldi-nord.de/filialen-und-oeffnungszeiten.html/l/berlin/wilhelm-von-siemens-strasse-13/3182578,52.42984520873972,13.379163034185193,
Norma,Blumberger Damm,124-128,12685,Berlin,,Norma,,,,,,limited,,,,,http://www.norma-online.de,52.54243525445767,13.571375599020094,
Netto,Fürstenwalder Allee,76,12589,Berlin,,Netto,,,,,,yes,,,,,,52.43809530948812,13.693763371343836,
Aldi,Hauptstraße,119,13158,Berlin,Mo-Sa 07:00-20:00,Aldi Nord,,,,,,yes,,,,,,52.59803413122781,13.377244628679549,
Denns BioMarkt,Teltower Damm,299,14167,Berlin,Mo-Sa 08:00-20:00,Denns BioMarkt,,,,,,yes,,,+49 30 81490517,,,52.4062140184686,13.269583187626214,
Netto Marken-Discount,Pyramidenring,22,12681,Berlin,Mo-Sa 07:00-21:00,Netto Marken-Discount,,,,,,yes,,,,,https://www.netto-online.de/filialen/Berlin-Marzahn/Pyramidenring-22/7525/,52.536233413388175,13.525776070131998,
Galata Market,Buckower Damm,106,12349,Berlin,,,,,,,,,,,,,,52.434118731287185,13.433852158005156,
PENNY Buckow,Marienfelder Chaussee,6,12349,Berlin,Mo-Sa 07:00-22:00,Penny,,,,,,,,,,,https://www.penny.de/,52.4206828160628,13.425595207310012,
Netto Marken-Discount,Richard-Tauber-Damm,36,12277,Berlin,Mo-Sa 07:00-21:00,Netto Marken-Discount,,,,,,yes,,,,,https://www.netto-online.de/filialen/Berlin-Tempelhof/Richard-Tauber-Damm-36/5142/,52.4165910640245,13.392203344322322,
REWE,Rosenthaler Weg,74,13127,Berlin,Mo-Sa 07:00-22:00,REWE,,,,,,yes,,,,,https://www.rewe.de/,52.607051394093034,13.428977273199758,
Netto Marken-Discount,,,,,Mo-Sa 07:00-22:00,Netto Marken-Discount,,,,,,yes,,,,,https://www.netto-online.de/filialen/Berlin-Spandau/Haardtweg-2/5305/,52.54918499851182,13.177809744884113,
Aldi,Rudower Straße,116,12351,Berlin,Mo-Sa 07:00-21:00,ALDI Nord,,,,,,yes,,,,,https://www.aldi-nord.de/filialen-und-oeffnungszeiten.html/l/berlin/rudower-strasse-116/3180868,52.43493711605652,13.466579854210028,
Netto,Köpenicker Straße,45,12683,Berlin,Mo-Sa 08:00-20:00,Netto,,,,,,yes,,,,,,52.5028359182364,13.562264017584823,
Lidl,Chemnitzer Straße,174,12621,Berlin,Mo-Sa 07:00-21:00; PH off,Lidl,,,,,,yes,wlan,,,,https://www.lidl.de/,52.489738005863,13.574508890225902,
Aldi,Teltower Damm,281,14167,Berlin,Mo-Sa 07:00-20:00,ALDI Nord,,,,,,yes,,,,,,52.40823555298606,13.268642873528654,
REWE,Schnellerstraße,74,12439,Berlin,Mo-Sa 06:00-21:30,REWE,,,,yes,,yes,,,+493056590798,,https://www.rewe.de/marktseite/berlin-niederschoeneweide/4040708/rewe-markt-schnellerstr-74/,52.45142335001275,13.529785334136603,
Aldi,Hennigsdorfer Straße,167,13503,Berlin,Mo-Sa 07:00-21:00,Aldi Nord,,,,,,yes,,,,,https://www.aldi-nord.de/,52.62718147368005,13.225416171352313,
kaufnah,Quarzweg,85,12349,Berlin,,,,,,,,yes,,,+493070765612,,,52.42219318746487,13.415331806597152,
Denns BioMarkt,Marienfelder Chaussee,154,12349,Berlin,Mo-Sa 08:00-20:00,Denns BioMarkt,,,,,,yes,,,+49 30 74302908,,https://www.denns-biomarkt.de/39465_Berlin_Buckow_Lichtenrade.html,52.41572009047033,13.403861241378898,
Lidl,Neuköllner Straße,236-238,12357,Berlin,Mo-Sa 07:00-21:00,Lidl,,,,,,yes,,,,,https://www.lidl.de/,52.426719571502225,13.480546196703699,
Kaufland,Wilhelmstraße,21-25,13593,Berlin,Mo-Sa 07:00-22:00,Kaufland,,,,,,yes,,,+49 30 365093070,,https://www.kaufland.de/Home/index.jsp?FilialID=8860,52.52118706563688,13.186129305768748,
Aldi,Rummelsburger Straße,98,10319,Berlin,Mo-Sa 07:00-21:00,Aldi Nord,,,,,,yes,,,,,https://www.aldi-nord.de/filialen-und-oeffnungszeiten.html/l/berlin/rummelsburger-strasse-98/3181774,52.499364613450716,13.494971516409032,
NORMA,Dietzgenstraße,125,13158,Berlin,Mo-Sa 08:00-21:00,NORMA,,,,,,yes,,,,,,52.594048233476144,13.401947445997335,
Netto Marken-Discount,Berliner Allee,262,13088,Berlin,Mo-Sa 07:00-22:00,Netto Marken-Discount,,,,,,yes,,,,,https://www.netto-online.de/filialen/Berlin-Weissensee/Berliner-Allee-262/7635/,52.561372393287414,13.46850063328866,
Aldi,Neue Grottkauer Straße,27,12619,Berlin,Mo-Sa 07:00-21:00; PH off,ALDI Nord,,,,,,yes,,,,,https://www.aldi-nord.de/filialen-und-oeffnungszeiten.html/l/berlin/neue-grottkauer-strasse-23/3182240,52.52912969600189,13.595625641202687,
Lidl,Köpenicker Straße,145,12683,Berlin,Mo-Sa 07:00-21:00,Lidl,,,,,,,,,,,,52.49215067434163,13.561764042760103,
Netto Marken-Discount,Bergedorfer Straße,216,,,Mo-Sa 07:00-21:00; PH off,Netto Marken-Discount,,,,,,yes,,,,,https://www.netto-online.de/filialen/Berlin-Mahlsdorf/Hultschiner-Damm-47/5077/,52.47910312857704,13.599872813055647,
Edeka,Hultschiner Damm,75,12623,Berlin,"Mo-Th,Sa 07:00-20:00, Fr 07:00-21:00; PH off",EDEKA,,,,,,yes,,,,,,52.48208709101343,13.600660696620343,
Aldi,Hultschiner Damm,140-142,12623,Berlin,Mo-Sa 07:00-20:00; PH off,ALDI Nord,,,,,,limited,,,,,https://www.aldi-nord.de/filialen-und-oeffnungszeiten.html/l/berlin/hultschiner-damm-140-142/3182168,52.487240869915546,13.605820999052472,
Aldi,Töpchiner Weg,193,12309,Berlin,"Mo-Sa 08:00-21:00; Su,PH off",ALDI Nord,,,,,,yes,,,,,https://www.aldi-nord.de/filialen-und-oeffnungszeiten.html/l/berlin/topchiner-weg-193/3182501,52.40147588032488,13.412610262552079,
Netto Marken-Discount,Treseburger Straße,29,13129,Berlin,"Mo-Sa 07:00-21:00; PH,Su off",Netto Marken-Discount,,,,,,yes,,,,,https://www.netto-online.de/filialen/Berlin-Pankow/Treseburger-Str-29/7464/,52.59763526891113,13.466356068352843,
Netto Marken-Discount,Grünbergallee,233,12524,Berlin,Mo-Sa 07:00-21:00,Netto Marken-Discount,,,,,,yes,,,,,https://www.netto-online.de/filialen/Berlin-Altglienicke/Gruenbergallee-233/5440/,52.399520455798736,13.540751794338346,
Netto Marken-Discount,Tempelhofer Weg,91/97,12347,Berlin,Mo-Sa 07:00-21:00; Su off,Netto Marken-Discount,,,,,,yes,,,,,https://www.netto-online.de/filialen/Berlin-Britz/Tempelhofer-Weg-91-97/5032/,52.4516257964992,13.435696731605011,
PENNY,Dannenwalder Weg,159,13439,Berlin,Mo-Sa 07:00-22:00,Penny,,,,,,yes,,,,,,52.593904165187006,13.360472582156573,
Netto Marken-Discount,Ruschestraße,57,10365,Berlin,Mo-Sa 07:00-22:00,Netto Marken-Discount,,,,,,,,,,,https://www.netto-online.de/filialen/Berlin-Lichtenberg/Ruschestr-57/5228/,52.52223244745567,13.486145131605696,
Netto,Wolframstraße,88,12105,Berlin,Mo-Sa 07:00-21:00,Netto,,,,,,limited,,,,,,52.45346292244815,13.37850497228784,
Edeka Am Flugplatz,Am Flugplatz Gatow,10,14089,Berlin,"Mo-Sa 07:00-22:00; Su,PH off",EDEKA,,,,,,yes,,,,,,52.47171242027434,13.125084237701948,
Aldi,,,,,Mo-Sa 07:00-21:00,ALDI Nord,,,,,,yes,,,,,,52.61030848618087,13.318949600526212,
REWE,Bernhard-Bästlein-Straße,1,10367,Berlin,Mo-Sa 07:00-22:00,Rewe,,,,,,yes,,,,,,52.52744845183837,13.481248198002731,
Nahkauf,,,,,Mo-Sa 07:00-21:00; Su off; PH off,Nahkauf,,,,,,limited,,,,,,52.52119462810854,13.19596533814457,
Mini Markt,,,,,,,,,,,,,,,,,,52.544517241432466,13.432626271956453,
Aldi,Roedernallee,15,13407,Berlin,Mo-Sa 07:00-21:00,Aldi Nord,,,,,,yes,,,,,https://www.aldi-nord.de/,52.580864968893025,13.347043755754864,
Lidl,,,,,Mo-Sa 07:00-21:00,Lidl,,,,,,yes,,,,,,52.45505368440551,13.14595215341828,
Netto Marken-Discount,Wulkower Straße,2,12683,Berlin,Mo-Sa 07:00-22:00,Netto Marken-Discount,,,,,,yes,,,+49 800 2000015,,https://www.netto-online.de/filialen/Berlin/Wulkower-Str-2/5454/,52.50444700572134,13.561091497899582,
Kaufland,Bessemerstraße,57;59;61;63;65;67;69;71;73;75;77;79,12103,Berlin,Mo-Sa 07:00-22:00,Kaufland,,yes,yes,yes,yes,yes,,,+49 30 7201390,,https://www.kaufland.de/,52.46196315135557,13.36768574786614,
Netto Marken-Discount,Zweiwinkelweg,25,,,Mo-Sa 07:00-22:00,Netto Marken-Discount,,,,,,yes,,,,,https://www.netto-online.de/filialen/Berlin-Spandau/Zweiwinkelweg-25/5132/,52.532385964685304,13.147110954370262,
Lidl,Ruppiner Chaussee,401,13503,Berlin,Mo-Sa 07:00-21:00,Lidl,,,,,,yes,,,,,,52.62497708727088,13.229385020786465,
Aldi,Zepernicker Straße,10,13125,Berlin,Mo-Sa 07:00-21:00,ALDI Nord,,,,,,limited,,,,,,52.64052544351673,13.51457022902407,
Rewe,Zepernicker Straße,10,13125,Berlin,Mo-Sa 07:00-22:00,REWE,,,,,,limited,,,,,,52.64074992624387,13.51543363632937,
EDEKA,Beckerstraße,21,12157,Berlin,Mo-Sa 07:00-20:00,EDEKA,,,,,,yes,,,,,,52.46686916829333,13.341867113271745,
Aldi,Huttenstraße,41-44,10553,Berlin,Mo-Sa 07:00-21:00,Aldi Nord,,,,,,yes,,,,,,52.52803352121482,13.317696153714742,
PENNY,Weitlingstraße,9,10317,Berlin,Mo-Sa 07:00-22:00,Penny,,yes,,yes,,yes,,,,,,52.51000767313542,13.49924346129337,
Edeka,Miraustraße,62,13509,Berlin,"Mo-Fr 07:00-20:00; Sa 07:00-20:00; Su,PH off",Edeka,,yes,yes,,,yes,,,+49 30 43004015,,,52.58590691041245,13.307657350324677,
Norma,Kopenhagener Straße,77,,,Mo-Sa 07:00-21:00,Norma,,,,,,yes,,,,,,52.58186016165922,13.363323360846396,
ALDI Nord,Charlottenburger Chaussee,30,13597,Berlin,Mo-Sa 07:00-21:00,ALDI Nord,,,,,,yes,,,,,,52.52710830274675,13.237796297751432,
Aldi,Revaler Straße,33,10245,Berlin,Mo-Sa 07:00-21:00,Aldi Nord,,yes,yes,yes,,yes,,,,,,52.50560748135918,13.460069908237683,
EDEKA,Friedrichstraße,142,10117,Berlin,Mo-Fr 06:00-22:00; Sa-Su 08:00-22:00,Edeka,,yes,yes,yes,,yes,,,+49 30 20166540,,http://www.edeka-bahnhof.de,52.52013106677284,13.387007788649349,
Edeka-Center Brehm,An der Schule,82,12623,Berlin,Mo-Sa 08:00-22:00; PH off,Edeka,,,,,,yes,,,+49 30 56553490,,https://www.edeka.de/eh/minden-hannover/edeka-center-brehm-an-der-schule-82/,52.50564628756231,13.61446980472034,
Aldi,Ritterfelddamm,200,14089,Berlin,,ALDI Nord,,yes,yes,yes,,,,,,,https://www.aldi-nord.de/filialen-und-oeffnungszeiten.html/l/berlin/ritterfelddamm-200/3181314,52.470777139879345,13.124876595696755,
Aldi,Ollenhauerstraße,106,13403,Berlin,Mo-Sa 07:00-21:00,Aldi Nord,,,,,,yes,,,,,https://www.aldi-nord.de,52.570697757058454,13.32802186470603,
EDEKA,Streitstraße,18,13587,Berlin,Mo-Sa 07:00-22:00,Edeka,,,,,,yes,,,+49 30 36758360,,https://www.edeka.de/,52.55906016356074,13.211038489518815,
Aldi,Frankfurter Allee,144,10365,Berlin,Mo-Sa 07:00-21:00,Aldi Nord,,,,,,yes,,,,,,52.511967943292426,13.481339350362852,
REWE,Frankfurter Allee,144,10365,Berlin,Mo-Fr 07:00-24:00; Sa 07:00-23:30,Rewe,,,,,,yes,,,,,,52.51190492169973,13.481774602903585,
REWE,Pasewalker Straße,115A,13127,Berlin,Mo-Sa 06:00-22:00,Rewe,,,,,,yes,,,,,,52.58429678051001,13.42992866324922,
Netto Marken-Discount,Malteserstraße,144,12277,Berlin,Mo-Sa 07:00-21:00,Netto Marken-Discount,,,,,,yes,,,,,https://www.netto-online.de/filialen/Berlin-Marienfelde/Malteserstr-144/5805/,52.41932660095098,13.360103157802435,
Netto Marken-Discount,Coppistraße,21-23,10365,Berlin,Mo-Sa 07:00-22:00,Netto Marken-Discount,,,,,,yes,,,,,https://www.netto-online.de/filialen/Berlin-Lichtenberg/Buchberger-Str-40/5622/,52.50665533081538,13.483254835953742,
EDEKA,Hildegard-Knef-Platz,1,10829,Berlin,"Mo-Fr 06:00-22:00; Sa,Su,PH 08:00-22:00",EDEKA,,,,,,limited,,,,,https://www.edeka.de/eh/minden-hannover/edeka-bahnhof-s%C3%BCdkreuz-hildegard-knef-platz-1/index-2.jsp,52.476404152586525,13.364646534881285,
REWE,Am Ostbahnhof,9,10243,Berlin,Mo-Su 06:00-24:00,Rewe,,,,,,yes,,,,,https://www.rewe.de/marktseite/berlin-friedrichshain/4040089/rewe-markt-am-ostbahnhof-9/,52.50963721867365,13.435122402351299,
Aldi,,,,,"Mo-Sa 07:00-21:00; PH,Su off",Aldi Nord,,,,,,yes,,,,,,52.605108422103676,13.33970135703268,
PENNY,,,,,Mo-Su 07:00-23:00,Penny,,,,,,yes,,,,,,52.50989021491501,13.434287261269532,
Denns BioMarkt,,,,,08:00-22:00,Denns BioMarkt,,,,,,yes,,,,,,52.52546836824581,13.369883062512773,
REWE City,,,,,"Mo-Sa 06:00-22:00; Su, PH 08:00-22:00",Rewe,,yes,,,,yes,,-1,+49 30 20453002,,https://www.rewe.de/marktseite/berlin/1931144/rewe-markt-hauptbahnhof-1-ug/,52.52409539366634,13.369544095491786,
PENNY,Mahlsdorfer Straße,97e,12555,Berlin,Mo-Sa 07:00-21:00,Penny,,,,,,yes,,,,,,52.462353767666926,13.581946555902906,
Denns BioMarkt,Dönhoffstraße,41,10318,Berlin,Mo-Sa 08:00-21:00,Denns BioMarkt,,yes,,yes,,yes,,,+493050012925,,https://www.denns-biomarkt.de/22528_Berlin_Karlshorst.html,52.48235270868713,13.52451509475889,
Netto Marken-Discount,,,,,Mo-Sa 07:00-22:00; PH off,Netto Marken-Discount,,,,,,yes,,,,,https://www.netto-online.de/filialen/Berlin-Hellersdorf/Ludwigsluster-Str-27/5550/,52.515846752802695,13.583526355812783,
Asia Markt,,,,,Mo-Fr 09:00-19:00; Sa 09:00-16:00,,,,,,,,,-1,,,,52.53451540192947,13.199659412519456,
EDEKA,Weitlingstraße,22,10317,Berlin,Mo-Fr 06:00-22:00; Sa-Su 08:00-22:00; PH 08:00-22:00,Edeka,,,,,,yes,,,,,,52.50932542445887,13.496953897334517,
Penny - An der B1,Chemnitzer Straße,2-6,12621,Berlin,Mo-Sa 08:00-20:00; PH off,Penny,,,,,,yes,,,,,,52.50483743058803,13.58006130331887,
Penny,Kulmseestraße,9,12683,Berlin,Mo-Sa 07:00-21:00,Penny,,,,,,yes,,,,,https://www.penny.de/,52.51360042849595,13.552939767860762,
Netto,Blankenburger Straße,61,13156,Berlin,Mo-Sa 07:00-20:00,Netto,,,,,,yes,,,,,,52.583305032999135,13.413168753374828,
Edeka Elstaler Straße,Elstaler Straße,6,13583,Berlin,Mo-Sa 07:00-22:00,Edeka,,,,,,,,,,,,52.537325833410705,13.18544729099311,
Netto Marken-Discount,Damerowstraße,40,13187,Berlin,Mo-Sa 07:00-22:00,Netto Marken-Discount,,,,,,,,,,,https://www.netto-online.de/filialen/Berlin-Pankow/Damerowstr-40/5647/,52.57622867054723,13.426083445781089,
Lidl,Quickborner Straße,66,13439,,Mo-Sa 08:00-21:00,Lidl,,,,,,yes,wlan,,,,,52.604029390080186,13.36802019373013,
Bio Company,Yorckstraße,35-42,10965,Berlin,Mo-Sa 08:00-21:00; PH off,Bio Company,,yes,,,,yes,,,+49 30 817254580,,,52.49296360684261,13.37161815179912,
Aldi,Kanalstraße,8,12357,Berlin,Mo-Sa 08:00-21:00,ALDI Nord,,,,yes,yes,yes,,,,,https://www.aldi-nord.de/filialen-und-oeffnungszeiten.html/l/berlin/kanalstrasse-8/3182206,52.4308483217934,13.495845336157172,
Kaufland,Storkower Straße,139,10407,Berlin,Mo-Sa 07:00-22:00; Su 13:00-18:00,Kaufland,,,,,,yes,,,,,https://filiale.kaufland.de/service/filiale/berlin-storkower-str--3330.html,52.5340191116295,13.456544792403832,
E-Center Untergehrer,Schnellerstraße,131,12439,Berlin,"Mo-Sa 07:00-22:00; Su,PH off",Edeka,,,,,,yes,wlan,,,kundenservice@minden.edeka.de,,52.45796781165528,13.510262847820673,
REWE,Hermann-Hesse-Straße,14,13156,Berlin,Mo-Sa 07:00-23:30,Rewe,,,,yes,,yes,wlan,,+49 3047487285,,https://www.rewe.de/marktseite/berlin-niederschoenhausen/1931091/rewe-markt-hermann-hesse-str-14/,52.58129643482978,13.40067268146105,
EDEKA,Eichborndamm,77-85,,,Mo-Sa 07:00-22:00,Edeka,,,,,,yes,,,,,,52.57587663003665,13.31424263002688,
Rewe,Glienicker Straße,6b-c,13467,Berlin,Mo-Sa 07:00-22:00,REWE,,,,,,yes,,,,,,52.61757962676296,13.308555695144404,
Norma,,,,,Mo-Sa 08:00-20:00,Norma,,,,,,,,,,,,52.55495763850046,13.479321766475534,
Aldi,Gülzower Straße,74,12619,Berlin,Mo-Sa 07:00-21:00; PH off,Aldi Nord,,,,,,yes,,,,,https://www.aldi-nord.de/filialen-und-oeffnungszeiten.html/l/berlin/gulzower-strasse-74/3180926,52.516965819340584,13.589829910463251,
EDEKA Kruppa,Kottmeierstraße,3,12459,Berlin,Mo-Sa 07:00-21:00,EDEKA,,,,,,yes,,,,edeka.kruppa@minden.edeka.de,,52.46323835817276,13.52569505618691,
REWE,Groß-Ziethener Chaussee,33,12355,Berlin,Mo-Sa 07:00-22:00,Rewe,,,,,,yes,wlan,,+493060970124,,https://www.rewe.de/,52.41284684361787,13.493213749280079,
Netto Marken-Discount,Köpenicker Straße,25-29,12524,Berlin,Mo-Sa 07:00-22:00,Netto Marken-Discount,,yes,,yes,,,wlan,,,,https://www.netto-online.de/filialen/Berlin-Altglienicke/Koepenicker-Str-27/5724/,52.419048450068686,13.53746665930481,
Penny Fehrbelliner Tor,Fehrbelliner Straße,29,13585,Berlin,"Mo-Sa 07:00-22:00; Su,PH off",Penny,,yes,yes,yes,,yes,,,,,https://penny-gruener-weg.de,52.55328829228474,13.197972138794514,
Kaufland,Grünhofer Weg,9,13581,Berlin,Mo-Sa 07:00-22:00,Kaufland,,,,,,yes,,,,,,52.53295671894104,13.189194185462611,
Lidl,,,,,Mo-Sa 08:00-21:00,Lidl,,,,,,yes,,,,,https://www.lidl.de/,52.55396018220697,13.401005055126928,
REWE,Ernststraße,7,13509,Berlin,Mo-Sa 07:00-22:00,Rewe,,,,,,yes,,,,,,52.58325686233185,13.29154481216451,
Rewe,Hönower Straße,74 - 80,12623,Berlin,Mo-Sa 07:00-22:00; PH off,REWE,,,,,,yes,,,,,https://www.rewe.de/marktseite/berlin-stadt/1766069/rewe-markt-hoenower-strasse-74-80/,52.511879357051356,13.61387034127866,
EDEKA Kaulsdorfer Straße,Kaulsdorfer Straße,94,12621,Berlin,Mo-Sa 07:00-21:30; PH off,EDEKA,,,,,,yes,,,+49 30 21456443,,https://www.edeka.de/eh/minden-hannover/edeka-woolard-kaulsdorfer-str.-94/index.jsp,52.47511185864525,13.56849141027513,
Kaufland,Pichelswerderstraße,6,13597,Berlin,Mo-Sa 07:00-22:00,Kaufland,,,,,,yes,,,+49 30 58597600,,https://www.kaufland.de/service/filiale.storeName=DE2043.html,52.52945010418416,13.214437028743847,
Aldi,Brunsbütteler Damm,201/203,13581,Berlin,Mo-Sa 07:00-21:00,Aldi Nord,,,,,,yes,,,,,,52.532898081839974,13.167105963738278,
Aldi,Bergstraße,93-97,12169,Berlin,"Mo-Sa 07:00-21:00; Su,PH off",Aldi Nord,,,,,,yes,,,,,https://www.aldi-nord.de/filialen-und-oeffnungszeiten.html/l/berlin/bergstrasse-93-97/3181113,52.45844896412778,13.3271995214472,
REWE,Tamara-Danz-Straße,11,10243,Berlin,"Mo-Th 07:00-23:00; Fr-Sa 07:00-24:00; Su,PH off",Rewe,,,,,,,,,,,,52.506058543652465,13.447486513329066,
PENNY,Schönerlinder Straße,62,13127,Berlin,Mo-Sa 07:00-21:00,Penny,,,,,,yes,,,,,,52.61346115166431,13.434013382358655,
Penny,,,,,Mo-Sa 07:00-21:00,Penny,,,,,,yes,,,,,,52.43372579778355,13.469683597076479,
ALDI Nord,Müggelheimer Damm,244,12559,,Mo-Sa 07:00-20:00,ALDI Nord,,,,,,yes,,,,,https://www.aldi-nord.de/filialen-und-oeffnungszeiten.html/l/berlin/muggelheimer-damm-244-252/3182014,52.41379987504079,13.656916892053095,
Lidl,Rastatter Straße,3,12623,Berlin,Mo-Sa 07:00-21:00; PH off,Lidl,,,,,,,,,,,,52.490046361519006,13.605631620335485,
REWE,Neue Grottkauer Straße,9,12619,Berlin,Mo-Sa 07:00-22:00; PH off,REWE,,,,,,yes,,,,,,52.529403909915615,13.594113073483399,
REWE,Gotlindestraße,40A,10365,Berlin,Mo-Sa 06:00-22:00,Rewe,,,,,,yes,,,+49 (0)30 346455620,,https://www.rewe.de/angebote/berlin-stadt/1766134/rewe-markt-gotlindestrasse-40-a/,52.51872857347565,13.49707090169707,
REWE,Fritz-Lang-Straße,3,12627,Berlin,Mo-Sa 06:00-22:00; PH off,REWE,,,,,,yes,,,,,,52.53692925905446,13.602520737690387,
Aldi,Paulsternstraße,20,13629,Berlin,Mo-Sa 08:00-21:00,Aldi Nord,,,,,,yes,,,,,,52.54112162473457,13.24814049508719,
Lidl,Hönower Straße,99,12623,Berlin,Mo-Sa 07:00-21:00; PH off,Lidl,,,,,,yes,wlan,,,,https://www.lidl.de/,52.5137619310151,13.611305425295036,
REWE,Revaler Straße,33,10245,Berlin,Mo-Sa 06:00-23:30,Rewe,,yes,yes,yes,,yes,,,,,,52.505535239402654,13.459429089234845,
Alnatura Super Natur Markt,Leonorenstraße,99,12247,Berlin,Mo-Sa 08:00-21:00,Alnatura,,,,,,yes,,,,,https://www.alnatura.de/de-de/maerkte/marktseiten/berlin/berlin-alnatura-super-natur-markt-b211/,52.43670829750012,13.345688105008728,
Aldi,Galenstraße,35,13597,Berlin,Mo-Sa 07:00-21:00,Aldi Nord,,,,,,yes,,,,,,52.53951021494217,13.197074813841805,
Lidl,Markgrafendamm,25C,10245,Berlin,Mo-Sa 07:00-22:00,Lidl,,,,,,yes,,,,,,52.50059623320932,13.465350495407572,
Lidl,,,,,Mo-Sa 07:00-21:00,Lidl,,,,,,,,,,,,52.57663615009731,13.325713474199155,
EDEKA,Dörpfeldstraße,46,12489,Berlin,Mo-Fr 07:00-24:00; Sa 07:00-23:30,Edeka,,yes,yes,,,yes,wlan,,,edeka.doerpfeldstrasse@minden.edeka.de,,52.438304713176414,13.548342610119994,
EDEKA Groß,Körnerstraße,30-31,12157,Berlin,Mo-Sa 07:00-22:00,EDEKA,,,,,,yes,,,,,,52.462199569754326,13.333039390644904,
REWE Center,Badstraße,4,,,Mo-Sa 08:00-22:00; PH off,Rewe,,yes,yes,yes,,yes,wlan,,,,,52.54982223924569,13.390807434104177,
Aldi,,,,,Mo-Sa 07:00-21:00,Aldi Nord,,,,,,,,,,,https://www.aldi-nord.de/filialen-und-oeffnungszeiten.html/l/berlin/regattastrasse-51-53/4077699,52.42363557710749,13.577053270862235,
EDEKA Voigt,Bölschestraße,36,12587,Berlin,Mo-Fr 07:00-24:00; Sa 07:00-23:30,EDEKA,,,,,,yes,,,,,,52.451380418336676,13.625832312785262,
Lidl,Lipschitzallee,50,12353,,Mo-Sa 08:00-22:00,Lidl,,,,,,yes,,,,,,52.42633528977298,13.464433115061134,
Kaufland,Perleberger Straße,42,10559,Berlin,Mo-Sa 07:00-22:00,Kaufland,,,,,,yes,,,,,https://filiale.kaufland.de/service/filiale/berlin-moabit-6800.html,52.52849695257134,13.343873106271456,
LPG BioMarkt,,,,,Mo-Sa 08:00-21:00; PH off,LPG BioMarkt,,yes,yes,yes,,yes,wlan,,,,,52.523620869464246,13.346136010114925,
LEDO,Goebenstraße,24-26,10783,,Mo-Sa 09:00-20:00,,,,,,,,,,,,https://www.ledo-supermarkt.de,52.49426314458165,13.363269655663517,
